RD,TDLinx,Store Name - Nielsen,Store Type,Street Name,Barangay,Municipality,Province,Region,Longitude,Latitude,Accuracy,Average Daily Sales: Sari Sari Store,Located? (Yes/No),cluster_label
Extreme Reach,7K012482,No Trade Name,Sari Sari Store,Santan street,"Calumpang,126303033",GENERAL SANTOS CITY (DADIANGAS),SOUTH COTABATO,9 S Mindanao,125.1407167,6.0824,1.7,"501 - 2,000",No,2
Extreme Reach,7K012480,ROSE STORE,Sari Sari Store,Gumamela street,"Calumpang,126303033",GENERAL SANTOS CITY (DADIANGAS),SOUTH COTABATO,9 S Mindanao,125.14037,6.082275,1.7,"501 - 2,000",No,2
Extreme Reach,7K012319,CAPARIDA STORE,Sari Sari Store,Cahilsot village,"Calumpang,126303033",GENERAL SANTOS CITY (DADIANGAS),SOUTH COTABATO,9 S Mindanao,125.1412283,6.083756667,1.5,"501 - 2,000",No,2
Extreme Reach,7K012326,No Trade Name,Sari Sari Store,Oblipas village,"Calumpang,126303033",GENERAL SANTOS CITY (DADIANGAS),SOUTH COTABATO,9 S Mindanao,125.1402633,6.083923333,1.4,101 - 500,No,2
Extreme Reach,7K012330,No Trade Name,Sari Sari Store,Oblipas village,"Calumpang,126303033",GENERAL SANTOS CITY (DADIANGAS),SOUTH COTABATO,9 S Mindanao,125.1408783,6.082755,1.4,"501 - 2,000",No,2
Extreme Reach,7K012351,MARWIN STORE,Sari Sari Store,Camia st. Cahilsot village,"Calumpang,126303033",GENERAL SANTOS CITY (DADIANGAS),SOUTH COTABATO,9 S Mindanao,125.1403733,6.080741667,1.6,"501 - 2,000",No,2
Extreme Reach,7K012370,ROSETE.STORE,Sari Sari Store,"Purok Bayanihan, Zone 2","Calumpang,126303033",GENERAL SANTOS CITY (DADIANGAS),SOUTH COTABATO,9 S Mindanao,125.15444,6.068593333,1.5,"501 - 2,000",No,195
Extreme Reach,7K012345,KAT STORE,Sari Sari Store,Rosal st. Cahilsot village,"Calumpang,126303033",GENERAL SANTOS CITY (DADIANGAS),SOUTH COTABATO,9 S Mindanao,125.139585,6.081025,1.9,"501 - 2,000",No,2
Extreme Reach,7K012486,BACHINELA STORE,Sari Sari Store,Rosal extension,"Calumpang,126303033",GENERAL SANTOS CITY (DADIANGAS),SOUTH COTABATO,9 S Mindanao,125.1392333,6.081506667,1.4,101 - 500,No,2
Extreme Reach,7K012349,APRILYN STORE,Sari Sari Store,San francisco. Cahilsot village,"Calumpang,126303033",GENERAL SANTOS CITY (DADIANGAS),SOUTH COTABATO,9 S Mindanao,125.14011,6.081538333,1.4,"501 - 2,000",No,2
Extreme Reach,7K012317,TUYOR STORE,Sari Sari Store,Cahilsot village kanto jurrassic,"Calumpang,126303033",GENERAL SANTOS CITY (DADIANGAS),SOUTH COTABATO,9 S Mindanao,125.1415633,6.082208333,1.7,"501 - 2,000",No,2
Extreme Reach,7K012320,No Trade Name,Sari Sari Store,Oblipas village,"Calumpang,126303033",GENERAL SANTOS CITY (DADIANGAS),SOUTH COTABATO,9 S Mindanao,125.1411583,6.0838,1.5,101 - 500,No,2
Extreme Reach,7K012366,No Trade Name,Sari Sari Store,"Purok Bayanihan, Zone.2","Calumpang,126303033",GENERAL SANTOS CITY (DADIANGAS),SOUTH COTABATO,9 S Mindanao,125.1538083,6.068488333,1.6,101 - 500,No,195
Extreme Reach,7K012328,REBLINGCA STORE,Sari Sari Store,JP Laurel street. Oblipas village,"Calumpang,126303033",GENERAL SANTOS CITY (DADIANGAS),SOUTH COTABATO,9 S Mindanao,125.1407267,6.083835,1.5,"3,501 And Up",No,2
Extreme Reach,7K012354,No Trade Name,Sari Sari Store,Orchid st. Cahilsot village,"Calumpang,126303033",GENERAL SANTOS CITY (DADIANGAS),SOUTH COTABATO,9 S Mindanao,125.1411333,6.08067,1.7,101 - 500,No,2
Extreme Reach,7K012333,No Trade Name,Sari Sari Store,Gumamela st. Cahilsot village,"Calumpang,126303033",GENERAL SANTOS CITY (DADIANGAS),SOUTH COTABATO,9 S Mindanao,125.140325,6.082428333,1.3,101 - 500,No,2
Extreme Reach,7K012344,ELIZABETH STORE,Sari Sari Store,Rosal st. Cahilsot village,"Calumpang,126303033",GENERAL SANTOS CITY (DADIANGAS),SOUTH COTABATO,9 S Mindanao,125.139295,6.081458333,1.7,"501 - 2,000",No,2
Extreme Reach,7K012355,No Trade Name,Sari Sari Store,"Purok Bayanihan, Zone.3","Calumpang,126303033",GENERAL SANTOS CITY (DADIANGAS),SOUTH COTABATO,9 S Mindanao,125.15211,6.068796667,1.8,"501 - 2,000",No,195
Extreme Reach,7K012316,ELIZALDE STORE,Sari Sari Store,Cahilsot village,"Calumpang,126303033",GENERAL SANTOS CITY (DADIANGAS),SOUTH COTABATO,9 S Mindanao,125.1420567,6.081561667,1.7,"501 - 2,000",No,2
Extreme Reach,7K012352,ANTONIO STORE,Sari Sari Store,Santan st. Cahilsot village,"Calumpang,126303033",GENERAL SANTOS CITY (DADIANGAS),SOUTH COTABATO,9 S Mindanao,125.14072,6.080746667,1.5,"501 - 2,000",No,2
Extreme Reach,7K012477,No Trade Name,Sari Sari Store,San Francisco street cahilsot village,"Calumpang,126303033",GENERAL SANTOS CITY (DADIANGAS),SOUTH COTABATO,9 S Mindanao,125.139875,6.082821667,1.6,101 - 500,No,2
Extreme Reach,7K012346,No Trade Name,Sari Sari Store,Rosal st. Cahilsot village,"Calumpang,126303033",GENERAL SANTOS CITY (DADIANGAS),SOUTH COTABATO,9 S Mindanao,125.13955,6.080455,1.5,101 - 500,No,2
Extreme Reach,7K012462,No Trade Name,Sari Sari Store,Cahilsot kanto jurassic,"Calumpang,126303033",GENERAL SANTOS CITY (DADIANGAS),SOUTH COTABATO,9 S Mindanao,125.1413433,6.082613333,1.4,"501 - 2,000",No,2
Extreme Reach,7K014202,3RRN VARIETY STORE,Sari Sari Store,Greenville,"Calumpang,126303033",GENERAL SANTOS CITY (DADIANGAS),SOUTH COTABATO,9 S Mindanao,125.1320283,6.08442,1.6,"2001 - 3,500",No,183
Extreme Reach,7K011111,No Trade Name,Sari Sari Store,purok maliwanag,"Calumpang,126303033",GENERAL SANTOS CITY (DADIANGAS),SOUTH COTABATO,9 S Mindanao,125.1429583,6.075458333,1.5,"2001 - 3,500",No,34
Extreme Reach,7K012459,No Trade Name,Sari Sari Store,Ilang ilang street,"Calumpang,126303033",GENERAL SANTOS CITY (DADIANGAS),SOUTH COTABATO,9 S Mindanao,125.1418383,6.080501667,1.6,"501 - 2,000",No,2
Extreme Reach,7K012369,No Trade Name,Sari Sari Store,"Purok Bayanihan, Zone 2","Calumpang,126303033",GENERAL SANTOS CITY (DADIANGAS),SOUTH COTABATO,9 S Mindanao,125.1543817,6.06854,1.3,"501 - 2,000",No,195
Extreme Reach,7K012331,SHANNA'S STORE,Sari Sari Store,RAGS st. Oblipas village,"Calumpang,126303033",GENERAL SANTOS CITY (DADIANGAS),SOUTH COTABATO,9 S Mindanao,125.1402967,6.082906667,1.6,"501 - 2,000",No,2
Extreme Reach,7K012348,5 ANGEL'S STORE,Sari Sari Store,Rosal st. Cahilsot village,"Calumpang,126303033",GENERAL SANTOS CITY (DADIANGAS),SOUTH COTABATO,9 S Mindanao,125.139575,6.081466667,1.8,"3,501 And Up",No,2
Extreme Reach,7K014729,No Trade Name,Sari Sari Store,"prk 10-B, brgy Fatima","Calumpang,126303033",GENERAL SANTOS CITY (DADIANGAS),SOUTH COTABATO,9 S Mindanao,125.1248917,6.074553333,1.3,101 - 500,No,48
Extreme Reach,7K014135,VILLAFUERTE STORE,Sari Sari Store,Obasa Street Carmenville,"Calumpang,126303033",GENERAL SANTOS CITY (DADIANGAS),SOUTH COTABATO,9 S Mindanao,125.1360217,6.078701667,1.5,101 - 500,No,48
Extreme Reach,7K014732,No Trade Name,Sari Sari Store,"prk 10-B, brgy Fatima","Calumpang,126303033",GENERAL SANTOS CITY (DADIANGAS),SOUTH COTABATO,9 S Mindanao,125.1237633,6.074631667,1.6,101 - 500,No,48
Extreme Reach,7K014847,No Trade Name,Sari Sari Store,Purok 10-A barangay fatima,"Calumpang,126303033",GENERAL SANTOS CITY (DADIANGAS),SOUTH COTABATO,9 S Mindanao,125.1234467,6.07389,1.7,101 - 500,No,48
Extreme Reach,7K014839,KEAN's GROCERY STORE,Sari Sari Store,Rizal Street,"Calumpang,126303033",GENERAL SANTOS CITY (DADIANGAS),SOUTH COTABATO,9 S Mindanao,125.1397983,6.074126667,1.6,"2001 - 3,500",No,186
Extreme Reach,7K014722,No Trade Name,Sari Sari Store,"prk 10-B , brgy Fatima","Calumpang,126303033",GENERAL SANTOS CITY (DADIANGAS),SOUTH COTABATO,9 S Mindanao,125.1278567,6.074496667,1.4,101 - 500,No,48
Extreme Reach,7K014841,No Trade Name,Sari Sari Store,Upper Calumpang,"Calumpang,126303033",GENERAL SANTOS CITY (DADIANGAS),SOUTH COTABATO,9 S Mindanao,125.12228,6.075625,5,"501 - 2,000",No,48
Extreme Reach,7K014728,No Trade Name,Sari Sari Store,"prk 10-B, brgy Fatima","Calumpang,126303033",GENERAL SANTOS CITY (DADIANGAS),SOUTH COTABATO,9 S Mindanao,125.12485,6.075498333,1.6,101 - 500,No,48
Extreme Reach,7K014715,No Trade Name,Sari Sari Store,"prk 10-A , brgy Fatima","Calumpang,126303033",GENERAL SANTOS CITY (DADIANGAS),SOUTH COTABATO,9 S Mindanao,125.1252783,6.073918333,1.8,101 - 500,No,48
Extreme Reach,7K014717,No Trade Name,Sari Sari Store,"prk 10-A , brgy Fatima","Calumpang,126303033",GENERAL SANTOS CITY (DADIANGAS),SOUTH COTABATO,9 S Mindanao,125.1265917,6.074111667,1.6,"501 - 2,000",No,48
Extreme Reach,7K014721,No Trade Name,Sari Sari Store,"prk 10-B , brgy Fatima","Calumpang,126303033",GENERAL SANTOS CITY (DADIANGAS),SOUTH COTABATO,9 S Mindanao,125.1274917,6.074338333,1.8,101 - 500,No,48
Extreme Reach,7K014842,DADAY STORE,Sari Sari Store,Upper Calumpang,"Calumpang,126303033",GENERAL SANTOS CITY (DADIANGAS),SOUTH COTABATO,9 S Mindanao,125.1223017,6.074368333,1.5,"501 - 2,000",No,48
Extreme Reach,7K014711,No Trade Name,Sari Sari Store,Upper Calumpang,"Calumpang,126303033",GENERAL SANTOS CITY (DADIANGAS),SOUTH COTABATO,9 S Mindanao,125.12228,6.07594,1.5,101 - 500,No,48
Extreme Reach,7K014716,No Trade Name,Sari Sari Store,"prk 10-A , brgy Fatima","Calumpang,126303033",GENERAL SANTOS CITY (DADIANGAS),SOUTH COTABATO,9 S Mindanao,125.1259533,6.074061667,1.3,101 - 500,No,48
Extreme Reach,7K014727,CRISTY SARI SARI STORE AND KAKANIN,Sari Sari Store,"prk 10-A , brgy Fatima","Calumpang,126303033",GENERAL SANTOS CITY (DADIANGAS),SOUTH COTABATO,9 S Mindanao,125.1249917,6.075086667,1.8,"501 - 2,000",No,48
Extreme Reach,7K014725,No Trade Name,Sari Sari Store,"prk 10-B , brgy Fatima","Calumpang,126303033",GENERAL SANTOS CITY (DADIANGAS),SOUTH COTABATO,9 S Mindanao,125.1260283,6.074515,1.5,101 - 500,No,48
Extreme Reach,7K010852,No Trade Name,Sari Sari Store,"Upper Acharon , Bangsamoro","Calumpang,126303033",GENERAL SANTOS CITY (DADIANGAS),SOUTH COTABATO,9 S Mindanao,125.1429217,6.067238333,1.7,101 - 500,No,184
Extreme Reach,7K010864,ALEIMAR STORE,Sari Sari Store,Malambu-on,"Calumpang,126303033",GENERAL SANTOS CITY (DADIANGAS),SOUTH COTABATO,9 S Mindanao,125.1385767,6.072743333,1.6,"501 - 2,000",No,186
Extreme Reach,7K010879,JIM-LYN STORE,Sari Sari Store,Purok Saeg Zone 1,"Calumpang,126303033",GENERAL SANTOS CITY (DADIANGAS),SOUTH COTABATO,9 S Mindanao,125.1521733,6.072428333,1.6,"2001 - 3,500",No,196
Extreme Reach,7K016430,SKY PRANZ STORE,Sari Sari Store,,"Calumpang,126303033",GENERAL SANTOS CITY (DADIANGAS),SOUTH COTABATO,9 S Mindanao,125.1471617,6.079768333,1.4,"501 - 2,000",No,191
Extreme Reach,7K010942,NENENG SARI-SARI STORE,Sari Sari Store,Malambu-on,"Calumpang,126303033",GENERAL SANTOS CITY (DADIANGAS),SOUTH COTABATO,9 S Mindanao,125.1400533,6.073176667,1.3,"3,501 And Up",No,186
Extreme Reach,7K010867,LJ' S & Quin 2Ã— STORE,Sari Sari Store,Malambu-on,"Calumpang,126303033",GENERAL SANTOS CITY (DADIANGAS),SOUTH COTABATO,9 S Mindanao,125.13785,6.071976667,1.6,"501 - 2,000",No,186
Extreme Reach,7K010849,No Trade Name,Sari Sari Store,"Upper Acharon , Bangsamoro","Calumpang,126303033",GENERAL SANTOS CITY (DADIANGAS),SOUTH COTABATO,9 S Mindanao,125.1429233,6.068585,1.7,"501 - 2,000",No,184
Extreme Reach,7K010856,No Trade Name,Sari Sari Store,Lower Acharon,"Calumpang,126303033",GENERAL SANTOS CITY (DADIANGAS),SOUTH COTABATO,9 S Mindanao,125.142945,6.069285,1.7,101 - 500,No,184
Extreme Reach,7K010878,No Trade Name,Sari Sari Store,Purok Saeg Zone 1,"Calumpang,126303033",GENERAL SANTOS CITY (DADIANGAS),SOUTH COTABATO,9 S Mindanao,125.1518783,6.072561667,1.5,"501 - 2,000",No,196
Extreme Reach,7K010848,ALFASAIN STORE,Sari Sari Store,"Upper Acharon , Bangsamoro","Calumpang,126303033",GENERAL SANTOS CITY (DADIANGAS),SOUTH COTABATO,9 S Mindanao,125.1429783,6.070031667,1.9,"501 - 2,000",No,185
Extreme Reach,7K010859,No Trade Name,Sari Sari Store,Malambuon,"Calumpang,126303033",GENERAL SANTOS CITY (DADIANGAS),SOUTH COTABATO,9 S Mindanao,125.1388983,6.071281667,1.5,"501 - 2,000",No,186
Extreme Reach,7K010886,No Trade Name,Sari Sari Store,Purok Saeg Zone 4,"Calumpang,126303033",GENERAL SANTOS CITY (DADIANGAS),SOUTH COTABATO,9 S Mindanao,125.1527833,6.071956667,1.9,"501 - 2,000",No,196
Extreme Reach,7K015338,No Trade Name,Sari Sari Store,Rovalgon Brgy. Calumpang,"Calumpang,126303033",GENERAL SANTOS CITY (DADIANGAS),SOUTH COTABATO,9 S Mindanao,125.138875,6.093426667,1.6,"501 - 2,000",No,180
Extreme Reach,7K010857,No Trade Name,Sari Sari Store,Lower Acharon,"Calumpang,126303033",GENERAL SANTOS CITY (DADIANGAS),SOUTH COTABATO,9 S Mindanao,125.1429533,6.070298333,1.9,101 - 500,No,185
Extreme Reach,7K010865,FRANK SARI SARI STORE,Sari Sari Store,Malambu-on,"Calumpang,126303033",GENERAL SANTOS CITY (DADIANGAS),SOUTH COTABATO,9 S Mindanao,125.138425,6.072396667,1.4,"501 - 2,000",No,186
Extreme Reach,7K010869,YAN-YAN STORE,Sari Sari Store,Malambu-on,"Calumpang,126303033",GENERAL SANTOS CITY (DADIANGAS),SOUTH COTABATO,9 S Mindanao,125.138785,6.071968333,1.4,"501 - 2,000",No,186
Extreme Reach,7K010899,No Trade Name,Sari Sari Store,Purok Saeg Zone 4,"Calumpang,126303033",GENERAL SANTOS CITY (DADIANGAS),SOUTH COTABATO,9 S Mindanao,125.153765,6.070851667,1.3,"501 - 2,000",No,196
Extreme Reach,7K010863,BIBOY STORE,Sari Sari Store,Malambu-on,"Calumpang,126303033",GENERAL SANTOS CITY (DADIANGAS),SOUTH COTABATO,9 S Mindanao,125.13881,6.072983333,1.5,"501 - 2,000",No,186
Extreme Reach,7K010872,LITA STORE,Sari Sari Store,Malambu-on,"Calumpang,126303033",GENERAL SANTOS CITY (DADIANGAS),SOUTH COTABATO,9 S Mindanao,125.1387733,6.071661667,1.7,"501 - 2,000",No,186
Extreme Reach,7K010739,No Trade Name,Sari Sari Store,Purok bangsamoro,"Calumpang,126303033",GENERAL SANTOS CITY (DADIANGAS),SOUTH COTABATO,9 S Mindanao,125.1421467,6.07075,1.8,"501 - 2,000",No,185
Extreme Reach,7K016431,SOYSOY STORE,Sari Sari Store,,"Calumpang,126303033",GENERAL SANTOS CITY (DADIANGAS),SOUTH COTABATO,9 S Mindanao,125.1463617,6.078003333,1.4,"501 - 2,000",No,191
Extreme Reach,7K010855,No Trade Name,Sari Sari Store,"Upper Acharon , Bangsamoro","Calumpang,126303033",GENERAL SANTOS CITY (DADIANGAS),SOUTH COTABATO,9 S Mindanao,125.1429933,6.068891667,1.3,"501 - 2,000",No,184
Extreme Reach,7K010890,No Trade Name,Sari Sari Store,Purok Saeg Zone 4,"Calumpang,126303033",GENERAL SANTOS CITY (DADIANGAS),SOUTH COTABATO,9 S Mindanao,125.152795,6.071578333,1.4,101 - 500,No,196
Extreme Reach,7K010860,SUNGER VARIETY STORE,Sari Sari Store,Malambu-on,"Calumpang,126303033",GENERAL SANTOS CITY (DADIANGAS),SOUTH COTABATO,9 S Mindanao,125.1392683,6.072373333,1.4,"501 - 2,000",No,186
Extreme Reach,7K010882,Mega H Fishing Supplies,Sari Sari Store,Purok Saeg Zone 4,"Calumpang,126303033",GENERAL SANTOS CITY (DADIANGAS),SOUTH COTABATO,9 S Mindanao,125.1523833,6.072033333,1.7,"501 - 2,000",No,196
Extreme Reach,7K010894,No Trade Name,Sari Sari Store,Purok Saeg Zone 4,"Calumpang,126303033",GENERAL SANTOS CITY (DADIANGAS),SOUTH COTABATO,9 S Mindanao,125.1528233,6.071646667,1.5,"501 - 2,000",No,196
Extreme Reach,7K010861,No Trade Name,Sari Sari Store,Malambu-on,"Calumpang,126303033",GENERAL SANTOS CITY (DADIANGAS),SOUTH COTABATO,9 S Mindanao,125.1401617,6.07306,1.9,101 - 500,No,186
Extreme Reach,7K016363,No Trade Name,Sari Sari Store,Upper puting Bato,"Calumpang,126303033",GENERAL SANTOS CITY (DADIANGAS),SOUTH COTABATO,9 S Mindanao,125.1493567,6.08937,1.9,101 - 500,No,189
Extreme Reach,7K015346,No Trade Name,Sari Sari Store,Rovalgon Brgy. Calumpang,"Calumpang,126303033",GENERAL SANTOS CITY (DADIANGAS),SOUTH COTABATO,9 S Mindanao,125.141595,6.093568333,1.9,"501 - 2,000",No,193
Extreme Reach,7K015344,No Trade Name,Sari Sari Store,Rovalgon Brgy. Calumpang,"Calumpang,126303033",GENERAL SANTOS CITY (DADIANGAS),SOUTH COTABATO,9 S Mindanao,125.1381117,6.09301,1.7,101 - 500,No,180
Extreme Reach,7K015345,No Trade Name,Sari Sari Store,Rovalgon Brgy. Calumpang,"Calumpang,126303033",GENERAL SANTOS CITY (DADIANGAS),SOUTH COTABATO,9 S Mindanao,125.1406467,6.093171667,1.8,"501 - 2,000",No,193
Extreme Reach,7K015320,No Trade Name,Sari Sari Store,Quilantang zone 8 brgy. Calumpang,"Calumpang,126303033",GENERAL SANTOS CITY (DADIANGAS),SOUTH COTABATO,9 S Mindanao,125.1450783,6.091901667,1.9,"501 - 2,000",No,193
Extreme Reach,7K015340,No Trade Name,Sari Sari Store,Rovalgon Brgy. Calumpang,"Calumpang,126303033",GENERAL SANTOS CITY (DADIANGAS),SOUTH COTABATO,9 S Mindanao,125.1386783,6.093045,1.3,"501 - 2,000",No,180
Extreme Reach,7K015332,No Trade Name,Sari Sari Store,Quilantang brgy. Calumpang,"Calumpang,126303033",GENERAL SANTOS CITY (DADIANGAS),SOUTH COTABATO,9 S Mindanao,125.1433467,6.092936667,1.7,101 - 500,No,193
Extreme Reach,7K015315,No Trade Name,Sari Sari Store,Quilantang zone 8 brgy. Calumpang,"Calumpang,126303033",GENERAL SANTOS CITY (DADIANGAS),SOUTH COTABATO,9 S Mindanao,125.1442433,6.092231667,1.9,101 - 500,No,193
Extreme Reach,7K015322,MARTINITO STORE,Sari Sari Store,Quilantang zone 8 brgy. Calumpang,"Calumpang,126303033",GENERAL SANTOS CITY (DADIANGAS),SOUTH COTABATO,9 S Mindanao,125.1445683,6.090706667,1.9,101 - 500,No,193
Extreme Reach,7K015330,No Trade Name,Sari Sari Store,Quilantang brgy. Calumpang,"Calumpang,126303033",GENERAL SANTOS CITY (DADIANGAS),SOUTH COTABATO,9 S Mindanao,125.1436633,6.093156667,1.5,101 - 500,No,193
Extreme Reach,7K010664,No Trade Name,Sari Sari Store,Upper Acharon,"Calumpang,126303033",GENERAL SANTOS CITY (DADIANGAS),SOUTH COTABATO,9 S Mindanao,125.1425967,6.069566667,1.6,"501 - 2,000",No,184
Extreme Reach,7K010672,No Trade Name,Sari Sari Store,Upper Acharon,"Calumpang,126303033",GENERAL SANTOS CITY (DADIANGAS),SOUTH COTABATO,9 S Mindanao,125.141685,6.070856667,1.7,101 - 500,No,185
Extreme Reach,7K010640,SUSAN STORE,Sari Sari Store,Upper Acharon,"Calumpang,126303033",GENERAL SANTOS CITY (DADIANGAS),SOUTH COTABATO,9 S Mindanao,125.1400917,6.070356667,1.6,"501 - 2,000",No,186
Extreme Reach,7K010651,AGAD STORE,Sari Sari Store,Upper Acharon,"Calumpang,126303033",GENERAL SANTOS CITY (DADIANGAS),SOUTH COTABATO,9 S Mindanao,125.1411533,6.068853333,1.8,"501 - 2,000",No,184
Extreme Reach,7K010699,WAJE STORE,Sari Sari Store,Upper Acharon,"Calumpang,126303033",GENERAL SANTOS CITY (DADIANGAS),SOUTH COTABATO,9 S Mindanao,125.14231,6.068506667,1.5,"3,501 And Up",No,184
Extreme Reach,7K016264,No Trade Name,Sari Sari Store,Upper puting Bato,"Calumpang,126303033",GENERAL SANTOS CITY (DADIANGAS),SOUTH COTABATO,9 S Mindanao,125.1484483,6.089118333,1.8,101 - 500,No,189
Extreme Reach,7K016362,No Trade Name,Sari Sari Store,Upper puting Bato,"Calumpang,126303033",GENERAL SANTOS CITY (DADIANGAS),SOUTH COTABATO,9 S Mindanao,125.1498217,6.088803333,2,101 - 500,No,189
Extreme Reach,7K016365,No Trade Name,Sari Sari Store,Crisostomo village brgy calumpang,"Calumpang,126303033",GENERAL SANTOS CITY (DADIANGAS),SOUTH COTABATO,9 S Mindanao,125.14313,6.084333333,1.8,101 - 500,No,192
Extreme Reach,7K016427,No Trade Name,Sari Sari Store,Dagohoy street,"Calumpang,126303033",GENERAL SANTOS CITY (DADIANGAS),SOUTH COTABATO,9 S Mindanao,125.1467017,6.080988333,1.6,"501 - 2,000",No,190
Extreme Reach,7K016387,No Trade Name,Sari Sari Store,Purok Veterans Mabini street brgy calumpang,"Calumpang,126303033",GENERAL SANTOS CITY (DADIANGAS),SOUTH COTABATO,9 S Mindanao,125.1456967,6.080448333,1.7,101 - 500,No,190
Extreme Reach,7K016383,No Trade Name,Sari Sari Store,Purok Veterans Rizal ave brgy calumpang,"Calumpang,126303033",GENERAL SANTOS CITY (DADIANGAS),SOUTH COTABATO,9 S Mindanao,125.1462483,6.081775,1.4,"501 - 2,000",No,190
Extreme Reach,7K010659,ALPAJANDO STORE,Sari Sari Store,Upper Acharon,"Calumpang,126303033",GENERAL SANTOS CITY (DADIANGAS),SOUTH COTABATO,9 S Mindanao,125.14235,6.06881,1.6,"501 - 2,000",No,184
Extreme Reach,7K010667,No Trade Name,Sari Sari Store,Upper Acharon,"Calumpang,126303033",GENERAL SANTOS CITY (DADIANGAS),SOUTH COTABATO,9 S Mindanao,125.1422283,6.069533333,1.7,"501 - 2,000",No,184
Extreme Reach,7K010668,AMORAN DATU EMAM STORE,Sari Sari Store,Upper Acharon,"Calumpang,126303033",GENERAL SANTOS CITY (DADIANGAS),SOUTH COTABATO,9 S Mindanao,125.1427733,6.069968333,1.7,"501 - 2,000",No,184
Extreme Reach,7K016268,No Trade Name,Sari Sari Store,Upper puting Bato,"Calumpang,126303033",GENERAL SANTOS CITY (DADIANGAS),SOUTH COTABATO,9 S Mindanao,125.148665,6.088535,1.7,"501 - 2,000",No,189
Extreme Reach,7K016372,No Trade Name,Sari Sari Store,Purok Vetetans malvar street brgy calumpang,"Calumpang,126303033",GENERAL SANTOS CITY (DADIANGAS),SOUTH COTABATO,9 S Mindanao,125.1444433,6.080576667,1.5,101 - 500,No,190
Extreme Reach,7K016378,No Trade Name,Sari Sari Store,Purok Veterans Rizal street brgy calumpang,"Calumpang,126303033",GENERAL SANTOS CITY (DADIANGAS),SOUTH COTABATO,9 S Mindanao,125.1457567,6.081593333,1.7,101 - 500,No,190
Extreme Reach,7K016405,No Trade Name,Sari Sari Store,Upper puting bato,"Calumpang,126303033",GENERAL SANTOS CITY (DADIANGAS),SOUTH COTABATO,9 S Mindanao,125.1490367,6.08909,1.4,"501 - 2,000",No,189
Extreme Reach,7K016402,No Trade Name,Sari Sari Store,Upper puting bato,"Calumpang,126303033",GENERAL SANTOS CITY (DADIANGAS),SOUTH COTABATO,9 S Mindanao,125.148835,6.088048333,1.6,"501 - 2,000",No,189
Extreme Reach,7K016420,EVA STORE,Sari Sari Store,Malvar street,"Calumpang,126303033",GENERAL SANTOS CITY (DADIANGAS),SOUTH COTABATO,9 S Mindanao,125.1453133,6.081003333,1.3,"2001 - 3,500",No,190
Extreme Reach,7K010617,No Trade Name,Sari Sari Store,Purok San Juan,"Calumpang,126303033",GENERAL SANTOS CITY (DADIANGAS),SOUTH COTABATO,9 S Mindanao,125.1472067,6.072015,1.3,"501 - 2,000",No,194
Extreme Reach,7K016382,No Trade Name,Sari Sari Store,Purok Veterans Del Pilar street brgy calumpang,"Calumpang,126303033",GENERAL SANTOS CITY (DADIANGAS),SOUTH COTABATO,9 S Mindanao,125.1460583,6.080966667,1.4,101 - 500,No,190
Extreme Reach,7K010629,No Trade Name,Sari Sari Store,Purok Mendoza,"Calumpang,126303033",GENERAL SANTOS CITY (DADIANGAS),SOUTH COTABATO,9 S Mindanao,125.14896,6.071375,1.5,101 - 500,No,194
Extreme Reach,7K010620,No Trade Name,Sari Sari Store,Purok San Juan,"Calumpang,126303033",GENERAL SANTOS CITY (DADIANGAS),SOUTH COTABATO,9 S Mindanao,125.1472067,6.071526667,1.4,"501 - 2,000",No,194
Extreme Reach,7K016267,No Trade Name,Sari Sari Store,Upper puting Bato,"Calumpang,126303033",GENERAL SANTOS CITY (DADIANGAS),SOUTH COTABATO,9 S Mindanao,125.1485667,6.088546667,1.7,101 - 500,No,189
Extreme Reach,7K010650,BRVV STORE,Sari Sari Store,Apitong street Upper Acharon,"Calumpang,126303033",GENERAL SANTOS CITY (DADIANGAS),SOUTH COTABATO,9 S Mindanao,125.1412367,6.069405,1.4,"501 - 2,000",No,184
Extreme Reach,7K010474,JAMMS STORE,Sari Sari Store,Upper Acharon,"Calumpang,126303033",GENERAL SANTOS CITY (DADIANGAS),SOUTH COTABATO,9 S Mindanao,125.1400883,6.072223333,1.6,"501 - 2,000",No,186
Extreme Reach,7K015323,No Trade Name,Sari Sari Store,Quilantang brgy. Calumpang,"Calumpang,126303033",GENERAL SANTOS CITY (DADIANGAS),SOUTH COTABATO,9 S Mindanao,125.1444,6.08991,1.5,101 - 500,No,193
Extreme Reach,7K016370,No Trade Name,Sari Sari Store,Jurassic brgy calumpang,"Calumpang,126303033",GENERAL SANTOS CITY (DADIANGAS),SOUTH COTABATO,9 S Mindanao,125.14179,6.083621667,1.7,"501 - 2,000",No,2
Extreme Reach,7K016359,No Trade Name,Sari Sari Store,Upper puting Bato,"Calumpang,126303033",GENERAL SANTOS CITY (DADIANGAS),SOUTH COTABATO,9 S Mindanao,125.1492683,6.088821667,1.7,101 - 500,No,189
Extreme Reach,7K016266,No Trade Name,Sari Sari Store,Upper puting Bato,"Calumpang,126303033",GENERAL SANTOS CITY (DADIANGAS),SOUTH COTABATO,9 S Mindanao,125.148365,6.088503333,1.7,101 - 500,No,189
Extreme Reach,7K010642,GUMAPAC STORE,Sari Sari Store,Apitong street Upper Acharon,"Calumpang,126303033",GENERAL SANTOS CITY (DADIANGAS),SOUTH COTABATO,9 S Mindanao,125.1408867,6.06968,1.6,101 - 500,No,184
Extreme Reach,7K015343,NATHANSKYE STORE,Sari Sari Store,Rovalgon Brgy. Calumpang,"Calumpang,126303033",GENERAL SANTOS CITY (DADIANGAS),SOUTH COTABATO,9 S Mindanao,125.1375367,6.092723333,1.8,"501 - 2,000",No,180
Extreme Reach,7K015317,No Trade Name,Sari Sari Store,Quilantang zone 8 brgy. Calumpang,"Calumpang,126303033",GENERAL SANTOS CITY (DADIANGAS),SOUTH COTABATO,9 S Mindanao,125.14455,6.092298333,1.7,101 - 500,No,193
Extreme Reach,7K015339,No Trade Name,Sari Sari Store,Rovalgon Brgy. Calumpang,"Calumpang,126303033",GENERAL SANTOS CITY (DADIANGAS),SOUTH COTABATO,9 S Mindanao,125.1390667,6.09343,1.8,"501 - 2,000",No,180
Extreme Reach,7K015336,No Trade Name,Sari Sari Store,Rovalgon Brgy. Calumpang,"Calumpang,126303033",GENERAL SANTOS CITY (DADIANGAS),SOUTH COTABATO,9 S Mindanao,125.1413117,6.093601667,1.4,101 - 500,No,193
Extreme Reach,7K015324,DELOS SANTOS STORE,Sari Sari Store,Quilantang brgy. Calumpang,"Calumpang,126303033",GENERAL SANTOS CITY (DADIANGAS),SOUTH COTABATO,9 S Mindanao,125.1443317,6.090443333,1.5,"501 - 2,000",No,193
Extreme Reach,7K015326,No Trade Name,Sari Sari Store,Quilantang brgy. Calumpang,"Calumpang,126303033",GENERAL SANTOS CITY (DADIANGAS),SOUTH COTABATO,9 S Mindanao,125.1440217,6.089843333,1.6,"501 - 2,000",No,193
Extreme Reach,7K016407,No Trade Name,Sari Sari Store,Upper puting bato,"Calumpang,126303033",GENERAL SANTOS CITY (DADIANGAS),SOUTH COTABATO,9 S Mindanao,125.1499117,6.089265,1.6,"501 - 2,000",No,189
Extreme Reach,7K010652,No Trade Name,Sari Sari Store,Upper Acharon,"Calumpang,126303033",GENERAL SANTOS CITY (DADIANGAS),SOUTH COTABATO,9 S Mindanao,125.1423133,6.068488333,1.4,"501 - 2,000",No,184
Extreme Reach,7K016257,ONG STORE,Sari Sari Store,Upper puting Bato,"Calumpang,126303033",GENERAL SANTOS CITY (DADIANGAS),SOUTH COTABATO,9 S Mindanao,125.1503583,6.088931667,1.8,101 - 500,No,189
Extreme Reach,7K016262,No Trade Name,Sari Sari Store,Upper puting Bato,"Calumpang,126303033",GENERAL SANTOS CITY (DADIANGAS),SOUTH COTABATO,9 S Mindanao,125.1504617,6.089465,1.9,101 - 500,No,189
Extreme Reach,7K016269,No Trade Name,Sari Sari Store,Upper puting Bato,"Calumpang,126303033",GENERAL SANTOS CITY (DADIANGAS),SOUTH COTABATO,9 S Mindanao,125.1488783,6.08848,1.9,"501 - 2,000",No,189
Extreme Reach,7K016366,No Trade Name,Sari Sari Store,Jurassic brgy calumpang,"Calumpang,126303033",GENERAL SANTOS CITY (DADIANGAS),SOUTH COTABATO,9 S Mindanao,125.14259,6.084738333,1.5,101 - 500,No,192
Extreme Reach,7K016384,KIDOS STORE,Sari Sari Store,Purok Veterans Aguinaldo street brgy calumpang,"Calumpang,126303033",GENERAL SANTOS CITY (DADIANGAS),SOUTH COTABATO,9 S Mindanao,125.1460117,6.081678333,1.9,"501 - 2,000",No,190
Extreme Reach,7K016406,No Trade Name,Sari Sari Store,Upper puting bato,"Calumpang,126303033",GENERAL SANTOS CITY (DADIANGAS),SOUTH COTABATO,9 S Mindanao,125.1492583,6.088868333,1.6,"501 - 2,000",No,189
Extreme Reach,7K012813,No Trade Name,Sari Sari Store,Camya street,"Calumpang,126303033",GENERAL SANTOS CITY (DADIANGAS),SOUTH COTABATO,9 S Mindanao,125.1406967,6.081526667,1.5,"3,501 And Up",No,2
Extreme Reach,7K012846,No Trade Name,Sari Sari Store,,"Calumpang,126303033",GENERAL SANTOS CITY (DADIANGAS),SOUTH COTABATO,9 S Mindanao,125.1379183,6.08688,1.7,"501 - 2,000",No,181
Extreme Reach,7K010613,No Trade Name,Sari Sari Store,Purok San Juan,"Calumpang,126303033",GENERAL SANTOS CITY (DADIANGAS),SOUTH COTABATO,9 S Mindanao,125.1481133,6.072213333,1.7,"501 - 2,000",No,194
Extreme Reach,7K014124,DIACAMOS STORE,Sari Sari Store,Lily valley,"Calumpang,126303033",GENERAL SANTOS CITY (DADIANGAS),SOUTH COTABATO,9 S Mindanao,125.1316567,6.084573333,1.6,101 - 500,No,183
Extreme Reach,7K014127,ABDON STORE,Sari Sari Store,Emillana heights,"Calumpang,126303033",GENERAL SANTOS CITY (DADIANGAS),SOUTH COTABATO,9 S Mindanao,125.1314817,6.084035,1.4,"501 - 2,000",No,183
Extreme Reach,7K014133,1M STORE,Sari Sari Store,Emillana Heights,"Calumpang,126303033",GENERAL SANTOS CITY (DADIANGAS),SOUTH COTABATO,9 S Mindanao,125.1321767,6.079631667,1.3,"501 - 2,000",No,48
Extreme Reach,7K014136,DHELIA STORE,Sari Sari Store,JP Rizal Street,"Calumpang,126303033",GENERAL SANTOS CITY (DADIANGAS),SOUTH COTABATO,9 S Mindanao,125.1400183,6.076053333,1.4,101 - 500,No,34
Extreme Reach,7K016354,No Trade Name,Sari Sari Store,Upper puting Bato,"Calumpang,126303033",GENERAL SANTOS CITY (DADIANGAS),SOUTH COTABATO,9 S Mindanao,125.1489433,6.0891,1.9,101 - 500,No,189
Extreme Reach,7K014137,D & D STORE,Sari Sari Store,JP Rizal Street,"Calumpang,126303033",GENERAL SANTOS CITY (DADIANGAS),SOUTH COTABATO,9 S Mindanao,125.1400183,6.075288333,1.5,"501 - 2,000",No,34
Extreme Reach,7K014145,No Trade Name,Sari Sari Store,Makar-Sarangani Highway,"Calumpang,126303033",GENERAL SANTOS CITY (DADIANGAS),SOUTH COTABATO,9 S Mindanao,125.14463,6.073356667,1.9,"501 - 2,000",No,34
Extreme Reach,7K014146,CAHAYAG CONSUMER GOODS,Sari Sari Store,Makar-Sarangani Highway,"Calumpang,126303033",GENERAL SANTOS CITY (DADIANGAS),SOUTH COTABATO,9 S Mindanao,125.1445617,6.073516667,1.4,"501 - 2,000",No,34
Extreme Reach,7K010641,JACKIE STORE,Sari Sari Store,Upper Acharon,"Calumpang,126303033",GENERAL SANTOS CITY (DADIANGAS),SOUTH COTABATO,9 S Mindanao,125.1412717,6.070403333,1.8,"501 - 2,000",No,184
Extreme Reach,7K016428,No Trade Name,Sari Sari Store,Dagohoy street,"Calumpang,126303033",GENERAL SANTOS CITY (DADIANGAS),SOUTH COTABATO,9 S Mindanao,125.1468367,6.080601667,1.6,"501 - 2,000",No,190
Extreme Reach,7K014205,No Trade Name,Sari Sari Store,Lily Valley,"Calumpang,126303033",GENERAL SANTOS CITY (DADIANGAS),SOUTH COTABATO,9 S Mindanao,125.13184,6.087008333,1.4,101 - 500,No,183
Extreme Reach,7K010665,JIRBREYARAIN STORE,Sari Sari Store,Upper Acharon,"Calumpang,126303033",GENERAL SANTOS CITY (DADIANGAS),SOUTH COTABATO,9 S Mindanao,125.1427767,6.069553333,1.5,"501 - 2,000",No,184
Extreme Reach,7K014351,No Trade Name,Sari Sari Store,,"Calumpang,126303033",GENERAL SANTOS CITY (DADIANGAS),SOUTH COTABATO,9 S Mindanao,125.1325633,6.084578333,1.6,"501 - 2,000",No,183
Extreme Reach,7K014352,No Trade Name,Sari Sari Store,,"Calumpang,126303033",GENERAL SANTOS CITY (DADIANGAS),SOUTH COTABATO,9 S Mindanao,125.1321317,6.08242,1.6,"501 - 2,000",No,183
Extreme Reach,7K014408,Rachel Store,Sari Sari Store,Christian Village,"Calumpang,126303033",GENERAL SANTOS CITY (DADIANGAS),SOUTH COTABATO,9 S Mindanao,125.1484417,6.077761667,1.5,101 - 500,No,191
Extreme Reach,7K014413,No Trade Name,Sari Sari Store,Christian Village,"Calumpang,126303033",GENERAL SANTOS CITY (DADIANGAS),SOUTH COTABATO,9 S Mindanao,125.1486183,6.077705,1.9,"501 - 2,000",No,191
Extreme Reach,7K010627,No Trade Name,Sari Sari Store,Purok San Juan,"Calumpang,126303033",GENERAL SANTOS CITY (DADIANGAS),SOUTH COTABATO,9 S Mindanao,125.1481083,6.071863333,1.6,"501 - 2,000",No,194
Extreme Reach,7K010625,No Trade Name,Sari Sari Store,Purok San Juan,"Calumpang,126303033",GENERAL SANTOS CITY (DADIANGAS),SOUTH COTABATO,9 S Mindanao,125.1475517,6.072093333,1.5,101 - 500,No,194
Extreme Reach,7K014114,No Trade Name,Sari Sari Store,Lily valley,"Calumpang,126303033",GENERAL SANTOS CITY (DADIANGAS),SOUTH COTABATO,9 S Mindanao,125.13142,6.088146667,1.3,101 - 500,No,182
Extreme Reach,7K014115,HELEN STORE,Sari Sari Store,Lily valley,"Calumpang,126303033",GENERAL SANTOS CITY (DADIANGAS),SOUTH COTABATO,9 S Mindanao,125.13071,6.089318333,1.4,101 - 500,No,182
Extreme Reach,7K014121,No Trade Name,Sari Sari Store,,"Calumpang,126303033",GENERAL SANTOS CITY (DADIANGAS),SOUTH COTABATO,9 S Mindanao,125.1312717,6.086528333,1.7,"501 - 2,000",No,183
Extreme Reach,7K015347,No Trade Name,Sari Sari Store,Rovalgon Brgy. Calumpang,"Calumpang,126303033",GENERAL SANTOS CITY (DADIANGAS),SOUTH COTABATO,9 S Mindanao,125.142115,6.093503333,1.5,101 - 500,No,193
Extreme Reach,7K015342,No Trade Name,Sari Sari Store,Rovalgon Brgy. Calumpang,"Calumpang,126303033",GENERAL SANTOS CITY (DADIANGAS),SOUTH COTABATO,9 S Mindanao,125.1376483,6.093643333,1.5,"501 - 2,000",No,180
Extreme Reach,7K015341,No Trade Name,Sari Sari Store,Rovalgon Brgy. Calumpang,"Calumpang,126303033",GENERAL SANTOS CITY (DADIANGAS),SOUTH COTABATO,9 S Mindanao,125.1380933,6.093013333,1.5,"501 - 2,000",No,180
Extreme Reach,7K015337,No Trade Name,Sari Sari Store,Rovalgon Brgy. Calumpang,"Calumpang,126303033",GENERAL SANTOS CITY (DADIANGAS),SOUTH COTABATO,9 S Mindanao,125.1398383,6.093231667,1.6,"501 - 2,000",No,180
Extreme Reach,7K015334,No Trade Name,Sari Sari Store,Quilantang Zone 1 brgy. Calumpang,"Calumpang,126303033",GENERAL SANTOS CITY (DADIANGAS),SOUTH COTABATO,9 S Mindanao,125.1433467,6.093203333,1.7,"501 - 2,000",No,193
Extreme Reach,7K015333,EJ SARI SARI STORE,Sari Sari Store,Quilantang Zone 1 brgy. Calumpang,"Calumpang,126303033",GENERAL SANTOS CITY (DADIANGAS),SOUTH COTABATO,9 S Mindanao,125.1437667,6.092908333,1.8,101 - 500,No,193
Extreme Reach,7K015328,No Trade Name,Sari Sari Store,Quilantang brgy. Calumpang,"Calumpang,126303033",GENERAL SANTOS CITY (DADIANGAS),SOUTH COTABATO,9 S Mindanao,125.1425083,6.093106667,1.7,101 - 500,No,193
Extreme Reach,7K015327,No Trade Name,Sari Sari Store,Quilantang brgy. Calumpang,"Calumpang,126303033",GENERAL SANTOS CITY (DADIANGAS),SOUTH COTABATO,9 S Mindanao,125.1425117,6.092523333,1.5,101 - 500,No,193
Extreme Reach,7K015325,No Trade Name,Sari Sari Store,Quilantang brgy. Calumpang,"Calumpang,126303033",GENERAL SANTOS CITY (DADIANGAS),SOUTH COTABATO,9 S Mindanao,125.1444417,6.090771667,1.7,101 - 500,No,193
Extreme Reach,7K015319,No Trade Name,Sari Sari Store,Quilantang zone 8 brgy. Calumpang,"Calumpang,126303033",GENERAL SANTOS CITY (DADIANGAS),SOUTH COTABATO,9 S Mindanao,125.1449633,6.091613333,1.5,101 - 500,No,193
Extreme Reach,7K015318,ANNEL'S STORE,Sari Sari Store,Quilantang zone 8 brgy. Calumpang,"Calumpang,126303033",GENERAL SANTOS CITY (DADIANGAS),SOUTH COTABATO,9 S Mindanao,125.14477,6.091873333,1.5,"501 - 2,000",No,193
Extreme Reach,7K015316,No Trade Name,Sari Sari Store,Quilantang zone 8 brgy. Calumpang,"Calumpang,126303033",GENERAL SANTOS CITY (DADIANGAS),SOUTH COTABATO,9 S Mindanao,125.14445,6.092325,1.6,"501 - 2,000",No,193
Extreme Reach,7K016270,No Trade Name,Sari Sari Store,Upper puting Bato,"Calumpang,126303033",GENERAL SANTOS CITY (DADIANGAS),SOUTH COTABATO,9 S Mindanao,125.1486367,6.088228333,1.7,"501 - 2,000",No,189
Extreme Reach,7K015335,No Trade Name,Sari Sari Store,Quilantang Zone 1 brgy. Calumpang,"Calumpang,126303033",GENERAL SANTOS CITY (DADIANGAS),SOUTH COTABATO,9 S Mindanao,125.14248,6.093383333,1.5,"501 - 2,000",No,193
Extreme Reach,7K014888,Jack & Will Store,Sari Sari Store,Purok 10-B barangay fatima,"Calumpang,126303033",GENERAL SANTOS CITY (DADIANGAS),SOUTH COTABATO,9 S Mindanao,125.12486,6.07545,1.4,"501 - 2,000",No,48
Extreme Reach,7K014840,No Trade Name,Sari Sari Store,,"Calumpang,126303033",GENERAL SANTOS CITY (DADIANGAS),SOUTH COTABATO,9 S Mindanao,125.1412417,6.07305,1.6,101 - 500,No,186
Extreme Reach,7K014838,TORRALBA STORE,Sari Sari Store,Rizal Street,"Calumpang,126303033",GENERAL SANTOS CITY (DADIANGAS),SOUTH COTABATO,9 S Mindanao,125.1401967,6.07448,1.7,"2001 - 3,500",No,34
Extreme Reach,7K014733,SIRA SIRA STORE,Sari Sari Store,"prk 10-A, brgy Fatima","Calumpang,126303033",GENERAL SANTOS CITY (DADIANGAS),SOUTH COTABATO,9 S Mindanao,125.1234083,6.074605,1.6,101 - 500,No,48
Extreme Reach,7K014731,No Trade Name,Sari Sari Store,"prk 10-B, brgy Fatima","Calumpang,126303033",GENERAL SANTOS CITY (DADIANGAS),SOUTH COTABATO,9 S Mindanao,125.1245067,6.07421,1.5,101 - 500,No,48
Extreme Reach,7K014730,No Trade Name,Sari Sari Store,"prk 10-B, brgy Fatima","Calumpang,126303033",GENERAL SANTOS CITY (DADIANGAS),SOUTH COTABATO,9 S Mindanao,125.12457,6.074683333,1.5,"501 - 2,000",No,48
Extreme Reach,7K014726,No Trade Name,Sari Sari Store,"prk 10-B , brgy Fatima","Calumpang,126303033",GENERAL SANTOS CITY (DADIANGAS),SOUTH COTABATO,9 S Mindanao,125.12529,6.074303333,1.5,101 - 500,No,48
Extreme Reach,7K014724,No Trade Name,Sari Sari Store,"prk 10-B , brgy Fatima","Calumpang,126303033",GENERAL SANTOS CITY (DADIANGAS),SOUTH COTABATO,9 S Mindanao,125.1262117,6.074883333,1.9,101 - 500,No,48
Extreme Reach,7K014723,No Trade Name,Sari Sari Store,"prk 10-B , brgy Fatima","Calumpang,126303033",GENERAL SANTOS CITY (DADIANGAS),SOUTH COTABATO,9 S Mindanao,125.1264017,6.0749,1.7,101 - 500,No,48
Extreme Reach,7K014719,ASUMBRA TORE,Sari Sari Store,"prk 10-A , brgy Fatima","Calumpang,126303033",GENERAL SANTOS CITY (DADIANGAS),SOUTH COTABATO,9 S Mindanao,125.12802,6.074093333,1.5,"501 - 2,000",No,48
Extreme Reach,7K014714,No Trade Name,Sari Sari Store,"prk 10-A , brgy Fatima","Calumpang,126303033",GENERAL SANTOS CITY (DADIANGAS),SOUTH COTABATO,9 S Mindanao,125.124235,6.074033333,1.5,101 - 500,No,48
Extreme Reach,7K014713,No Trade Name,Sari Sari Store,"prk 10-A , brgy Fatima","Calumpang,126303033",GENERAL SANTOS CITY (DADIANGAS),SOUTH COTABATO,9 S Mindanao,125.1235367,6.073388333,1.5,101 - 500,No,48
Extreme Reach,7K016375,No Trade Name,Sari Sari Store,Purok Vetetans Juqn.Luna street brgy calumpang,"Calumpang,126303033",GENERAL SANTOS CITY (DADIANGAS),SOUTH COTABATO,9 S Mindanao,125.145545,6.081088333,1.6,101 - 500,No,190
Extreme Reach,7K016390,No Trade Name,Sari Sari Store,Purok Veterans Rajah Solaiman street brgy calumpang,"Calumpang,126303033",GENERAL SANTOS CITY (DADIANGAS),SOUTH COTABATO,9 S Mindanao,125.1460717,6.079878333,1.7,101 - 500,No,190
Extreme Reach,7K015973,No Trade Name,Sari Sari Store,purok opring brgy calumpang,"Calumpang,126303033",GENERAL SANTOS CITY (DADIANGAS),SOUTH COTABATO,9 S Mindanao,125.1209283,6.084055,1.3,101 - 500,No,47
Extreme Reach,7K015970,No Trade Name,Sari Sari Store,Falcon street block 8 purok opring brgy calumpang,"Calumpang,126303033",GENERAL SANTOS CITY (DADIANGAS),SOUTH COTABATO,9 S Mindanao,125.12116,6.083381667,1.4,101 - 500,No,47
Extreme Reach,7K015961,No Trade Name,Sari Sari Store,Love birds purok opring brgy calumpang,"Calumpang,126303033",GENERAL SANTOS CITY (DADIANGAS),SOUTH COTABATO,9 S Mindanao,125.1216817,6.08564,1.5,101 - 500,No,47
Extreme Reach,7K015913,No Trade Name,Sari Sari Store,Fernandez Brgy. Calumpang,"Calumpang,126303033",GENERAL SANTOS CITY (DADIANGAS),SOUTH COTABATO,9 S Mindanao,125.1322733,6.077876667,1.5,101 - 500,No,48
Extreme Reach,7K015910,ALTHEA STORE,Sari Sari Store,Lanoy Brgy. Calumpang,"Calumpang,126303033",GENERAL SANTOS CITY (DADIANGAS),SOUTH COTABATO,9 S Mindanao,125.14863,6.085735,1.7,"501 - 2,000",No,189
Extreme Reach,7K015909,REGINE STORE,Sari Sari Store,Lanoy Brgy. Calumpang,"Calumpang,126303033",GENERAL SANTOS CITY (DADIANGAS),SOUTH COTABATO,9 S Mindanao,125.1479367,6.085433333,1.7,"501 - 2,000",No,192
Extreme Reach,7K015885,KAILA STORE,Sari Sari Store,Purok Crisostomo Brgy. Calumpang,"Calumpang,126303033",GENERAL SANTOS CITY (DADIANGAS),SOUTH COTABATO,9 S Mindanao,125.1448183,6.08503,1.6,"501 - 2,000",No,192
Extreme Reach,7K015822,W & J SARI-SARI STORE,Sari Sari Store,Lanoy,"Calumpang,126303033",GENERAL SANTOS CITY (DADIANGAS),SOUTH COTABATO,9 S Mindanao,125.1489267,6.085861667,1.5,"501 - 2,000",No,189
Extreme Reach,7K015820,DJ SARI-SARI STORE,Sari Sari Store,Lanoy,"Calumpang,126303033",GENERAL SANTOS CITY (DADIANGAS),SOUTH COTABATO,9 S Mindanao,125.146865,6.085023333,1.6,"501 - 2,000",No,192
Extreme Reach,7K015816,BEN STORE,Sari Sari Store,Crisostomo zone 3,"Calumpang,126303033",GENERAL SANTOS CITY (DADIANGAS),SOUTH COTABATO,9 S Mindanao,125.144375,6.085758333,1.6,"501 - 2,000",No,192
Extreme Reach,7K015814,ELLY'S STORE,Sari Sari Store,Crisostomo zone 7,"Calumpang,126303033",GENERAL SANTOS CITY (DADIANGAS),SOUTH COTABATO,9 S Mindanao,125.14361,6.08676,1.4,"501 - 2,000",No,192
Extreme Reach,7K015751,No Trade Name,Sari Sari Store,Quilantang,"Calumpang,126303033",GENERAL SANTOS CITY (DADIANGAS),SOUTH COTABATO,9 S Mindanao,125.1418583,6.092055,1.7,"501 - 2,000",No,193
Extreme Reach,7K015749,KLING KLING STORE,Sari Sari Store,Quilantang,"Calumpang,126303033",GENERAL SANTOS CITY (DADIANGAS),SOUTH COTABATO,9 S Mindanao,125.14211,6.092078333,1.4,"501 - 2,000",No,193
Extreme Reach,7K015656,No Trade Name,Sari Sari Store,Purok Crisostomo Brgy. Calumpang,"Calumpang,126303033",GENERAL SANTOS CITY (DADIANGAS),SOUTH COTABATO,9 S Mindanao,125.1437917,6.085378333,1.6,101 - 500,No,192
Extreme Reach,7K015655,No Trade Name,Sari Sari Store,Purok Crisostomo Brgy. Calumpang,"Calumpang,126303033",GENERAL SANTOS CITY (DADIANGAS),SOUTH COTABATO,9 S Mindanao,125.1439,6.085415,1.9,101 - 500,No,192
Extreme Reach,7K015652,No Trade Name,Sari Sari Store,Purok Crisostomo zone 7 Brgy. Calumpang,"Calumpang,126303033",GENERAL SANTOS CITY (DADIANGAS),SOUTH COTABATO,9 S Mindanao,125.1426367,6.086396667,1.6,101 - 500,No,192
Extreme Reach,7K015648,DABLO STORE,Sari Sari Store,Purok Crisostomo zone 7 Brgy. Calumpang,"Calumpang,126303033",GENERAL SANTOS CITY (DADIANGAS),SOUTH COTABATO,9 S Mindanao,125.142305,6.08938,1.6,"501 - 2,000",No,193
Extreme Reach,7K015643,No Trade Name,Sari Sari Store,Quilantang Brgy. Calumpang,"Calumpang,126303033",GENERAL SANTOS CITY (DADIANGAS),SOUTH COTABATO,9 S Mindanao,125.1419067,6.092008333,1.4,101 - 500,No,193
Extreme Reach,7K015642,REDOBLADO STORE,Sari Sari Store,Quilantang Brgy. Calumpang,"Calumpang,126303033",GENERAL SANTOS CITY (DADIANGAS),SOUTH COTABATO,9 S Mindanao,125.1420817,6.09233,1.8,"3,501 And Up",No,193
Extreme Reach,7K015640,No Trade Name,Sari Sari Store,Quilantang Brgy. Calumpang,"Calumpang,126303033",GENERAL SANTOS CITY (DADIANGAS),SOUTH COTABATO,9 S Mindanao,125.142165,6.09181,1.4,101 - 500,No,193
Extreme Reach,7K015633,No Trade Name,Sari Sari Store,Purok Crisostomo village zone 4 Brgy. Calumpang,"Calumpang,126303033",GENERAL SANTOS CITY (DADIANGAS),SOUTH COTABATO,9 S Mindanao,125.14514,6.08653,1.8,101 - 500,No,192
Extreme Reach,7K015628,No Trade Name,Sari Sari Store,Purok Crisostomo village Brgy. Calumpang,"Calumpang,126303033",GENERAL SANTOS CITY (DADIANGAS),SOUTH COTABATO,9 S Mindanao,125.1450167,6.086136667,1.5,"501 - 2,000",No,192
Extreme Reach,7K016389,No Trade Name,Sari Sari Store,Purok Veterans Tandang Sora street brgy calumpang,"Calumpang,126303033",GENERAL SANTOS CITY (DADIANGAS),SOUTH COTABATO,9 S Mindanao,125.1459217,6.079965,2.1,101 - 500,No,190
Extreme Reach,7K016385,No Trade Name,Sari Sari Store,Purok Veterans Mabini street brgy calumpang,"Calumpang,126303033",GENERAL SANTOS CITY (DADIANGAS),SOUTH COTABATO,9 S Mindanao,125.1459933,6.080591667,1.4,101 - 500,No,190
Extreme Reach,7K016369,BEBE STORE,Sari Sari Store,Jurassic brgy calumpang,"Calumpang,126303033",GENERAL SANTOS CITY (DADIANGAS),SOUTH COTABATO,9 S Mindanao,125.1420267,6.084918333,1.3,"2001 - 3,500",No,192
Extreme Reach,7K016260,No Trade Name,Sari Sari Store,Upper puting Bato,"Calumpang,126303033",GENERAL SANTOS CITY (DADIANGAS),SOUTH COTABATO,9 S Mindanao,125.1500617,6.089256667,1.6,"501 - 2,000",No,189
Extreme Reach,7K010666,No Trade Name,Sari Sari Store,Upper Acharon,"Calumpang,126303033",GENERAL SANTOS CITY (DADIANGAS),SOUTH COTABATO,9 S Mindanao,125.142695,6.069571667,1.5,101 - 500,No,184
Extreme Reach,7K010656,CELL & BETH STORE,Sari Sari Store,Upper Acharon,"Calumpang,126303033",GENERAL SANTOS CITY (DADIANGAS),SOUTH COTABATO,9 S Mindanao,125.14202,6.06872,1.9,"3,501 And Up",No,184
Extreme Reach,7K010653,BUHIASTORE,Sari Sari Store,Upper Acharon,"Calumpang,126303033",GENERAL SANTOS CITY (DADIANGAS),SOUTH COTABATO,9 S Mindanao,125.1422833,6.06844,1.8,"501 - 2,000",No,184
Extreme Reach,7K010614,No Trade Name,Sari Sari Store,Purok San Juan,"Calumpang,126303033",GENERAL SANTOS CITY (DADIANGAS),SOUTH COTABATO,9 S Mindanao,125.147705,6.072353333,1.4,"501 - 2,000",No,194
Extreme Reach,7K016271,No Trade Name,Sari Sari Store,,"Calumpang,126303033",GENERAL SANTOS CITY (DADIANGAS),SOUTH COTABATO,9 S Mindanao,125.1505833,6.088908333,1.6,"501 - 2,000",No,189
Extreme Reach,7K012885,COLITZ STORE,Sari Sari Store,Carmenville Village,"Calumpang,126303033",GENERAL SANTOS CITY (DADIANGAS),SOUTH COTABATO,9 S Mindanao,125.137755,6.078738333,1.6,"501 - 2,000",No,2
Extreme Reach,7K012807,SHARLENE STORE,Sari Sari Store,Rosal street,"Calumpang,126303033",GENERAL SANTOS CITY (DADIANGAS),SOUTH COTABATO,9 S Mindanao,125.1396067,6.080728333,1.5,"501 - 2,000",No,2
Extreme Reach,7K012810,No Trade Name,Sari Sari Store,San franciso street,"Calumpang,126303033",GENERAL SANTOS CITY (DADIANGAS),SOUTH COTABATO,9 S Mindanao,125.14038,6.081245,1.7,"501 - 2,000",No,2
Extreme Reach,7K012897,HLR SARI-SARI STORE,Sari Sari Store,Jp rizal street,"Calumpang,126303033",GENERAL SANTOS CITY (DADIANGAS),SOUTH COTABATO,9 S Mindanao,125.1400083,6.077201667,1.4,"2001 - 3,500",No,34
Extreme Reach,7K012830,No Trade Name,Sari Sari Store,Ilang ilang street,"Calumpang,126303033",GENERAL SANTOS CITY (DADIANGAS),SOUTH COTABATO,9 S Mindanao,125.1418667,6.080791667,1.7,101 - 500,No,2
Extreme Reach,7K012847,No Trade Name,Sari Sari Store,Accord Village,"Calumpang,126303033",GENERAL SANTOS CITY (DADIANGAS),SOUTH COTABATO,9 S Mindanao,125.1373567,6.08629,1.7,"501 - 2,000",No,181
Extreme Reach,7K016377,No Trade Name,Sari Sari Store,Purok Veterans Rizal street brgy calumpang,"Calumpang,126303033",GENERAL SANTOS CITY (DADIANGAS),SOUTH COTABATO,9 S Mindanao,125.1441967,6.080585,1.7,101 - 500,No,190
Extreme Reach,7K016265,No Trade Name,Sari Sari Store,Upper puting Bato,"Calumpang,126303033",GENERAL SANTOS CITY (DADIANGAS),SOUTH COTABATO,9 S Mindanao,125.148285,6.088998333,1.9,101 - 500,No,189
Extreme Reach,7K016259,No Trade Name,Sari Sari Store,Upper puting Bato,"Calumpang,126303033",GENERAL SANTOS CITY (DADIANGAS),SOUTH COTABATO,9 S Mindanao,125.15012,6.089091667,1.7,101 - 500,No,189
Extreme Reach,7K010671,AHMAD STORE,Sari Sari Store,Purok Bangsamoro,"Calumpang,126303033",GENERAL SANTOS CITY (DADIANGAS),SOUTH COTABATO,9 S Mindanao,125.1422267,6.070361667,1.8,"501 - 2,000",No,185
Extreme Reach,7K013617,No Trade Name,Sari Sari Store,Purok placida,"Calumpang,126303033",GENERAL SANTOS CITY (DADIANGAS),SOUTH COTABATO,9 S Mindanao,125.1249083,6.084778333,1.4,"501 - 2,000",No,30
Extreme Reach,7K015967,No Trade Name,Sari Sari Store,Parrot street block 5 &6 purok opring brgy calumpang,"Calumpang,126303033",GENERAL SANTOS CITY (DADIANGAS),SOUTH COTABATO,9 S Mindanao,125.1218917,6.083686667,1.5,101 - 500,No,47
Extreme Reach,7K015964,No Trade Name,Sari Sari Store,Falcon street purok opring brgy calumpang,"Calumpang,126303033",GENERAL SANTOS CITY (DADIANGAS),SOUTH COTABATO,9 S Mindanao,125.1213433,6.084175,1.5,101 - 500,No,47
Extreme Reach,7K015968,No Trade Name,Sari Sari Store,Fernandez,"Calumpang,126303033",GENERAL SANTOS CITY (DADIANGAS),SOUTH COTABATO,9 S Mindanao,125.13171,6.077635,4,"501 - 2,000",No,48
Extreme Reach,7K015992,No Trade Name,Sari Sari Store,Love birds block 1,"Calumpang,126303033",GENERAL SANTOS CITY (DADIANGAS),SOUTH COTABATO,9 S Mindanao,125.121465,6.085576667,1.5,"501 - 2,000",No,47
Extreme Reach,7K015978,No Trade Name,Sari Sari Store,Templado village purok opring brgy calumpang,"Calumpang,126303033",GENERAL SANTOS CITY (DADIANGAS),SOUTH COTABATO,9 S Mindanao,125.1191667,6.082873333,1.8,101 - 500,No,47
Extreme Reach,7K015971,No Trade Name,Sari Sari Store,Falcon street block 8 purok opring brgy calumpang,"Calumpang,126303033",GENERAL SANTOS CITY (DADIANGAS),SOUTH COTABATO,9 S Mindanao,125.12116,6.083955,1.5,"501 - 2,000",No,47
Extreme Reach,7K015980,BOYET STORE,Sari Sari Store,Ostrich purok opring brgy calumpang,"Calumpang,126303033",GENERAL SANTOS CITY (DADIANGAS),SOUTH COTABATO,9 S Mindanao,125.1213217,6.081876667,1.8,101 - 500,No,47
Extreme Reach,7K016001,No Trade Name,Sari Sari Store,Falcon street,"Calumpang,126303033",GENERAL SANTOS CITY (DADIANGAS),SOUTH COTABATO,9 S Mindanao,125.1211883,6.084073333,1.5,"501 - 2,000",No,47
Extreme Reach,7K012842,RAYVEN STORE,Sari Sari Store,Fuentes street,"Calumpang,126303033",GENERAL SANTOS CITY (DADIANGAS),SOUTH COTABATO,9 S Mindanao,125.138335,6.087468333,1.3,"501 - 2,000",No,181
Extreme Reach,7K012848,No Trade Name,Sari Sari Store,Accord Village,"Calumpang,126303033",GENERAL SANTOS CITY (DADIANGAS),SOUTH COTABATO,9 S Mindanao,125.1362433,6.086111667,1.8,"501 - 2,000",No,181
Extreme Reach,7K012873,No Trade Name,Sari Sari Store,,"Calumpang,126303033",GENERAL SANTOS CITY (DADIANGAS),SOUTH COTABATO,9 S Mindanao,125.136735,6.088238333,1.5,"501 - 2,000",No,181
Extreme Reach,7K012889,No Trade Name,Sari Sari Store,Teachers Village,"Calumpang,126303033",GENERAL SANTOS CITY (DADIANGAS),SOUTH COTABATO,9 S Mindanao,125.1382733,6.077953333,1.4,"501 - 2,000",No,2
Extreme Reach,7K015955,BOSS LIAM SARI SARI STORE,Sari Sari Store,Filipino-American Friendship ave. Brgy calumpang,"Calumpang,126303033",GENERAL SANTOS CITY (DADIANGAS),SOUTH COTABATO,9 S Mindanao,125.1321683,6.073206667,1.3,"501 - 2,000",No,48
Extreme Reach,7K016057,ARC VARIETY STORE(WHOLESALE AND RETAIL),Sari Sari Store,Filipino American Friendship Avenue,"Calumpang,126303033",GENERAL SANTOS CITY (DADIANGAS),SOUTH COTABATO,9 S Mindanao,125.1304067,6.074225,1.2,"2001 - 3,500",No,48
Extreme Reach,7K015966,No Trade Name,Sari Sari Store,Parrot street block 5 &6 purok opring brgy calumpang,"Calumpang,126303033",GENERAL SANTOS CITY (DADIANGAS),SOUTH COTABATO,9 S Mindanao,125.1218133,6.084486667,1.3,101 - 500,No,47
Extreme Reach,7K015965,No Trade Name,Sari Sari Store,Falcon street purok opring brgy calumpang,"Calumpang,126303033",GENERAL SANTOS CITY (DADIANGAS),SOUTH COTABATO,9 S Mindanao,125.1216233,6.083915,1.4,101 - 500,No,47
Extreme Reach,7K015952,No Trade Name,Sari Sari Store,,"Calumpang,126303033",GENERAL SANTOS CITY (DADIANGAS),SOUTH COTABATO,9 S Mindanao,125.1321983,6.074526667,1.6,101 - 500,No,48
Extreme Reach,7K012888,FABELLON STORE,Sari Sari Store,Teachers Village,"Calumpang,126303033",GENERAL SANTOS CITY (DADIANGAS),SOUTH COTABATO,9 S Mindanao,125.1383067,6.077716667,1.4,"501 - 2,000",No,2
Extreme Reach,7K015975,No Trade Name,Sari Sari Store,purok opring brgy calumpang,"Calumpang,126303033",GENERAL SANTOS CITY (DADIANGAS),SOUTH COTABATO,9 S Mindanao,125.1208533,6.082898333,1.5,101 - 500,No,47
Extreme Reach,7K015984,No Trade Name,Sari Sari Store,ST. PETER AVE.,"Calumpang,126303033",GENERAL SANTOS CITY (DADIANGAS),SOUTH COTABATO,9 S Mindanao,125.131675,6.075336667,1.7,"501 - 2,000",No,48
Extreme Reach,7K012875,No Trade Name,Sari Sari Store,,"Calumpang,126303033",GENERAL SANTOS CITY (DADIANGAS),SOUTH COTABATO,9 S Mindanao,125.135925,6.088195,1.4,"501 - 2,000",No,181
Extreme Reach,7K015915,GORECHO STORE,Sari Sari Store,Fernandez Brgy. Calumpang,"Calumpang,126303033",GENERAL SANTOS CITY (DADIANGAS),SOUTH COTABATO,9 S Mindanao,125.1316467,6.075791667,1.5,"501 - 2,000",No,48
Extreme Reach,7K015957,No Trade Name,Sari Sari Store,Tomasa Extension,"Calumpang,126303033",GENERAL SANTOS CITY (DADIANGAS),SOUTH COTABATO,9 S Mindanao,125.121925,6.086356667,1.3,101 - 500,No,47
Extreme Reach,7K015914,No Trade Name,Sari Sari Store,Fernandez Brgy. Calumpang,"Calumpang,126303033",GENERAL SANTOS CITY (DADIANGAS),SOUTH COTABATO,9 S Mindanao,125.1317033,6.07604,1.7,101 - 500,No,48
Extreme Reach,7K015963,No Trade Name,Sari Sari Store,purok opring brgy calumpang,"Calumpang,126303033",GENERAL SANTOS CITY (DADIANGAS),SOUTH COTABATO,9 S Mindanao,125.1215983,6.085098333,1.4,101 - 500,No,47
Extreme Reach,7K012879,No Trade Name,Sari Sari Store,,"Calumpang,126303033",GENERAL SANTOS CITY (DADIANGAS),SOUTH COTABATO,9 S Mindanao,125.13606,6.08706,1.7,"501 - 2,000",No,181
Extreme Reach,7K015916,APPLE JANE STORE,Sari Sari Store,Fernandez Brgy. Calumpang,"Calumpang,126303033",GENERAL SANTOS CITY (DADIANGAS),SOUTH COTABATO,9 S Mindanao,125.1324183,6.075145,1.3,101 - 500,No,48
Extreme Reach,7K015950,CHRISLYN- EVE STORE,Sari Sari Store,St. Michael street Brgy calumpang,"Calumpang,126303033",GENERAL SANTOS CITY (DADIANGAS),SOUTH COTABATO,9 S Mindanao,125.13277,6.075163333,1.5,101 - 500,No,48
Extreme Reach,7K015959,No Trade Name,Sari Sari Store,purok opring brgy calumpang,"Calumpang,126303033",GENERAL SANTOS CITY (DADIANGAS),SOUTH COTABATO,9 S Mindanao,125.121055,6.085593333,1.4,101 - 500,No,47
Extreme Reach,7K015972,SHEN-SHEN STORE,Sari Sari Store,purok opring brgy calumpang,"Calumpang,126303033",GENERAL SANTOS CITY (DADIANGAS),SOUTH COTABATO,9 S Mindanao,125.1207783,6.083126667,1.5,"501 - 2,000",No,47
Extreme Reach,7K015974,DELGADO-PENASO STORE,Sari Sari Store,Angry bird purok opring brgy calumpang,"Calumpang,126303033",GENERAL SANTOS CITY (DADIANGAS),SOUTH COTABATO,9 S Mindanao,125.1211217,6.083035,1.5,"501 - 2,000",No,47
Extreme Reach,7K015977,JEAN STORE,Sari Sari Store,Templado village purok opring brgy calumpang,"Calumpang,126303033",GENERAL SANTOS CITY (DADIANGAS),SOUTH COTABATO,9 S Mindanao,125.1186483,6.082448333,1.8,101 - 500,No,47
Extreme Reach,7K012886,MAYO STORE,Sari Sari Store,Carmenville Village,"Calumpang,126303033",GENERAL SANTOS CITY (DADIANGAS),SOUTH COTABATO,9 S Mindanao,125.1377683,6.077876667,1.3,"2001 - 3,500",No,2
Extreme Reach,7K012864,No Trade Name,Sari Sari Store,Third street,"Calumpang,126303033",GENERAL SANTOS CITY (DADIANGAS),SOUTH COTABATO,9 S Mindanao,125.1370517,6.086708333,1.7,"501 - 2,000",No,181
Extreme Reach,7K012857,No Trade Name,Sari Sari Store,Accord Village,"Calumpang,126303033",GENERAL SANTOS CITY (DADIANGAS),SOUTH COTABATO,9 S Mindanao,125.1373583,6.086603333,1.5,"501 - 2,000",No,181
Extreme Reach,7K012824,No Trade Name,Sari Sari Store,Orchid street,"Calumpang,126303033",GENERAL SANTOS CITY (DADIANGAS),SOUTH COTABATO,9 S Mindanao,125.141105,6.080635,1.4,"501 - 2,000",No,2
Extreme Reach,7K015954,BETTE-SARI SARI STORE,Sari Sari Store,Fernandez Brgy calumpang,"Calumpang,126303033",GENERAL SANTOS CITY (DADIANGAS),SOUTH COTABATO,9 S Mindanao,125.1316017,6.074105,1.2,"3,501 And Up",No,48
Extreme Reach,7K015951,No Trade Name,Sari Sari Store,,"Calumpang,126303033",GENERAL SANTOS CITY (DADIANGAS),SOUTH COTABATO,9 S Mindanao,125.131665,6.074718333,1.7,"501 - 2,000",No,48
Extreme Reach,7K015911,No Trade Name,Sari Sari Store,Lanoy Brgy. Calumpang,"Calumpang,126303033",GENERAL SANTOS CITY (DADIANGAS),SOUTH COTABATO,9 S Mindanao,125.14962,6.086155,1.8,"2001 - 3,500",No,189
Extreme Reach,7K016052,No Trade Name,Sari Sari Store,Templado block 1 lot 1,"Calumpang,126303033",GENERAL SANTOS CITY (DADIANGAS),SOUTH COTABATO,9 S Mindanao,125.1187083,6.082256667,1.2,101 - 500,No,47
Extreme Reach,7K015976,No Trade Name,Sari Sari Store,Templado purok opring brgy calumpang,"Calumpang,126303033",GENERAL SANTOS CITY (DADIANGAS),SOUTH COTABATO,9 S Mindanao,125.11951,6.082313333,1.6,"501 - 2,000",No,47
Extreme Reach,7K015953,No Trade Name,Sari Sari Store,Fernandez Brgy calumpang,"Calumpang,126303033",GENERAL SANTOS CITY (DADIANGAS),SOUTH COTABATO,9 S Mindanao,125.13275,6.074738333,1.3,"501 - 2,000",No,48
Extreme Reach,7K015999,No Trade Name,Sari Sari Store,Parrot street,"Calumpang,126303033",GENERAL SANTOS CITY (DADIANGAS),SOUTH COTABATO,9 S Mindanao,125.1217967,6.083266667,1.5,"501 - 2,000",No,47
Extreme Reach,7K012841,DAC'S STORE,Sari Sari Store,Fuentes street,"Calumpang,126303033",GENERAL SANTOS CITY (DADIANGAS),SOUTH COTABATO,9 S Mindanao,125.13854,6.08706,1.7,"2001 - 3,500",No,181
Extreme Reach,7K015981,VANZ STORE,Sari Sari Store,Filipino- American.Friendship ave. brgy calumpang,"Calumpang,126303033",GENERAL SANTOS CITY (DADIANGAS),SOUTH COTABATO,9 S Mindanao,125.1306867,6.074106667,1.4,"501 - 2,000",No,48
Extreme Reach,7K016731,EMMA STORE,Sari Sari Store,Rovalgon brgy calumpang,"Calumpang,126303033",GENERAL SANTOS CITY (DADIANGAS),SOUTH COTABATO,9 S Mindanao,125.1365083,6.091695,1.5,"501 - 2,000",No,180
Extreme Reach,7K016735,No Trade Name,Sari Sari Store,Rovalgon brgy calumpang,"Calumpang,126303033",GENERAL SANTOS CITY (DADIANGAS),SOUTH COTABATO,9 S Mindanao,125.1364683,6.092661667,1.5,101 - 500,No,180
Extreme Reach,7K016737,No Trade Name,Sari Sari Store,Rovalgon brgy calumpang,"Calumpang,126303033",GENERAL SANTOS CITY (DADIANGAS),SOUTH COTABATO,9 S Mindanao,125.1364267,6.09386,1.5,101 - 500,No,180
Extreme Reach,7K016855,No Trade Name,Sari Sari Store,Purok Quilantang,"Calumpang,126303033",GENERAL SANTOS CITY (DADIANGAS),SOUTH COTABATO,9 S Mindanao,125.1366917,6.091411667,1.6,"501 - 2,000",No,180
Extreme Reach,7K016868,PAGDATO STORE,Sari Sari Store,Purok Rovalgon,"Calumpang,126303033",GENERAL SANTOS CITY (DADIANGAS),SOUTH COTABATO,9 S Mindanao,125.13563,6.09236,1.3,"501 - 2,000",No,180
Extreme Reach,7K016851,No Trade Name,Sari Sari Store,Purok Quilantang,"Calumpang,126303033",GENERAL SANTOS CITY (DADIANGAS),SOUTH COTABATO,9 S Mindanao,125.1387467,6.091453333,1.6,"501 - 2,000",No,180
Extreme Reach,7K011255,No Trade Name,Sari Sari Store,purok maliwanag,"Calumpang,126303033",GENERAL SANTOS CITY (DADIANGAS),SOUTH COTABATO,9 S Mindanao,125.1433917,6.076318333,1.6,"3,501 And Up",No,34
Extreme Reach,7K016749,No Trade Name,Sari Sari Store,Quilantang brgy calumpang,"Calumpang,126303033",GENERAL SANTOS CITY (DADIANGAS),SOUTH COTABATO,9 S Mindanao,125.1385467,6.088405,1.5,101 - 500,No,181
Extreme Reach,7K016734,No Trade Name,Sari Sari Store,Rovalgon brgy calumpang,"Calumpang,126303033",GENERAL SANTOS CITY (DADIANGAS),SOUTH COTABATO,9 S Mindanao,125.1371133,6.092485,1.7,101 - 500,No,180
Extreme Reach,7K016725,No Trade Name,Sari Sari Store,Quilantang brgy calumpang,"Calumpang,126303033",GENERAL SANTOS CITY (DADIANGAS),SOUTH COTABATO,9 S Mindanao,125.137755,6.091195,1.4,101 - 500,No,180
Extreme Reach,7K016751,No Trade Name,Sari Sari Store,Quilantang brgy calumpang,"Calumpang,126303033",GENERAL SANTOS CITY (DADIANGAS),SOUTH COTABATO,9 S Mindanao,125.1394333,6.087488333,1.7,101 - 500,No,181
Extreme Reach,7K011501,No Trade Name,Sari Sari Store,purok san miguel,"Calumpang,126303033",GENERAL SANTOS CITY (DADIANGAS),SOUTH COTABATO,9 S Mindanao,125.146125,6.078051667,1.8,"501 - 2,000",No,191
Extreme Reach,7K016732,AMIRA STORE,Sari Sari Store,Rovalgon brgy calumpang,"Calumpang,126303033",GENERAL SANTOS CITY (DADIANGAS),SOUTH COTABATO,9 S Mindanao,125.1368383,6.091916667,1.8,"501 - 2,000",No,180
Extreme Reach,7K011268,No Trade Name,Sari Sari Store,purok maliwanag,"Calumpang,126303033",GENERAL SANTOS CITY (DADIANGAS),SOUTH COTABATO,9 S Mindanao,125.143845,6.076281667,1.4,"501 - 2,000",No,34
Extreme Reach,7K016839,NASS & LYN STORE,Sari Sari Store,Filipino-American friendship road,"Calumpang,126303033",GENERAL SANTOS CITY (DADIANGAS),SOUTH COTABATO,9 S Mindanao,125.14332,6.067091667,1.6,"501 - 2,000",No,184
Extreme Reach,7K016755,No Trade Name,Sari Sari Store,Purok Stella Maris brgy calumpang,"Calumpang,126303033",GENERAL SANTOS CITY (DADIANGAS),SOUTH COTABATO,9 S Mindanao,125.13678,6.068276667,1.5,"501 - 2,000",No,187
Extreme Reach,7K011498,No Trade Name,Sari Sari Store,purok san miguel,"Calumpang,126303033",GENERAL SANTOS CITY (DADIANGAS),SOUTH COTABATO,9 S Mindanao,125.145385,6.078158333,1.8,101 - 500,No,190
Extreme Reach,7K016753,No Trade Name,Sari Sari Store,Quilantang brgy calumpang,"Calumpang,126303033",GENERAL SANTOS CITY (DADIANGAS),SOUTH COTABATO,9 S Mindanao,125.1427733,6.08628,1.5,101 - 500,No,192
Extreme Reach,7K016840,GANDAM STORE,Sari Sari Store,Filipino-American friendship road,"Calumpang,126303033",GENERAL SANTOS CITY (DADIANGAS),SOUTH COTABATO,9 S Mindanao,125.143325,6.067381667,1.4,"501 - 2,000",No,184
Extreme Reach,7K013594,3 BROTHERS SARI SARI STORE,Sari Sari Store,Purok placida,"Calumpang,126303033",GENERAL SANTOS CITY (DADIANGAS),SOUTH COTABATO,9 S Mindanao,125.1252133,6.085066667,1.8,"501 - 2,000",No,30
Extreme Reach,7K013674,REYMAR & REYXEMAR Store,Sari Sari Store,Purok placida,"Calumpang,126303033",GENERAL SANTOS CITY (DADIANGAS),SOUTH COTABATO,9 S Mindanao,125.125505,6.085051667,1.7,"501 - 2,000",No,30
Extreme Reach,7K013604,No Trade Name,Sari Sari Store,Reformville yellow fin rd,"Calumpang,126303033",GENERAL SANTOS CITY (DADIANGAS),SOUTH COTABATO,9 S Mindanao,125.1279133,6.081835,1.6,101 - 500,No,47
Extreme Reach,7K013689,No Trade Name,Sari Sari Store,Reformville Yellow fin rd,"Calumpang,126303033",GENERAL SANTOS CITY (DADIANGAS),SOUTH COTABATO,9 S Mindanao,125.1279617,6.087841667,1.7,"501 - 2,000",No,30
Extreme Reach,7K013687,ANUB STORE,Sari Sari Store,Reformville Yellow fin rd,"Calumpang,126303033",GENERAL SANTOS CITY (DADIANGAS),SOUTH COTABATO,9 S Mindanao,125.12791,6.084798333,1.2,"501 - 2,000",No,47
Extreme Reach,7K013609,No Trade Name,Sari Sari Store,Reformville yellow fin rd,"Calumpang,126303033",GENERAL SANTOS CITY (DADIANGAS),SOUTH COTABATO,9 S Mindanao,125.127935,6.085941667,1.4,"501 - 2,000",No,30
Extreme Reach,7K013603,No Trade Name,Sari Sari Store,Purok placida,"Calumpang,126303033",GENERAL SANTOS CITY (DADIANGAS),SOUTH COTABATO,9 S Mindanao,125.1260033,6.08224,1.6,"501 - 2,000",No,47
Extreme Reach,7K016721,No Trade Name,Sari Sari Store,Quilantang brgy calumpang,"Calumpang,126303033",GENERAL SANTOS CITY (DADIANGAS),SOUTH COTABATO,9 S Mindanao,125.1378533,6.091335,1.7,101 - 500,No,180
Extreme Reach,7K016745,GBR VEGETABLE & SARI SARI STORE,Sari Sari Store,Rovalgon brgy calumpang,"Calumpang,126303033",GENERAL SANTOS CITY (DADIANGAS),SOUTH COTABATO,9 S Mindanao,125.1356333,6.092393333,1.7,"3,501 And Up",No,180
Extreme Reach,7K013701,JELOMAR STORE,Sari Sari Store,Carmenville,"Calumpang,126303033",GENERAL SANTOS CITY (DADIANGAS),SOUTH COTABATO,9 S Mindanao,125.1264533,6.084446667,1.2,"501 - 2,000",No,47
Extreme Reach,7K013606,No Trade Name,Sari Sari Store,Reformville yellow fin rd,"Calumpang,126303033",GENERAL SANTOS CITY (DADIANGAS),SOUTH COTABATO,9 S Mindanao,125.1279467,6.083495,1.6,"3,501 And Up",No,47
Extreme Reach,7K013600,LIMA BRA SARI SARI STORE,Sari Sari Store,Purok placida,"Calumpang,126303033",GENERAL SANTOS CITY (DADIANGAS),SOUTH COTABATO,9 S Mindanao,125.1258583,6.083808333,1.7,"2001 - 3,500",No,47
Extreme Reach,7K011488,No Trade Name,Sari Sari Store,purok san miguel,"Calumpang,126303033",GENERAL SANTOS CITY (DADIANGAS),SOUTH COTABATO,9 S Mindanao,125.1451783,6.07794,1.8,"501 - 2,000",No,190
Extreme Reach,7K016756,No Trade Name,Sari Sari Store,Purok Stella Maris brgy calumpang,"Calumpang,126303033",GENERAL SANTOS CITY (DADIANGAS),SOUTH COTABATO,9 S Mindanao,125.13667,6.068145,1.5,101 - 500,No,187
Extreme Reach,7K016747,ABBY 'S STORE,Sari Sari Store,Quilantang brgy calumpang,"Calumpang,126303033",GENERAL SANTOS CITY (DADIANGAS),SOUTH COTABATO,9 S Mindanao,125.1387067,6.089075,1.6,101 - 500,No,181
Extreme Reach,7K016716,No Trade Name,Sari Sari Store,Quilantang brgy calumpang,"Calumpang,126303033",GENERAL SANTOS CITY (DADIANGAS),SOUTH COTABATO,9 S Mindanao,125.1380633,6.091025,1.5,101 - 500,No,180
Extreme Reach,7K011503,No Trade Name,Sari Sari Store,purok san miguel,"Calumpang,126303033",GENERAL SANTOS CITY (DADIANGAS),SOUTH COTABATO,9 S Mindanao,125.1462367,6.078318333,1.8,"501 - 2,000",No,191
Extreme Reach,7K011411,No Trade Name,Sari Sari Store,Purok Saeg Zone 1,"Calumpang,126303033",GENERAL SANTOS CITY (DADIANGAS),SOUTH COTABATO,9 S Mindanao,125.1531083,6.072006667,1.5,101 - 500,No,196
Extreme Reach,7K016729,No Trade Name,Sari Sari Store,Quilantang brgy calumpang,"Calumpang,126303033",GENERAL SANTOS CITY (DADIANGAS),SOUTH COTABATO,9 S Mindanao,125.1363417,6.090368333,1.5,"501 - 2,000",No,180
Extreme Reach,7K016717,No Trade Name,Sari Sari Store,Quilantang brgy calumpang,"Calumpang,126303033",GENERAL SANTOS CITY (DADIANGAS),SOUTH COTABATO,9 S Mindanao,125.1375183,6.090673333,1.3,101 - 500,No,180
Extreme Reach,7K011410,No Trade Name,Sari Sari Store,Purok Saeg Zone 1,"Calumpang,126303033",GENERAL SANTOS CITY (DADIANGAS),SOUTH COTABATO,9 S Mindanao,125.15317,6.072046667,1.6,"501 - 2,000",No,196
Extreme Reach,7K011408,No Trade Name,Sari Sari Store,Purok Saeg Zone 1,"Calumpang,126303033",GENERAL SANTOS CITY (DADIANGAS),SOUTH COTABATO,9 S Mindanao,125.153205,6.072123333,1.6,101 - 500,No,196
Extreme Reach,7K011409,No Trade Name,Sari Sari Store,Purok Saeg Zone 1,"Calumpang,126303033",GENERAL SANTOS CITY (DADIANGAS),SOUTH COTABATO,9 S Mindanao,125.1532167,6.072093333,1.5,101 - 500,No,196
Extreme Reach,7K011414,No Trade Name,Sari Sari Store,Purok Saeg Zone 1,"Calumpang,126303033",GENERAL SANTOS CITY (DADIANGAS),SOUTH COTABATO,9 S Mindanao,125.1527617,6.07186,1.5,"501 - 2,000",No,196
Extreme Reach,7K011499,No Trade Name,Sari Sari Store,purok san miguel,"Calumpang,126303033",GENERAL SANTOS CITY (DADIANGAS),SOUTH COTABATO,9 S Mindanao,125.1458117,6.07821,1.8,"501 - 2,000",No,190
Extreme Reach,7K016752,RRR MONREAL STORE,Sari Sari Store,Quilantang brgy calumpang,"Calumpang,126303033",GENERAL SANTOS CITY (DADIANGAS),SOUTH COTABATO,9 S Mindanao,125.1413067,6.087066667,1.3,"501 - 2,000",No,192
Extreme Reach,7K016774,JONASH KYLE STORE,Sari Sari Store,Filipino-American friendship road,"Calumpang,126303033",GENERAL SANTOS CITY (DADIANGAS),SOUTH COTABATO,9 S Mindanao,125.1414783,6.067721667,1.6,"501 - 2,000",No,184
Extreme Reach,7K016740,No Trade Name,Sari Sari Store,Rovalgon brgy calumpang,"Calumpang,126303033",GENERAL SANTOS CITY (DADIANGAS),SOUTH COTABATO,9 S Mindanao,125.1363983,6.093425,1.6,101 - 500,No,180
Extreme Reach,7K016754,No Trade Name,Sari Sari Store,Purok Stella Maris brgy calumpang,"Calumpang,126303033",GENERAL SANTOS CITY (DADIANGAS),SOUTH COTABATO,9 S Mindanao,125.1366733,6.068511667,1.4,"3,501 And Up",No,187
Extreme Reach,7K013675,No Trade Name,Sari Sari Store,Purok placida,"Calumpang,126303033",GENERAL SANTOS CITY (DADIANGAS),SOUTH COTABATO,9 S Mindanao,125.1264567,6.084878333,1.9,"501 - 2,000",No,30
Extreme Reach,7K016743,No Trade Name,Sari Sari Store,Rovalgon brgy calumpang,"Calumpang,126303033",GENERAL SANTOS CITY (DADIANGAS),SOUTH COTABATO,9 S Mindanao,125.1349833,6.094083333,1.5,101 - 500,No,180
Extreme Reach,7K010343,NISSA STORE,Sari Sari Store,Upper acharon,"Calumpang,126303033",GENERAL SANTOS CITY (DADIANGAS),SOUTH COTABATO,9 S Mindanao,125.140755,6.07159,1.7,"501 - 2,000",No,186
Extreme Reach,7K010350,PRINCE LUKE & PRINCESS ANICA STORE,Sari Sari Store,Upper acharon,"Calumpang,126303033",GENERAL SANTOS CITY (DADIANGAS),SOUTH COTABATO,9 S Mindanao,125.1404683,6.071071667,1.9,"3,501 And Up",No,186
Extreme Reach,7K010370,No Trade Name,Sari Sari Store,Upper Acharon,"Calumpang,126303033",GENERAL SANTOS CITY (DADIANGAS),SOUTH COTABATO,9 S Mindanao,125.1396133,6.070333333,1.8,101 - 500,No,186
Extreme Reach,7K010366,ESTHER STORE,Sari Sari Store,Upper acharon,"Calumpang,126303033",GENERAL SANTOS CITY (DADIANGAS),SOUTH COTABATO,9 S Mindanao,125.1394483,6.071595,1.8,101 - 500,No,186
Extreme Reach,7K013695,No Trade Name,Sari Sari Store,Purok placida,"Calumpang,126303033",GENERAL SANTOS CITY (DADIANGAS),SOUTH COTABATO,9 S Mindanao,125.1249567,6.084713333,1.5,101 - 500,No,30
Extreme Reach,7K013621,No Trade Name,Sari Sari Store,Purok placida,"Calumpang,126303033",GENERAL SANTOS CITY (DADIANGAS),SOUTH COTABATO,9 S Mindanao,125.1251567,6.082245,1.7,"3,501 And Up",No,47
Extreme Reach,7K013601,No Trade Name,Sari Sari Store,Purok placida,"Calumpang,126303033",GENERAL SANTOS CITY (DADIANGAS),SOUTH COTABATO,9 S Mindanao,125.1260417,6.083768333,1.8,"501 - 2,000",No,47
Extreme Reach,7K013610,No Trade Name,Sari Sari Store,Reformville yellow fin rd,"Calumpang,126303033",GENERAL SANTOS CITY (DADIANGAS),SOUTH COTABATO,9 S Mindanao,125.127885,6.086546667,1.5,"501 - 2,000",No,30
Extreme Reach,7K010368,ROCELYN STORE,Sari Sari Store,Malambuon,"Calumpang,126303033",GENERAL SANTOS CITY (DADIANGAS),SOUTH COTABATO,9 S Mindanao,125.1394167,6.071215,1.5,101 - 500,No,186
Extreme Reach,7K010417,ACIDO STORE,Sari Sari Store,"Purok Estrella, Birhen sa Kasilak","Calumpang,126303033",GENERAL SANTOS CITY (DADIANGAS),SOUTH COTABATO,9 S Mindanao,125.1485383,6.070493333,1.6,"2001 - 3,500",No,194
Extreme Reach,7K010364,ATUEL STORE,Sari Sari Store,Upper acharon,"Calumpang,126303033",GENERAL SANTOS CITY (DADIANGAS),SOUTH COTABATO,9 S Mindanao,125.13913,6.071906667,1.6,"2001 - 3,500",No,186
Extreme Reach,7K013691,No Trade Name,Sari Sari Store,Reformville Yellow fin rd,"Calumpang,126303033",GENERAL SANTOS CITY (DADIANGAS),SOUTH COTABATO,9 S Mindanao,125.127175,6.088208333,1.6,"501 - 2,000",No,30
Extreme Reach,7K013682,No Trade Name,Sari Sari Store,Reformville Yellow fin rd,"Calumpang,126303033",GENERAL SANTOS CITY (DADIANGAS),SOUTH COTABATO,9 S Mindanao,125.1278617,6.08181,1.4,"501 - 2,000",No,47
Extreme Reach,7K013619,VALJUDE STORE,Sari Sari Store,Purok placida,"Calumpang,126303033",GENERAL SANTOS CITY (DADIANGAS),SOUTH COTABATO,9 S Mindanao,125.12473,6.08387,1.4,"501 - 2,000",No,30
Extreme Reach,7K015754,VENUS STORE,Sari Sari Store,Quilantang,"Calumpang,126303033",GENERAL SANTOS CITY (DADIANGAS),SOUTH COTABATO,9 S Mindanao,125.1421567,6.091626667,1.6,"501 - 2,000",No,193
Extreme Reach,7K010430,No Trade Name,Sari Sari Store,"Purok Estrella, Birhen sa Kasilak","Calumpang,126303033",GENERAL SANTOS CITY (DADIANGAS),SOUTH COTABATO,9 S Mindanao,125.1497067,6.0705,1.5,101 - 500,No,194
Extreme Reach,7K010373,PRINCE & JB STORE,Sari Sari Store,Upper Acharon,"Calumpang,126303033",GENERAL SANTOS CITY (DADIANGAS),SOUTH COTABATO,9 S Mindanao,125.140005,6.069823333,1.5,"501 - 2,000",No,186
Extreme Reach,7K010337,GEMA STORE,Sari Sari Store,Upper acharon,"Calumpang,126303033",GENERAL SANTOS CITY (DADIANGAS),SOUTH COTABATO,9 S Mindanao,125.1408417,6.071171667,1.6,101 - 500,No,186
Extreme Reach,7K010422,DAISY STORE,Sari Sari Store,"Purok Estrella, Birhen sa Kasilak","Calumpang,126303033",GENERAL SANTOS CITY (DADIANGAS),SOUTH COTABATO,9 S Mindanao,125.1489183,6.071046667,1.4,"501 - 2,000",No,194
Extreme Reach,7K010411,No Trade Name,Sari Sari Store,"Purok Estrella, Birhen sa Kasilak","Calumpang,126303033",GENERAL SANTOS CITY (DADIANGAS),SOUTH COTABATO,9 S Mindanao,125.1469167,6.070848333,1.9,"501 - 2,000",No,194
Extreme Reach,7K010421,No Trade Name,Sari Sari Store,"Purok Estrella, Birhen sa Kasilak","Calumpang,126303033",GENERAL SANTOS CITY (DADIANGAS),SOUTH COTABATO,9 S Mindanao,125.1485267,6.071068333,1.9,101 - 500,No,194
Extreme Reach,7K010338,BACALING STORE,Sari Sari Store,Upper acharon,"Calumpang,126303033",GENERAL SANTOS CITY (DADIANGAS),SOUTH COTABATO,9 S Mindanao,125.1408133,6.071618333,1.6,"501 - 2,000",No,186
Extreme Reach,7K010416,No Trade Name,Sari Sari Store,"Purok Estrella, Birhen sa Kasilak","Calumpang,126303033",GENERAL SANTOS CITY (DADIANGAS),SOUTH COTABATO,9 S Mindanao,125.1481733,6.07045,1.7,101 - 500,No,194
Extreme Reach,7K011740,No Trade Name,Sari Sari Store,Purok Saeg Zone 1,"Calumpang,126303033",GENERAL SANTOS CITY (DADIANGAS),SOUTH COTABATO,9 S Mindanao,125.1526117,6.072483333,1.7,101 - 500,No,196
Extreme Reach,7K010346,PAJARDO STORE,Sari Sari Store,Upper acharon,"Calumpang,126303033",GENERAL SANTOS CITY (DADIANGAS),SOUTH COTABATO,9 S Mindanao,125.1405783,6.071625,1.5,"3,501 And Up",No,186
Extreme Reach,7K010413,MARK & MAE STORE,Sari Sari Store,"Purok Estrella, Birhen sa Kasilak","Calumpang,126303033",GENERAL SANTOS CITY (DADIANGAS),SOUTH COTABATO,9 S Mindanao,125.147525,6.071135,1.5,101 - 500,No,194
Extreme Reach,7K015650,BONIFACIO STORE,Sari Sari Store,Purok Crisostomo zone 7 Brgy. Calumpang,"Calumpang,126303033",GENERAL SANTOS CITY (DADIANGAS),SOUTH COTABATO,9 S Mindanao,125.1431767,6.087441667,1.7,"501 - 2,000",No,192
Extreme Reach,7K015764,MACMAC STORE,Sari Sari Store,Quilantang,"Calumpang,126303033",GENERAL SANTOS CITY (DADIANGAS),SOUTH COTABATO,9 S Mindanao,125.1421133,6.089775,1.5,"501 - 2,000",No,193
Extreme Reach,7K013618,No Trade Name,Sari Sari Store,Purok placida,"Calumpang,126303033",GENERAL SANTOS CITY (DADIANGAS),SOUTH COTABATO,9 S Mindanao,125.1247767,6.084485,1.7,"501 - 2,000",No,30
Extreme Reach,7K013608,No Trade Name,Sari Sari Store,Reformville yellow fin rd,"Calumpang,126303033",GENERAL SANTOS CITY (DADIANGAS),SOUTH COTABATO,9 S Mindanao,125.127875,6.084758333,1.4,"501 - 2,000",No,47
Extreme Reach,7K013683,No Trade Name,Sari Sari Store,Reformville Yellow fin rd,"Calumpang,126303033",GENERAL SANTOS CITY (DADIANGAS),SOUTH COTABATO,9 S Mindanao,125.127835,6.082018333,1.2,101 - 500,No,47
Extreme Reach,7K013607,No Trade Name,Sari Sari Store,Reformville yellow fin rd,"Calumpang,126303033",GENERAL SANTOS CITY (DADIANGAS),SOUTH COTABATO,9 S Mindanao,125.1279067,6.083831667,1.5,"501 - 2,000",No,47
Extreme Reach,7K013693,No Trade Name,Sari Sari Store,Purok tomasan,"Calumpang,126303033",GENERAL SANTOS CITY (DADIANGAS),SOUTH COTABATO,9 S Mindanao,125.1230117,6.087186667,1.2,"501 - 2,000",No,30
Extreme Reach,7K015750,No Trade Name,Sari Sari Store,Quilantang,"Calumpang,126303033",GENERAL SANTOS CITY (DADIANGAS),SOUTH COTABATO,9 S Mindanao,125.1421767,6.092646667,1.5,"501 - 2,000",No,193
Extreme Reach,7K013697,No Trade Name,Sari Sari Store,Purok placida,"Calumpang,126303033",GENERAL SANTOS CITY (DADIANGAS),SOUTH COTABATO,9 S Mindanao,125.1246883,6.083966667,1.4,101 - 500,No,30
Extreme Reach,7K010467,No Trade Name,Sari Sari Store,Upper Acharon,"Calumpang,126303033",GENERAL SANTOS CITY (DADIANGAS),SOUTH COTABATO,9 S Mindanao,125.1404083,6.071005,1.8,"501 - 2,000",No,186
Extreme Reach,7K010423,A.Q LLANO STORE,Sari Sari Store,"Purok Estrella, Birhen sa Kasilak","Calumpang,126303033",GENERAL SANTOS CITY (DADIANGAS),SOUTH COTABATO,9 S Mindanao,125.1491433,6.07016,1.3,"501 - 2,000",No,194
Extreme Reach,7K010363,TEOLO STORE,Sari Sari Store,Upper acharon,"Calumpang,126303033",GENERAL SANTOS CITY (DADIANGAS),SOUTH COTABATO,9 S Mindanao,125.1400967,6.071965,1.6,"501 - 2,000",No,186
Extreme Reach,7K010355,3 BROS STORE / JIMBOY & QUEENIE EATERY,Sari Sari Store,Upper acharon,"Calumpang,126303033",GENERAL SANTOS CITY (DADIANGAS),SOUTH COTABATO,9 S Mindanao,125.1401733,6.071973333,1.5,"3,501 And Up",No,186
Extreme Reach,7K013688,MELYN SARI-SARI STORE,Sari Sari Store,Reformville Yellow fin rd,"Calumpang,126303033",GENERAL SANTOS CITY (DADIANGAS),SOUTH COTABATO,9 S Mindanao,125.1279517,6.086321667,1.5,"501 - 2,000",No,30
Extreme Reach,7K010344,SAHANIE STORE,Sari Sari Store,Upper acharon,"Calumpang,126303033",GENERAL SANTOS CITY (DADIANGAS),SOUTH COTABATO,9 S Mindanao,125.14045,6.071565,1.7,"501 - 2,000",No,186
Extreme Reach,7K013599,No Trade Name,Sari Sari Store,Purok placida,"Calumpang,126303033",GENERAL SANTOS CITY (DADIANGAS),SOUTH COTABATO,9 S Mindanao,125.1263483,6.083948333,1.6,"501 - 2,000",No,47
Extreme Reach,7K013677,MALACHICO SARI-SARI STORE,Sari Sari Store,Purok placida,"Calumpang,126303033",GENERAL SANTOS CITY (DADIANGAS),SOUTH COTABATO,9 S Mindanao,125.1264083,6.084536667,1.5,"2001 - 3,500",No,30
Extreme Reach,7K013678,MAGLACION STORE,Sari Sari Store,Purok placida,"Calumpang,126303033",GENERAL SANTOS CITY (DADIANGAS),SOUTH COTABATO,9 S Mindanao,125.1264517,6.0842,1.8,"501 - 2,000",No,47
Extreme Reach,7K010375,KAMBAL STORE,Sari Sari Store,Upper Acharon,"Calumpang,126303033",GENERAL SANTOS CITY (DADIANGAS),SOUTH COTABATO,9 S Mindanao,125.140565,6.069926667,1.9,"3,501 And Up",No,186
Extreme Reach,7K010372,MCCC GENERAL MERCHANDISE,Sari Sari Store,Upper Acharon,"Calumpang,126303033",GENERAL SANTOS CITY (DADIANGAS),SOUTH COTABATO,9 S Mindanao,125.14064,6.07161,1.8,"501 - 2,000",No,186
Extreme Reach,7K010371,No Trade Name,Sari Sari Store,Upper Acharon,"Calumpang,126303033",GENERAL SANTOS CITY (DADIANGAS),SOUTH COTABATO,9 S Mindanao,125.140005,6.070061667,1.7,"501 - 2,000",No,186
Extreme Reach,7K013612,No Trade Name,Sari Sari Store,Carmenville ext,"Calumpang,126303033",GENERAL SANTOS CITY (DADIANGAS),SOUTH COTABATO,9 S Mindanao,125.127735,6.088235,1.3,101 - 500,No,30
Extreme Reach,7K013605,No Trade Name,Sari Sari Store,Reformville yellow fin rd,"Calumpang,126303033",GENERAL SANTOS CITY (DADIANGAS),SOUTH COTABATO,9 S Mindanao,125.127935,6.08287,1.6,101 - 500,No,47
Extreme Reach,7K010351,RELLA STORE,Sari Sari Store,Upper acharon,"Calumpang,126303033",GENERAL SANTOS CITY (DADIANGAS),SOUTH COTABATO,9 S Mindanao,125.1403367,6.070743333,1.8,"501 - 2,000",No,186
Extreme Reach,7K010353,S.R. BACATAN STORE,Sari Sari Store,Upper acharon,"Calumpang,126303033",GENERAL SANTOS CITY (DADIANGAS),SOUTH COTABATO,9 S Mindanao,125.140025,6.07132,1.7,"501 - 2,000",No,186
Extreme Reach,7K010367,CALOY STORE,Sari Sari Store,Malambuon,"Calumpang,126303033",GENERAL SANTOS CITY (DADIANGAS),SOUTH COTABATO,9 S Mindanao,125.1392333,6.07162,1.4,"501 - 2,000",No,186
Extreme Reach,7K010424,ASUQUE STORE,Sari Sari Store,"Purok Estrella, Birhen sa Kasilak","Calumpang,126303033",GENERAL SANTOS CITY (DADIANGAS),SOUTH COTABATO,9 S Mindanao,125.1494867,6.070696667,1.5,"2001 - 3,500",No,194
Extreme Reach,7K015908,No Trade Name,Sari Sari Store,Purok Crisostomo Brgy. Calumpang,"Calumpang,126303033",GENERAL SANTOS CITY (DADIANGAS),SOUTH COTABATO,9 S Mindanao,125.1467417,6.085126667,1.6,101 - 500,No,192
Extreme Reach,7K013592,No Trade Name,Sari Sari Store,Purok placida,"Calumpang,126303033",GENERAL SANTOS CITY (DADIANGAS),SOUTH COTABATO,9 S Mindanao,125.1248083,6.085133333,2.6,101 - 500,No,30
Extreme Reach,7K013614,No Trade Name,Sari Sari Store,Purok placida,"Calumpang,126303033",GENERAL SANTOS CITY (DADIANGAS),SOUTH COTABATO,9 S Mindanao,125.1241583,6.087258333,1.6,"501 - 2,000",No,30
Extreme Reach,7K013622,ALEXA STORE,Sari Sari Store,Purok placida,"Calumpang,126303033",GENERAL SANTOS CITY (DADIANGAS),SOUTH COTABATO,9 S Mindanao,125.1264783,6.08427,1.6,"3,501 And Up",No,47
Extreme Reach,7K013684,No Trade Name,Sari Sari Store,Reformville Yellow fin rd,"Calumpang,126303033",GENERAL SANTOS CITY (DADIANGAS),SOUTH COTABATO,9 S Mindanao,125.1279383,6.082765,1.6,"501 - 2,000",No,47
Extreme Reach,7K010866,No Trade Name,Sari Sari Store,Malambu-on,"Calumpang,126303033",GENERAL SANTOS CITY (DADIANGAS),SOUTH COTABATO,9 S Mindanao,125.1387983,6.072165,1.6,"501 - 2,000",No,186
Extreme Reach,7K010871,ANN STORE,Sari Sari Store,Malambu-on,"Calumpang,126303033",GENERAL SANTOS CITY (DADIANGAS),SOUTH COTABATO,9 S Mindanao,125.1379967,6.071571667,1.5,"501 - 2,000",No,186
Extreme Reach,7K010874,W.A. STORE,Sari Sari Store,Malambu-on,"Calumpang,126303033",GENERAL SANTOS CITY (DADIANGAS),SOUTH COTABATO,9 S Mindanao,125.1379483,6.070816667,1.6,"501 - 2,000",No,186
Extreme Reach,7K010877,No Trade Name,Sari Sari Store,Malambu-on,"Calumpang,126303033",GENERAL SANTOS CITY (DADIANGAS),SOUTH COTABATO,9 S Mindanao,125.13907,6.07312,1.8,"501 - 2,000",No,186
Extreme Reach,7K010469,ROSE & KARIM STORE,Sari Sari Store,Upper Acharon,"Calumpang,126303033",GENERAL SANTOS CITY (DADIANGAS),SOUTH COTABATO,9 S Mindanao,125.1400233,6.070856667,1.5,"3,501 And Up",No,186
Extreme Reach,7K010435,CARCALLAS STORE,Sari Sari Store,"Purok Estrella, Birhen sa Kasilak","Calumpang,126303033",GENERAL SANTOS CITY (DADIANGAS),SOUTH COTABATO,9 S Mindanao,125.1474117,6.07129,1.6,"501 - 2,000",No,194
Extreme Reach,7K010412,No Trade Name,Sari Sari Store,"Purok Estrella, Birhen sa Kasilak","Calumpang,126303033",GENERAL SANTOS CITY (DADIANGAS),SOUTH COTABATO,9 S Mindanao,125.1472583,6.071088333,1.9,"501 - 2,000",No,194
Extreme Reach,7K010881,No Trade Name,Sari Sari Store,Purok Saeg Zone 4,"Calumpang,126303033",GENERAL SANTOS CITY (DADIANGAS),SOUTH COTABATO,9 S Mindanao,125.152265,6.072323333,1.8,"501 - 2,000",No,196
Extreme Reach,7K010670,JOY JOY STORE,Sari Sari Store,Upper Acharon,"Calumpang,126303033",GENERAL SANTOS CITY (DADIANGAS),SOUTH COTABATO,9 S Mindanao,125.1423483,6.07042,1.3,"501 - 2,000",No,185
Extreme Reach,7K010887,No Trade Name,Sari Sari Store,Purok Saeg Zone 4,"Calumpang,126303033",GENERAL SANTOS CITY (DADIANGAS),SOUTH COTABATO,9 S Mindanao,125.152855,6.07202,1.8,101 - 500,No,196
Extreme Reach,7K010352,LANUGAN SARI 2Ã— STORE,Sari Sari Store,Upper acharon,"Calumpang,126303033",GENERAL SANTOS CITY (DADIANGAS),SOUTH COTABATO,9 S Mindanao,125.14004,6.070958333,1.5,"501 - 2,000",No,186
Extreme Reach,7K010888,SHIELA STORE,Sari Sari Store,Purok Saeg Zone 4,"Calumpang,126303033",GENERAL SANTOS CITY (DADIANGAS),SOUTH COTABATO,9 S Mindanao,125.1528133,6.071793333,1.3,"501 - 2,000",No,196
Extreme Reach,7K010895,No Trade Name,Sari Sari Store,Purok Saeg Zone 4,"Calumpang,126303033",GENERAL SANTOS CITY (DADIANGAS),SOUTH COTABATO,9 S Mindanao,125.153045,6.071733333,1.4,"501 - 2,000",No,196
Extreme Reach,7K010896,No Trade Name,Sari Sari Store,Purok Saeg Zone 4,"Calumpang,126303033",GENERAL SANTOS CITY (DADIANGAS),SOUTH COTABATO,9 S Mindanao,125.153455,6.071488333,1.4,"501 - 2,000",No,196
Extreme Reach,7K010897,No Trade Name,Sari Sari Store,Purok Saeg Zone 4,"Calumpang,126303033",GENERAL SANTOS CITY (DADIANGAS),SOUTH COTABATO,9 S Mindanao,125.1534517,6.071026667,1.7,"501 - 2,000",No,196
Extreme Reach,7K011213,No Trade Name,Sari Sari Store,purok maliwanag,"Calumpang,126303033",GENERAL SANTOS CITY (DADIANGAS),SOUTH COTABATO,9 S Mindanao,125.14298,6.074648333,1.5,"501 - 2,000",No,34
Extreme Reach,7K010696,KIMXIAN'S STORE,Sari Sari Store,Upper Acharon,"Calumpang,126303033",GENERAL SANTOS CITY (DADIANGAS),SOUTH COTABATO,9 S Mindanao,125.1412667,6.06971,1.5,"501 - 2,000",No,184
Extreme Reach,7K010853,No Trade Name,Sari Sari Store,"Upper Acharon , Bangsamoro","Calumpang,126303033",GENERAL SANTOS CITY (DADIANGAS),SOUTH COTABATO,9 S Mindanao,125.1430067,6.068273333,1.4,"501 - 2,000",No,184
Extreme Reach,7K010858,ALDRINE STORE/ SKYE STORE,Sari Sari Store,Lower Acharon,"Calumpang,126303033",GENERAL SANTOS CITY (DADIANGAS),SOUTH COTABATO,9 S Mindanao,125.143795,6.07064,1.5,"501 - 2,000",No,185
Extreme Reach,7K010862,ZIA MINI STORE,Sari Sari Store,Malambu-on,"Calumpang,126303033",GENERAL SANTOS CITY (DADIANGAS),SOUTH COTABATO,9 S Mindanao,125.1390083,6.073606667,1.7,"2001 - 3,500",No,186
Extreme Reach,7K011098,GRECELL STORE,Sari Sari Store,Sarangani road,"Calumpang,126303033",GENERAL SANTOS CITY (DADIANGAS),SOUTH COTABATO,9 S Mindanao,125.14417,6.072225,1.9,"3,501 And Up",No,185
Extreme Reach,7K011113,No Trade Name,Sari Sari Store,purok maliwanag,"Calumpang,126303033",GENERAL SANTOS CITY (DADIANGAS),SOUTH COTABATO,9 S Mindanao,125.1429617,6.07511,1.5,"501 - 2,000",No,34
Extreme Reach,7K011114,No Trade Name,Sari Sari Store,purok maliwanag,"Calumpang,126303033",GENERAL SANTOS CITY (DADIANGAS),SOUTH COTABATO,9 S Mindanao,125.1433633,6.074965,1.6,"501 - 2,000",No,34
Extreme Reach,7K011117,No Trade Name,Sari Sari Store,purok maliwanag,"Calumpang,126303033",GENERAL SANTOS CITY (DADIANGAS),SOUTH COTABATO,9 S Mindanao,125.1437917,6.076585,1.5,"501 - 2,000",No,34
Extreme Reach,7K011118,VELASCO STORE,Sari Sari Store,purok villanueva,"Calumpang,126303033",GENERAL SANTOS CITY (DADIANGAS),SOUTH COTABATO,9 S Mindanao,125.14379,6.076603333,1.6,"2001 - 3,500",No,34
Extreme Reach,7K011121,BANQUIRIGO STORE,Sari Sari Store,purok san miguel,"Calumpang,126303033",GENERAL SANTOS CITY (DADIANGAS),SOUTH COTABATO,9 S Mindanao,125.14303,6.077821667,1.6,"501 - 2,000",No,34
Extreme Reach,7K011124,No Trade Name,Sari Sari Store,purok san miguel,"Calumpang,126303033",GENERAL SANTOS CITY (DADIANGAS),SOUTH COTABATO,9 S Mindanao,125.1445017,6.078605,1.7,"501 - 2,000",No,190
Extreme Reach,7K011154,No Trade Name,Sari Sari Store,Purok Saeg Zone 3,"Calumpang,126303033",GENERAL SANTOS CITY (DADIANGAS),SOUTH COTABATO,9 S Mindanao,125.15455,6.070568333,1.5,101 - 500,No,195
Extreme Reach,7K011167,Bench Store,Sari Sari Store,Purok Saeg Zone 1,"Calumpang,126303033",GENERAL SANTOS CITY (DADIANGAS),SOUTH COTABATO,9 S Mindanao,125.1536167,6.072208333,1.6,"501 - 2,000",No,196
Extreme Reach,7K010900,No Trade Name,Sari Sari Store,Purok Saeg Zone 4,"Calumpang,126303033",GENERAL SANTOS CITY (DADIANGAS),SOUTH COTABATO,9 S Mindanao,125.153825,6.070898333,2.7,"501 - 2,000",No,196
Extreme Reach,7K010937,MAMANTAL STORE,Sari Sari Store,"Upper Acharon, bangsamoro","Calumpang,126303033",GENERAL SANTOS CITY (DADIANGAS),SOUTH COTABATO,9 S Mindanao,125.1429433,6.070138333,1.9,"3,501 And Up",No,185
Extreme Reach,7K010943,ROSEMARIE STORE,Sari Sari Store,Malambu-on,"Calumpang,126303033",GENERAL SANTOS CITY (DADIANGAS),SOUTH COTABATO,9 S Mindanao,125.138845,6.072816667,1.2,"501 - 2,000",No,186
Extreme Reach,7K011156,No Trade Name,Sari Sari Store,Purok Saeg Zone 3,"Calumpang,126303033",GENERAL SANTOS CITY (DADIANGAS),SOUTH COTABATO,9 S Mindanao,125.1541333,6.07059,1.6,101 - 500,No,195
Extreme Reach,7K011135,No Trade Name,Sari Sari Store,Purok Saeg Zone 3,"Calumpang,126303033",GENERAL SANTOS CITY (DADIANGAS),SOUTH COTABATO,9 S Mindanao,125.1544383,6.07068,1.8,"501 - 2,000",No,195
Extreme Reach,7K010335,ASNA STORE,Sari Sari Store,Upper acharon,"Calumpang,126303033",GENERAL SANTOS CITY (DADIANGAS),SOUTH COTABATO,9 S Mindanao,125.1410483,6.071231667,1.6,101 - 500,No,186
Extreme Reach,7K010340,SARSALEJO STORE,Sari Sari Store,Upper acharon,"Calumpang,126303033",GENERAL SANTOS CITY (DADIANGAS),SOUTH COTABATO,9 S Mindanao,125.1410017,6.071638333,1.4,101 - 500,No,186
Extreme Reach,7K010345,CLEMEN STORE,Sari Sari Store,Upper acharon,"Calumpang,126303033",GENERAL SANTOS CITY (DADIANGAS),SOUTH COTABATO,9 S Mindanao,125.1402767,6.071576667,1.5,"501 - 2,000",No,186
Extreme Reach,7K010347,No Trade Name,Sari Sari Store,Upper acharon,"Calumpang,126303033",GENERAL SANTOS CITY (DADIANGAS),SOUTH COTABATO,9 S Mindanao,125.140305,6.071431667,1.9,"501 - 2,000",No,186
Extreme Reach,7K010362,No Trade Name,Sari Sari Store,Upper acharon,"Calumpang,126303033",GENERAL SANTOS CITY (DADIANGAS),SOUTH COTABATO,9 S Mindanao,125.140045,6.0721,1.5,"2001 - 3,500",No,186
Extreme Reach,7K010428,No Trade Name,Sari Sari Store,"Purok Estrella, Birhen sa Kasilak","Calumpang,126303033",GENERAL SANTOS CITY (DADIANGAS),SOUTH COTABATO,9 S Mindanao,125.1497667,6.070738333,1.7,101 - 500,No,194
Extreme Reach,7K010334,PAHIMA STORE,Sari Sari Store,Upper acharon,"Calumpang,126303033",GENERAL SANTOS CITY (DADIANGAS),SOUTH COTABATO,9 S Mindanao,125.1406783,6.071243333,1.9,"501 - 2,000",No,186
Extreme Reach,7K010332,No Trade Name,Sari Sari Store,Upper acharon,"Calumpang,126303033",GENERAL SANTOS CITY (DADIANGAS),SOUTH COTABATO,9 S Mindanao,125.141095,6.070803333,1.6,"501 - 2,000",No,186
Extreme Reach,7K010610,No Trade Name,Sari Sari Store,"Purok San Purok, Zone 5","Calumpang,126303033",GENERAL SANTOS CITY (DADIANGAS),SOUTH COTABATO,9 S Mindanao,125.14804,6.071938333,1.5,"501 - 2,000",No,194
Extreme Reach,7K010632,No Trade Name,Sari Sari Store,Upper Acharon,"Calumpang,126303033",GENERAL SANTOS CITY (DADIANGAS),SOUTH COTABATO,9 S Mindanao,125.1410433,6.070026667,1.7,101 - 500,No,184
Extreme Reach,7K010634,JING JING STORE,Sari Sari Store,Upper Acharon,"Calumpang,126303033",GENERAL SANTOS CITY (DADIANGAS),SOUTH COTABATO,9 S Mindanao,125.1399483,6.070345,1.7,"501 - 2,000",No,186
Extreme Reach,7K010637,JENNYMOR STORE,Sari Sari Store,Upper Acharon,"Calumpang,126303033",GENERAL SANTOS CITY (DADIANGAS),SOUTH COTABATO,9 S Mindanao,125.1408583,6.070401667,1.5,"501 - 2,000",No,186
Extreme Reach,7K010638,VEGAFRIA STORE,Sari Sari Store,Upper Acharon,"Calumpang,126303033",GENERAL SANTOS CITY (DADIANGAS),SOUTH COTABATO,9 S Mindanao,125.1410483,6.070391667,1.5,101 - 500,No,186
Extreme Reach,7K010658,No Trade Name,Sari Sari Store,Upper Acharon,"Calumpang,126303033",GENERAL SANTOS CITY (DADIANGAS),SOUTH COTABATO,9 S Mindanao,125.1423633,6.068853333,1.6,"501 - 2,000",No,184
Extreme Reach,7K010660,GENELYN STORE,Sari Sari Store,Upper Acharon,"Calumpang,126303033",GENERAL SANTOS CITY (DADIANGAS),SOUTH COTABATO,9 S Mindanao,125.1422117,6.069233333,1.7,"501 - 2,000",No,184
Extreme Reach,7K010661,SHIANA STORE,Sari Sari Store,Upper Acharon,"Calumpang,126303033",GENERAL SANTOS CITY (DADIANGAS),SOUTH COTABATO,9 S Mindanao,125.142305,6.069171667,1.7,"501 - 2,000",No,184
Extreme Reach,7K010434,No Trade Name,Sari Sari Store,Purok San Juan,"Calumpang,126303033",GENERAL SANTOS CITY (DADIANGAS),SOUTH COTABATO,9 S Mindanao,125.14837,6.071671667,1.7,101 - 500,No,194
Extreme Reach,7K010472,STEP & S.J STORE,Sari Sari Store,Upper Acharon,"Calumpang,126303033",GENERAL SANTOS CITY (DADIANGAS),SOUTH COTABATO,9 S Mindanao,125.140035,6.071776667,1.3,"3,501 And Up",No,186
Extreme Reach,7K010414,PLAZO'S STORE,Sari Sari Store,"Purok Estrella, Birhen sa Kasilak","Calumpang,126303033",GENERAL SANTOS CITY (DADIANGAS),SOUTH COTABATO,9 S Mindanao,125.147545,6.070985,1.5,"501 - 2,000",No,194
Extreme Reach,7K011892,DERASOL CAÃ‘EDO STORE,Sari Sari Store,Purok san miguel,"Calumpang,126303033",GENERAL SANTOS CITY (DADIANGAS),SOUTH COTABATO,9 S Mindanao,125.1434767,6.078921667,1.8,"2001 - 3,500",No,190
Extreme Reach,7K011120,JUDITH STORE,Sari Sari Store,purok villanueva,"Calumpang,126303033",GENERAL SANTOS CITY (DADIANGAS),SOUTH COTABATO,9 S Mindanao,125.14305,6.07757,1.8,"501 - 2,000",No,34
Extreme Reach,7K011107,No Trade Name,Sari Sari Store,"Quilantang street, purok maliwanag","Calumpang,126303033",GENERAL SANTOS CITY (DADIANGAS),SOUTH COTABATO,9 S Mindanao,125.1424317,6.07735,1.5,"501 - 2,000",No,34
Extreme Reach,7K011103,No Trade Name,Sari Sari Store,"Quilantang street, purok maliwanag","Calumpang,126303033",GENERAL SANTOS CITY (DADIANGAS),SOUTH COTABATO,9 S Mindanao,125.1424567,6.074483333,1.5,101 - 500,No,34
Extreme Reach,7K011108,No Trade Name,Sari Sari Store,purok maliwanag,"Calumpang,126303033",GENERAL SANTOS CITY (DADIANGAS),SOUTH COTABATO,9 S Mindanao,125.1430033,6.076005,1.7,"501 - 2,000",No,34
Extreme Reach,7K011172,No Trade Name,Sari Sari Store,Purok Saeg Zone 1,"Calumpang,126303033",GENERAL SANTOS CITY (DADIANGAS),SOUTH COTABATO,9 S Mindanao,125.153835,6.072211667,1.6,101 - 500,No,196
Extreme Reach,7K011211,No Trade Name,Sari Sari Store,purok maliwanag,"Calumpang,126303033",GENERAL SANTOS CITY (DADIANGAS),SOUTH COTABATO,9 S Mindanao,125.1429817,6.075718333,1.6,"501 - 2,000",No,34
Extreme Reach,7K011212,MARIVIC STORE,Sari Sari Store,purok maliwanag,"Calumpang,126303033",GENERAL SANTOS CITY (DADIANGAS),SOUTH COTABATO,9 S Mindanao,125.1429783,6.074346667,1.3,"2001 - 3,500",No,34
Extreme Reach,7K011412,No Trade Name,Sari Sari Store,Purok Saeg Zone 1,"Calumpang,126303033",GENERAL SANTOS CITY (DADIANGAS),SOUTH COTABATO,9 S Mindanao,125.15299,6.071973333,1.7,"501 - 2,000",No,196
Extreme Reach,7K011506,No Trade Name,Sari Sari Store,purok san miguel,"Calumpang,126303033",GENERAL SANTOS CITY (DADIANGAS),SOUTH COTABATO,9 S Mindanao,125.14611,6.078195,1.8,101 - 500,No,191
Extreme Reach,7K011516,No Trade Name,Sari Sari Store,Purok San miguel,"Calumpang,126303033",GENERAL SANTOS CITY (DADIANGAS),SOUTH COTABATO,9 S Mindanao,125.1454167,6.078185,1.9,"501 - 2,000",No,190
Extreme Reach,7K011832,PRINCEGEN SARI SARI STORE,Sari Sari Store,purok maliwanag,"Calumpang,126303033",GENERAL SANTOS CITY (DADIANGAS),SOUTH COTABATO,9 S Mindanao,125.1428317,6.076943333,1.8,"501 - 2,000",No,34
Extreme Reach,7K011835,No Trade Name,Sari Sari Store,San miguel,"Calumpang,126303033",GENERAL SANTOS CITY (DADIANGAS),SOUTH COTABATO,9 S Mindanao,125.1442633,6.078445,1.9,101 - 500,No,190
Extreme Reach,7K011845,RHYDAIN STORE,Sari Sari Store,San miguel,"Calumpang,126303033",GENERAL SANTOS CITY (DADIANGAS),SOUTH COTABATO,9 S Mindanao,125.145885,6.078933333,1.6,101 - 500,No,190
Extreme Reach,7K011847,INDAY MING STORE,Sari Sari Store,Purok Maliwanag,"Calumpang,126303033",GENERAL SANTOS CITY (DADIANGAS),SOUTH COTABATO,9 S Mindanao,125.1429417,6.07388,1.9,"3,501 And Up",No,34
Extreme Reach,7K011853,PRESAS STORE,Sari Sari Store,San miguel,"Calumpang,126303033",GENERAL SANTOS CITY (DADIANGAS),SOUTH COTABATO,9 S Mindanao,125.1450367,6.079306667,1.6,"3,501 And Up",No,190
Extreme Reach,7K011864,No Trade Name,Sari Sari Store,Purok san miguel,"Calumpang,126303033",GENERAL SANTOS CITY (DADIANGAS),SOUTH COTABATO,9 S Mindanao,125.1444983,6.07832,1.9,101 - 500,No,190
Extreme Reach,7K011866,No Trade Name,Sari Sari Store,Purok san miguel,"Calumpang,126303033",GENERAL SANTOS CITY (DADIANGAS),SOUTH COTABATO,9 S Mindanao,125.144495,6.078506667,1.5,"501 - 2,000",No,190
Extreme Reach,7K011877,LIBRADILLA STORE,Sari Sari Store,Purok san miguel,"Calumpang,126303033",GENERAL SANTOS CITY (DADIANGAS),SOUTH COTABATO,9 S Mindanao,125.144995,6.079241667,1.6,"2001 - 3,500",No,190
Extreme Reach,7K011885,JENSIE STORE,Sari Sari Store,Purok san miguel,"Calumpang,126303033",GENERAL SANTOS CITY (DADIANGAS),SOUTH COTABATO,9 S Mindanao,125.14421,6.080083333,1.8,"501 - 2,000",No,190
Extreme Reach,7K011202,No Trade Name,Sari Sari Store,Purok Saeg Zone 1,"Calumpang,126303033",GENERAL SANTOS CITY (DADIANGAS),SOUTH COTABATO,9 S Mindanao,125.1537033,6.07244,1.7,101 - 500,No,196
Extreme Reach,7K011891,No Trade Name,Sari Sari Store,Purok san miguel,"Calumpang,126303033",GENERAL SANTOS CITY (DADIANGAS),SOUTH COTABATO,9 S Mindanao,125.14359,6.079445,1.6,"501 - 2,000",No,190
Extreme Reach,7K011738,No Trade Name,Sari Sari Store,Purok Saeg Zone 1,"Calumpang,126303033",GENERAL SANTOS CITY (DADIANGAS),SOUTH COTABATO,9 S Mindanao,125.1528717,6.072363333,1.6,"501 - 2,000",No,196
Extreme Reach,7K011744,No Trade Name,Sari Sari Store,Purok Saeg Zone 1A,"Calumpang,126303033",GENERAL SANTOS CITY (DADIANGAS),SOUTH COTABATO,9 S Mindanao,125.1523633,6.072438333,1.9,"501 - 2,000",No,196
Extreme Reach,7K011750,ANCAJAS STORE / CRISAM STORE,Sari Sari Store,Rexan Catapang St.,"Calumpang,126303033",GENERAL SANTOS CITY (DADIANGAS),SOUTH COTABATO,9 S Mindanao,125.151795,6.074133333,1.5,"501 - 2,000",No,196
Extreme Reach,7K011122,No Trade Name,Sari Sari Store,purok san miguel,"Calumpang,126303033",GENERAL SANTOS CITY (DADIANGAS),SOUTH COTABATO,9 S Mindanao,125.1433117,6.07794,1.5,"2001 - 3,500",No,190
Extreme Reach,7K011137,JHONA STORE,Sari Sari Store,Sarangani road,"Calumpang,126303033",GENERAL SANTOS CITY (DADIANGAS),SOUTH COTABATO,9 S Mindanao,125.1443583,6.073221667,1.7,"501 - 2,000",No,34
Extreme Reach,7K011141,LUCKY MINI MART,Sari Sari Store,Magsaysay Avenue,"Calumpang,126303033",GENERAL SANTOS CITY (DADIANGAS),SOUTH COTABATO,9 S Mindanao,125.14421,6.073545,1.5,"3,501 And Up",No,34
Extreme Reach,7K011112,No Trade Name,Sari Sari Store,purok maliwanag,"Calumpang,126303033",GENERAL SANTOS CITY (DADIANGAS),SOUTH COTABATO,9 S Mindanao,125.1428667,6.07471,1.8,"501 - 2,000",No,34
Extreme Reach,7K011214,No Trade Name,Sari Sari Store,purok maliwanag,"Calumpang,126303033",GENERAL SANTOS CITY (DADIANGAS),SOUTH COTABATO,9 S Mindanao,125.1429467,6.075111667,1.5,"2001 - 3,500",No,34
Extreme Reach,7K011207,MORALES STORE,Sari Sari Store,"Quinlantang st., purok maliwanag","Calumpang,126303033",GENERAL SANTOS CITY (DADIANGAS),SOUTH COTABATO,9 S Mindanao,125.1424283,6.074771667,1.4,"501 - 2,000",No,34
Extreme Reach,7K011165,No Trade Name,Sari Sari Store,Purok Saeg Zone 1,"Calumpang,126303033",GENERAL SANTOS CITY (DADIANGAS),SOUTH COTABATO,9 S Mindanao,125.1535833,6.072085,1.5,"501 - 2,000",No,196
Extreme Reach,7K015811,ACE & AZ STORE,Sari Sari Store,Crisostomo zone 7,"Calumpang,126303033",GENERAL SANTOS CITY (DADIANGAS),SOUTH COTABATO,9 S Mindanao,125.142895,6.087841667,1.5,"501 - 2,000",No,192
Extreme Reach,7K010415,MODINA STORE,Sari Sari Store,"Purok Estrella, Birhen sa Kasilak","Calumpang,126303033",GENERAL SANTOS CITY (DADIANGAS),SOUTH COTABATO,9 S Mindanao,125.1479383,6.070255,1.4,"501 - 2,000",No,194
Extreme Reach,7K011203,Darquin Store,Sari Sari Store,Purok Saeg Zone 1,"Calumpang,126303033",GENERAL SANTOS CITY (DADIANGAS),SOUTH COTABATO,9 S Mindanao,125.1534233,6.072201667,1.5,"2001 - 3,500",No,196
Extreme Reach,7K016711,No Trade Name,Sari Sari Store,Quilantang zone 4 brgy calumpang,"Calumpang,126303033",GENERAL SANTOS CITY (DADIANGAS),SOUTH COTABATO,9 S Mindanao,125.1381917,6.092281667,1.5,"501 - 2,000",No,180
Extreme Reach,7K011210,ALEXA STORE,Sari Sari Store,purok maliwanag,"Calumpang,126303033",GENERAL SANTOS CITY (DADIANGAS),SOUTH COTABATO,9 S Mindanao,125.142945,6.076285,1.5,"501 - 2,000",No,34
Extreme Reach,7K011105,MATET STORE,Sari Sari Store,"Quilantang street, purok maliwanag","Calumpang,126303033",GENERAL SANTOS CITY (DADIANGAS),SOUTH COTABATO,9 S Mindanao,125.1424317,6.076121667,1.6,"501 - 2,000",No,34
Extreme Reach,7K011216,APRIL STORE,Sari Sari Store,purok maliwanag,"Calumpang,126303033",GENERAL SANTOS CITY (DADIANGAS),SOUTH COTABATO,9 S Mindanao,125.1429967,6.075658333,1.3,"501 - 2,000",No,34
Extreme Reach,7K010354,MADAS STORE,Sari Sari Store,Upper acharon,"Calumpang,126303033",GENERAL SANTOS CITY (DADIANGAS),SOUTH COTABATO,9 S Mindanao,125.1400417,6.071535,1.8,"501 - 2,000",No,186
Extreme Reach,7K015654,No Trade Name,Sari Sari Store,Purok Crisostomo Brgy. Calumpang,"Calumpang,126303033",GENERAL SANTOS CITY (DADIANGAS),SOUTH COTABATO,9 S Mindanao,125.1435933,6.086295,1.5,101 - 500,No,192
Extreme Reach,7K011123,No Trade Name,Sari Sari Store,purok san miguel,"Calumpang,126303033",GENERAL SANTOS CITY (DADIANGAS),SOUTH COTABATO,9 S Mindanao,125.1439383,6.078666667,1.8,101 - 500,No,190
Extreme Reach,7K015821,EMMA STORE,Sari Sari Store,Lanoy,"Calumpang,126303033",GENERAL SANTOS CITY (DADIANGAS),SOUTH COTABATO,9 S Mindanao,125.1479283,6.085381667,1.7,"2001 - 3,500",No,192
Extreme Reach,7K010360,LD STORE,Sari Sari Store,Upper acharon,"Calumpang,126303033",GENERAL SANTOS CITY (DADIANGAS),SOUTH COTABATO,9 S Mindanao,125.14034,6.072376667,1.7,"501 - 2,000",No,186
Extreme Reach,7K010418,DANICA STORE,Sari Sari Store,"Purok Estrella, Birhen sa Kasilak","Calumpang,126303033",GENERAL SANTOS CITY (DADIANGAS),SOUTH COTABATO,9 S Mindanao,125.14843,6.071121667,1.5,"2001 - 3,500",No,194
Extreme Reach,7K010425,CARSONETTE STORE,Sari Sari Store,"Purok Estrella, Birhen sa Kasilak","Calumpang,126303033",GENERAL SANTOS CITY (DADIANGAS),SOUTH COTABATO,9 S Mindanao,125.1493883,6.070703333,1.5,"501 - 2,000",No,194
Extreme Reach,7K016715,No Trade Name,Sari Sari Store,Quilantang brgy calumpang,"Calumpang,126303033",GENERAL SANTOS CITY (DADIANGAS),SOUTH COTABATO,9 S Mindanao,125.1384083,6.091401667,1.7,101 - 500,No,180
Extreme Reach,7K016712,AQUEE & ZYD STORE,Sari Sari Store,Quilantang brgy calumpang,"Calumpang,126303033",GENERAL SANTOS CITY (DADIANGAS),SOUTH COTABATO,9 S Mindanao,125.1381633,6.09244,1.5,101 - 500,No,180
Extreme Reach,7K011208,BENANCIO CAAY STORE,Sari Sari Store,"Quinlantang st., purok maliwanag","Calumpang,126303033",GENERAL SANTOS CITY (DADIANGAS),SOUTH COTABATO,9 S Mindanao,125.1428733,6.07614,1.4,"501 - 2,000",No,34
Extreme Reach,7K011857,LANIT STORE,Sari Sari Store,San miguel,"Calumpang,126303033",GENERAL SANTOS CITY (DADIANGAS),SOUTH COTABATO,9 S Mindanao,125.14375,6.079816667,1.7,"501 - 2,000",No,190
Extreme Reach,7K011884,No Trade Name,Sari Sari Store,Purok san miguel,"Calumpang,126303033",GENERAL SANTOS CITY (DADIANGAS),SOUTH COTABATO,9 S Mindanao,125.1439017,6.079328333,1.5,"501 - 2,000",No,190
Extreme Reach,7K011848,No Trade Name,Sari Sari Store,San miguel,"Calumpang,126303033",GENERAL SANTOS CITY (DADIANGAS),SOUTH COTABATO,9 S Mindanao,125.14384,6.079341667,1.5,"501 - 2,000",No,190
Extreme Reach,7K011116,No Trade Name,Sari Sari Store,purok maliwanag,"Calumpang,126303033",GENERAL SANTOS CITY (DADIANGAS),SOUTH COTABATO,9 S Mindanao,125.1436467,6.076396667,1.5,"501 - 2,000",No,34
Extreme Reach,7K011855,No Trade Name,Sari Sari Store,San miguel,"Calumpang,126303033",GENERAL SANTOS CITY (DADIANGAS),SOUTH COTABATO,9 S Mindanao,125.144355,6.07981,1.7,"2001 - 3,500",No,190
Extreme Reach,7K011858,No Trade Name,Sari Sari Store,San miguel,"Calumpang,126303033",GENERAL SANTOS CITY (DADIANGAS),SOUTH COTABATO,9 S Mindanao,125.14344,6.079875,1.6,101 - 500,No,190
Extreme Reach,7K016709,CUAMAG STORE,Sari Sari Store,Quilantang brgy calumpang,"Calumpang,126303033",GENERAL SANTOS CITY (DADIANGAS),SOUTH COTABATO,9 S Mindanao,125.1402683,6.092363333,1.7,"501 - 2,000",No,180
Extreme Reach,7K011851,No Trade Name,Sari Sari Store,San miguel,"Calumpang,126303033",GENERAL SANTOS CITY (DADIANGAS),SOUTH COTABATO,9 S Mindanao,125.14566,6.079235,1.7,"501 - 2,000",No,190
Extreme Reach,7K011849,No Trade Name,Sari Sari Store,San miguel,"Calumpang,126303033",GENERAL SANTOS CITY (DADIANGAS),SOUTH COTABATO,9 S Mindanao,125.1453833,6.079263333,1.8,101 - 500,No,190
Extreme Reach,7K011843,No Trade Name,Sari Sari Store,San miguel,"Calumpang,126303033",GENERAL SANTOS CITY (DADIANGAS),SOUTH COTABATO,9 S Mindanao,125.1453367,6.078736667,1.7,"3,501 And Up",No,190
Extreme Reach,7K011106,EM' STORE,Sari Sari Store,"Quilantang street, purok maliwanag","Calumpang,126303033",GENERAL SANTOS CITY (DADIANGAS),SOUTH COTABATO,9 S Mindanao,125.142355,6.076636667,1.7,"2001 - 3,500",No,34
Extreme Reach,7K011115,No Trade Name,Sari Sari Store,purok maliwanag,"Calumpang,126303033",GENERAL SANTOS CITY (DADIANGAS),SOUTH COTABATO,9 S Mindanao,125.14332,6.076146667,1.6,"2001 - 3,500",No,34
Extreme Reach,7K011133,Datwin Store,Sari Sari Store,Purok Saeg Zone 3,"Calumpang,126303033",GENERAL SANTOS CITY (DADIANGAS),SOUTH COTABATO,9 S Mindanao,125.1540367,6.0706,2.1,"501 - 2,000",No,195
Extreme Reach,7K011833,MONIQUE STORE,Sari Sari Store,Magsaysay ave.,"Calumpang,126303033",GENERAL SANTOS CITY (DADIANGAS),SOUTH COTABATO,9 S Mindanao,125.1428683,6.073625,1.7,"3,501 And Up",No,34
Extreme Reach,7K011836,No Trade Name,Sari Sari Store,San miguel,"Calumpang,126303033",GENERAL SANTOS CITY (DADIANGAS),SOUTH COTABATO,9 S Mindanao,125.1439933,6.078125,1.9,"2001 - 3,500",No,190
Extreme Reach,7K011844,No Trade Name,Sari Sari Store,San miguel,"Calumpang,126303033",GENERAL SANTOS CITY (DADIANGAS),SOUTH COTABATO,9 S Mindanao,125.1444783,6.078798333,1.6,"501 - 2,000",No,190
Extreme Reach,7K011861,No Trade Name,Sari Sari Store,San miguel,"Calumpang,126303033",GENERAL SANTOS CITY (DADIANGAS),SOUTH COTABATO,9 S Mindanao,125.1434433,6.078563333,1.7,"3,501 And Up",No,190
Extreme Reach,7K011867,No Trade Name,Sari Sari Store,Purok san miguel,"Calumpang,126303033",GENERAL SANTOS CITY (DADIANGAS),SOUTH COTABATO,9 S Mindanao,125.143745,6.078748333,1.4,101 - 500,No,190
Extreme Reach,7K011161,ROSE Vid,Sari Sari Store,Purok Saeg Zone 1,"Calumpang,126303033",GENERAL SANTOS CITY (DADIANGAS),SOUTH COTABATO,9 S Mindanao,125.1534683,6.071638333,1.7,101 - 500,No,196
Extreme Reach,7K011142,No Trade Name,Sari Sari Store,Purok Saeg Zone 3,"Calumpang,126303033",GENERAL SANTOS CITY (DADIANGAS),SOUTH COTABATO,9 S Mindanao,125.1548483,6.070648333,1.9,"501 - 2,000",No,195
Extreme Reach,7K011092,BERTOS CREB SARI SARI STORE,Sari Sari Store,Sarangani road,"Calumpang,126303033",GENERAL SANTOS CITY (DADIANGAS),SOUTH COTABATO,9 S Mindanao,125.143905,6.070818333,1.8,"501 - 2,000",No,185
Extreme Reach,7K016710,CALLORA'S STORE,Sari Sari Store,Quilantang brgy calumpang,"Calumpang,126303033",GENERAL SANTOS CITY (DADIANGAS),SOUTH COTABATO,9 S Mindanao,125.1386067,6.091906667,1.9,"501 - 2,000",No,180
Extreme Reach,7K016707,BEMINE STORE,Sari Sari Store,South Cotabato Saranggani Road brgy calumpang,"Calumpang,126303033",GENERAL SANTOS CITY (DADIANGAS),SOUTH COTABATO,9 S Mindanao,125.143275,6.067303333,1.4,"501 - 2,000",No,184
Extreme Reach,7K011876,OCA STORE,Sari Sari Store,Purok san miguel,"Calumpang,126303033",GENERAL SANTOS CITY (DADIANGAS),SOUTH COTABATO,9 S Mindanao,125.1440283,6.079135,1.9,"501 - 2,000",No,190
Extreme Reach,7K011859,No Trade Name,Sari Sari Store,San miguel,"Calumpang,126303033",GENERAL SANTOS CITY (DADIANGAS),SOUTH COTABATO,9 S Mindanao,125.14321,6.079656667,1.5,101 - 500,No,190
Extreme Reach,7K011838,No Trade Name,Sari Sari Store,San miguel,"Calumpang,126303033",GENERAL SANTOS CITY (DADIANGAS),SOUTH COTABATO,9 S Mindanao,125.1441,6.078621667,1.5,101 - 500,No,190
Extreme Reach,7K011879,No Trade Name,Sari Sari Store,Purok san miguel,"Calumpang,126303033",GENERAL SANTOS CITY (DADIANGAS),SOUTH COTABATO,9 S Mindanao,125.14646,6.07911,1.4,"3,501 And Up",No,191
Extreme Reach,7K011846,No Trade Name,Sari Sari Store,San miguel,"Calumpang,126303033",GENERAL SANTOS CITY (DADIANGAS),SOUTH COTABATO,9 S Mindanao,125.1445883,6.07903,1.3,"501 - 2,000",No,190
Extreme Reach,7K011831,BUSTILLO SARI SARI STORE AND EATERY,Sari Sari Store,purok maliwanag,"Calumpang,126303033",GENERAL SANTOS CITY (DADIANGAS),SOUTH COTABATO,9 S Mindanao,125.142935,6.07383,1.4,"3,501 And Up",No,34
Extreme Reach,7K011837,No Trade Name,Sari Sari Store,San miguel,"Calumpang,126303033",GENERAL SANTOS CITY (DADIANGAS),SOUTH COTABATO,9 S Mindanao,125.1440483,6.078108333,1.5,101 - 500,No,190
Extreme Reach,7K011839,No Trade Name,Sari Sari Store,San miguel,"Calumpang,126303033",GENERAL SANTOS CITY (DADIANGAS),SOUTH COTABATO,9 S Mindanao,125.1448517,6.078773333,1.5,"501 - 2,000",No,190
Extreme Reach,7K011840,No Trade Name,Sari Sari Store,San miguel,"Calumpang,126303033",GENERAL SANTOS CITY (DADIANGAS),SOUTH COTABATO,9 S Mindanao,125.1460333,6.078711667,2.1,"501 - 2,000",No,190
Extreme Reach,7K011863,No Trade Name,Sari Sari Store,San miguel,"Calumpang,126303033",GENERAL SANTOS CITY (DADIANGAS),SOUTH COTABATO,9 S Mindanao,125.1430617,6.07906,1.4,"501 - 2,000",No,190
Extreme Reach,7K013206,KAITH STORE,Sari Sari Store,Purok placida,"Calumpang,126303033",GENERAL SANTOS CITY (DADIANGAS),SOUTH COTABATO,9 S Mindanao,125.1264283,6.086825,1.3,"3,501 And Up",No,30
Extreme Reach,7K013254,No Trade Name,Sari Sari Store,Reformville,"Calumpang,126303033",GENERAL SANTOS CITY (DADIANGAS),SOUTH COTABATO,9 S Mindanao,125.1266433,6.087036667,1.6,101 - 500,No,30
Extreme Reach,7K013253,No Trade Name,Sari Sari Store,Pangasio street,"Calumpang,126303033",GENERAL SANTOS CITY (DADIANGAS),SOUTH COTABATO,9 S Mindanao,125.1268233,6.08447,1.8,"501 - 2,000",No,47
Extreme Reach,7K013235,No Trade Name,Sari Sari Store,Bangus street,"Calumpang,126303033",GENERAL SANTOS CITY (DADIANGAS),SOUTH COTABATO,9 S Mindanao,125.1275117,6.083798333,1.8,"501 - 2,000",No,47
Extreme Reach,7K013232,No Trade Name,Sari Sari Store,Timbongan street,"Calumpang,126303033",GENERAL SANTOS CITY (DADIANGAS),SOUTH COTABATO,9 S Mindanao,125.12771,6.083075,1.7,"501 - 2,000",No,47
Extreme Reach,7K013228,Mackoy store,Sari Sari Store,Dolphin street,"Calumpang,126303033",GENERAL SANTOS CITY (DADIANGAS),SOUTH COTABATO,9 S Mindanao,125.1265067,6.08226,1.6,"2001 - 3,500",No,47
Extreme Reach,7K013220,No Trade Name,Sari Sari Store,Tambasakan st reformville,"Calumpang,126303033",GENERAL SANTOS CITY (DADIANGAS),SOUTH COTABATO,9 S Mindanao,125.127375,6.08256,1.7,"501 - 2,000",No,47
Extreme Reach,7K013216,No Trade Name,Sari Sari Store,Purok placida,"Calumpang,126303033",GENERAL SANTOS CITY (DADIANGAS),SOUTH COTABATO,9 S Mindanao,125.1246983,6.085723333,1.5,"2001 - 3,500",No,30
Extreme Reach,7K013204,SUNRISE STORE,Sari Sari Store,Purok placida,"Calumpang,126303033",GENERAL SANTOS CITY (DADIANGAS),SOUTH COTABATO,9 S Mindanao,125.1264233,6.08704,1.2,"2001 - 3,500",No,30
Extreme Reach,7K013186,No Trade Name,Sari Sari Store,Lower Puting Bato,"Calumpang,126303033",GENERAL SANTOS CITY (DADIANGAS),SOUTH COTABATO,9 S Mindanao,125.1532967,6.088138333,1.8,101 - 500,No,188
Extreme Reach,7K013176,No Trade Name,Sari Sari Store,Lower Puting Bato RDX,"Calumpang,126303033",GENERAL SANTOS CITY (DADIANGAS),SOUTH COTABATO,9 S Mindanao,125.151825,6.088388333,1.5,"3,501 And Up",No,188
Extreme Reach,7K013175,No Trade Name,Sari Sari Store,Lower Puting Bato RDX,"Calumpang,126303033",GENERAL SANTOS CITY (DADIANGAS),SOUTH COTABATO,9 S Mindanao,125.1518767,6.088218333,1.5,"501 - 2,000",No,188
Extreme Reach,7K013171,MHOTZ STORE,Sari Sari Store,Lower Puting Bato RDX,"Calumpang,126303033",GENERAL SANTOS CITY (DADIANGAS),SOUTH COTABATO,9 S Mindanao,125.151965,6.087415,1.7,"501 - 2,000",No,188
Extreme Reach,7K013170,KAREN STORE,Sari Sari Store,Lower Puting Bato RDX,"Calumpang,126303033",GENERAL SANTOS CITY (DADIANGAS),SOUTH COTABATO,9 S Mindanao,125.1519467,6.087378333,1.9,"501 - 2,000",No,188
Extreme Reach,7K013166,No Trade Name,Sari Sari Store,Skipjack st reformville,"Calumpang,126303033",GENERAL SANTOS CITY (DADIANGAS),SOUTH COTABATO,9 S Mindanao,125.126935,6.085343333,1.4,101 - 500,No,30
Extreme Reach,7K013161,GOLDEN STORE,Sari Sari Store,Sambagon st reformville,"Calumpang,126303033",GENERAL SANTOS CITY (DADIANGAS),SOUTH COTABATO,9 S Mindanao,125.12763,6.084535,1.6,101 - 500,No,47
Extreme Reach,7K013155,No Trade Name,Sari Sari Store,Japanese coi st reformville,"Calumpang,126303033",GENERAL SANTOS CITY (DADIANGAS),SOUTH COTABATO,9 S Mindanao,125.1271733,6.081936667,1.4,101 - 500,No,47
Extreme Reach,7K013611,No Trade Name,Sari Sari Store,Reformville yellow fin rd,"Calumpang,126303033",GENERAL SANTOS CITY (DADIANGAS),SOUTH COTABATO,9 S Mindanao,125.1279467,6.086738333,1.4,101 - 500,No,30
Extreme Reach,7K013602,No Trade Name,Sari Sari Store,Purok placida,"Calumpang,126303033",GENERAL SANTOS CITY (DADIANGAS),SOUTH COTABATO,9 S Mindanao,125.1263367,6.083341667,1.7,"501 - 2,000",No,47
Extreme Reach,7K013597,No Trade Name,Sari Sari Store,Purok placida,"Calumpang,126303033",GENERAL SANTOS CITY (DADIANGAS),SOUTH COTABATO,9 S Mindanao,125.126025,6.0847,1.9,"501 - 2,000",No,30
Extreme Reach,7K013562,No Trade Name,Sari Sari Store,Purok Lower Puting Bato inner left side,"Calumpang,126303033",GENERAL SANTOS CITY (DADIANGAS),SOUTH COTABATO,9 S Mindanao,125.15128,6.088515,2.1,101 - 500,No,188
Extreme Reach,7K013326,ROLDAN STORE,Sari Sari Store,Purok placida,"Calumpang,126303033",GENERAL SANTOS CITY (DADIANGAS),SOUTH COTABATO,9 S Mindanao,125.124745,6.085451667,1.3,"501 - 2,000",No,30
Extreme Reach,7K013325,ERE JAMES STORE,Sari Sari Store,Purok placida,"Calumpang,126303033",GENERAL SANTOS CITY (DADIANGAS),SOUTH COTABATO,9 S Mindanao,125.1238817,6.085735,1.4,"501 - 2,000",No,30
Extreme Reach,7K012736,No Trade Name,Sari Sari Store,"Purok Bayanihan, Zone 1","Calumpang,126303033",GENERAL SANTOS CITY (DADIANGAS),SOUTH COTABATO,9 S Mindanao,125.1556717,6.069398333,1.8,"501 - 2,000",No,195
Extreme Reach,7K012726,No Trade Name,Sari Sari Store,"Purok Bayanihan, Zone 1","Calumpang,126303033",GENERAL SANTOS CITY (DADIANGAS),SOUTH COTABATO,9 S Mindanao,125.1560217,6.069045,1.6,101 - 500,No,195
Extreme Reach,7K012722,No Trade Name,Sari Sari Store,"Purok Bayanihan, Zone 1","Calumpang,126303033",GENERAL SANTOS CITY (DADIANGAS),SOUTH COTABATO,9 S Mindanao,125.1557,6.069076667,1.5,"501 - 2,000",No,195
Extreme Reach,7K012719,No Trade Name,Sari Sari Store,"Purok Bayanihan, Zone 2","Calumpang,126303033",GENERAL SANTOS CITY (DADIANGAS),SOUTH COTABATO,9 S Mindanao,125.1547633,6.068346667,1.7,"501 - 2,000",No,195
Extreme Reach,7K011854,No Trade Name,Sari Sari Store,San miguel,"Calumpang,126303033",GENERAL SANTOS CITY (DADIANGAS),SOUTH COTABATO,9 S Mindanao,125.1440267,6.079315,1.6,"501 - 2,000",No,190
Extreme Reach,7K012708,No Trade Name,Sari Sari Store,Accord Village,"Calumpang,126303033",GENERAL SANTOS CITY (DADIANGAS),SOUTH COTABATO,9 S Mindanao,125.135985,6.087705,1.7,101 - 500,No,181
Extreme Reach,7K012703,No Trade Name,Sari Sari Store,Accord Village,"Calumpang,126303033",GENERAL SANTOS CITY (DADIANGAS),SOUTH COTABATO,9 S Mindanao,125.13595,6.088095,1.8,"501 - 2,000",No,181
Extreme Reach,7K012702,No Trade Name,Sari Sari Store,Accord Village,"Calumpang,126303033",GENERAL SANTOS CITY (DADIANGAS),SOUTH COTABATO,9 S Mindanao,125.1362233,6.087883333,1.4,"501 - 2,000",No,181
Extreme Reach,7K012691,SUNSHINE STORE,Sari Sari Store,Accord Village,"Calumpang,126303033",GENERAL SANTOS CITY (DADIANGAS),SOUTH COTABATO,9 S Mindanao,125.137995,6.086561667,1.6,"3,501 And Up",No,181
Extreme Reach,7K012690,No Trade Name,Sari Sari Store,Accord Village,"Calumpang,126303033",GENERAL SANTOS CITY (DADIANGAS),SOUTH COTABATO,9 S Mindanao,125.13803,6.087166667,1.5,"501 - 2,000",No,181
Extreme Reach,7K012487,GEMMA STORE,Sari Sari Store,Rosal street,"Calumpang,126303033",GENERAL SANTOS CITY (DADIANGAS),SOUTH COTABATO,9 S Mindanao,125.1396333,6.080343333,1.6,"501 - 2,000",No,2
Extreme Reach,7K012481,No Trade Name,Sari Sari Store,Oblipas village,"Calumpang,126303033",GENERAL SANTOS CITY (DADIANGAS),SOUTH COTABATO,9 S Mindanao,125.14046,6.082811667,1.5,"3,501 And Up",No,2
Extreme Reach,7K012466,No Trade Name,Sari Sari Store,Oblipas extension,"Calumpang,126303033",GENERAL SANTOS CITY (DADIANGAS),SOUTH COTABATO,9 S Mindanao,125.1409983,6.083836667,1.5,"3,501 And Up",No,2
Extreme Reach,7K012464,GOBALANE STORE,Sari Sari Store,Oblipas extension,"Calumpang,126303033",GENERAL SANTOS CITY (DADIANGAS),SOUTH COTABATO,9 S Mindanao,125.14084,6.082683333,1.3,"3,501 And Up",No,2
Extreme Reach,7K012688,No Trade Name,Sari Sari Store,Accord Village,"Calumpang,126303033",GENERAL SANTOS CITY (DADIANGAS),SOUTH COTABATO,9 S Mindanao,125.1380183,6.086636667,1.4,101 - 500,No,181
Extreme Reach,7K012368,No Trade Name,Sari Sari Store,"Purok Bayanihan, Zone 2","Calumpang,126303033",GENERAL SANTOS CITY (DADIANGAS),SOUTH COTABATO,9 S Mindanao,125.1541717,6.068493333,1.5,101 - 500,No,195
Extreme Reach,7K012367,GALOS STORE,Sari Sari Store,"Purok Bayanihan, Zone 2","Calumpang,126303033",GENERAL SANTOS CITY (DADIANGAS),SOUTH COTABATO,9 S Mindanao,125.1539783,6.06863,1.6,"3,501 And Up",No,195
Extreme Reach,7K012353,No Trade Name,Sari Sari Store,Orchid st. Cahilsot village,"Calumpang,126303033",GENERAL SANTOS CITY (DADIANGAS),SOUTH COTABATO,9 S Mindanao,125.1411067,6.081226667,1.7,"501 - 2,000",No,2
Extreme Reach,7K012350,No Trade Name,Sari Sari Store,Camia Cahilsot village,"Calumpang,126303033",GENERAL SANTOS CITY (DADIANGAS),SOUTH COTABATO,9 S Mindanao,125.1403633,6.081316667,1.7,101 - 500,No,2
Extreme Reach,7K012336,ROJAMIN STORE,Sari Sari Store,Rose Ave. Cahilsot village,"Calumpang,126303033",GENERAL SANTOS CITY (DADIANGAS),SOUTH COTABATO,9 S Mindanao,125.1404483,6.081826667,1.7,"501 - 2,000",No,2
Extreme Reach,7K012324,No Trade Name,Sari Sari Store,San francisco street cahilsot village,"Calumpang,126303033",GENERAL SANTOS CITY (DADIANGAS),SOUTH COTABATO,9 S Mindanao,125.1399967,6.082541667,1.5,101 - 500,No,2
Extreme Reach,7K012322,No Trade Name,Sari Sari Store,Oblipas village,"Calumpang,126303033",GENERAL SANTOS CITY (DADIANGAS),SOUTH COTABATO,9 S Mindanao,125.14065,6.08385,1.6,"2001 - 3,500",No,2
Extreme Reach,7K012315,PASCUAL ST,Sari Sari Store,Ilang Ilang st. Cahilsot village,"Calumpang,126303033",GENERAL SANTOS CITY (DADIANGAS),SOUTH COTABATO,9 S Mindanao,125.14185,6.081188333,1.5,101 - 500,No,2
Extreme Reach,7K012887,EVANIE STORE,Sari Sari Store,Teachers Village,"Calumpang,126303033",GENERAL SANTOS CITY (DADIANGAS),SOUTH COTABATO,9 S Mindanao,125.1378833,6.077513333,1.5,"501 - 2,000",No,2
Extreme Reach,7K012831,JND STORE,Sari Sari Store,Carcod village,"Calumpang,126303033",GENERAL SANTOS CITY (DADIANGAS),SOUTH COTABATO,9 S Mindanao,125.1368,6.086053333,1.5,"501 - 2,000",No,181
Extreme Reach,7K012805,GABORNO STORE,Sari Sari Store,Sanfrancisco street,"Calumpang,126303033",GENERAL SANTOS CITY (DADIANGAS),SOUTH COTABATO,9 S Mindanao,125.1399583,6.081478333,1.6,"501 - 2,000",No,2
Extreme Reach,7K012742,No Trade Name,Sari Sari Store,Purok Saeg Zone 3,"Calumpang,126303033",GENERAL SANTOS CITY (DADIANGAS),SOUTH COTABATO,9 S Mindanao,125.1543983,6.070588333,1.5,101 - 500,No,195
Extreme Reach,7K012738,No Trade Name,Sari Sari Store,"Purok Bayanihan, Zone 1","Calumpang,126303033",GENERAL SANTOS CITY (DADIANGAS),SOUTH COTABATO,9 S Mindanao,125.155825,6.06939,1.8,101 - 500,No,195
Extreme Reach,7K011852,No Trade Name,Sari Sari Store,San miguel,"Calumpang,126303033",GENERAL SANTOS CITY (DADIANGAS),SOUTH COTABATO,9 S Mindanao,125.1454117,6.079206667,1.4,101 - 500,No,190
Extreme Reach,7K011856,No Trade Name,Sari Sari Store,San miguel,"Calumpang,126303033",GENERAL SANTOS CITY (DADIANGAS),SOUTH COTABATO,9 S Mindanao,125.1441333,6.08013,1.3,"501 - 2,000",No,190
Extreme Reach,7K013918,CHRIS ANNE STORE,Sari Sari Store,Greenville.,"Calumpang,126303033",GENERAL SANTOS CITY (DADIANGAS),SOUTH COTABATO,9 S Mindanao,125.1321283,6.085656667,1.9,101 - 500,No,183
Extreme Reach,7K013892,KURT STORE,Sari Sari Store,Greenville,"Calumpang,126303033",GENERAL SANTOS CITY (DADIANGAS),SOUTH COTABATO,9 S Mindanao,125.1312717,6.089376667,1.7,101 - 500,No,182
Extreme Reach,7K013887,No Trade Name,Sari Sari Store,Upper Greenville,"Calumpang,126303033",GENERAL SANTOS CITY (DADIANGAS),SOUTH COTABATO,9 S Mindanao,125.13131,6.092218333,1.6,"501 - 2,000",No,182
Extreme Reach,7K013882,No Trade Name,Sari Sari Store,Rovalgon Street,"Calumpang,126303033",GENERAL SANTOS CITY (DADIANGAS),SOUTH COTABATO,9 S Mindanao,125.1348333,6.092696667,1.5,"501 - 2,000",No,180
Extreme Reach,7K013879,No Trade Name,Sari Sari Store,Upper Greenville,"Calumpang,126303033",GENERAL SANTOS CITY (DADIANGAS),SOUTH COTABATO,9 S Mindanao,125.1329567,6.092101667,1.4,"501 - 2,000",No,182
Extreme Reach,7K013878,No Trade Name,Sari Sari Store,Upper Greenville,"Calumpang,126303033",GENERAL SANTOS CITY (DADIANGAS),SOUTH COTABATO,9 S Mindanao,125.132505,6.092265,1.6,"501 - 2,000",No,182
Extreme Reach,7K013875,No Trade Name,Sari Sari Store,Upper Greenville,"Calumpang,126303033",GENERAL SANTOS CITY (DADIANGAS),SOUTH COTABATO,9 S Mindanao,125.13186,6.091045,1.5,"501 - 2,000",No,182
Extreme Reach,7K013873,No Trade Name,Sari Sari Store,Upper Greenville,"Calumpang,126303033",GENERAL SANTOS CITY (DADIANGAS),SOUTH COTABATO,9 S Mindanao,125.1316433,6.090866667,1.8,"501 - 2,000",No,182
Extreme Reach,7K013869,No Trade Name,Sari Sari Store,Greenville,"Calumpang,126303033",GENERAL SANTOS CITY (DADIANGAS),SOUTH COTABATO,9 S Mindanao,125.1323867,6.088063333,1.7,"2001 - 3,500",No,182
Extreme Reach,7K013855,No Trade Name,Sari Sari Store,"Purok Felomina, Rosas St.","Calumpang,126303033",GENERAL SANTOS CITY (DADIANGAS),SOUTH COTABATO,9 S Mindanao,125.1479683,6.068445,1.5,101 - 500,No,194
Extreme Reach,7K013848,No Trade Name,Sari Sari Store,"Purok Felomina, Sampaguita St.","Calumpang,126303033",GENERAL SANTOS CITY (DADIANGAS),SOUTH COTABATO,9 S Mindanao,125.1484783,6.068638333,1.7,"501 - 2,000",No,194
Extreme Reach,7K013844,No Trade Name,Sari Sari Store,"Purok Felomina, Dahlia St.","Calumpang,126303033",GENERAL SANTOS CITY (DADIANGAS),SOUTH COTABATO,9 S Mindanao,125.1488,6.068506667,1.5,101 - 500,No,194
Extreme Reach,7K013685,No Trade Name,Sari Sari Store,Reformville Yellow fin rd,"Calumpang,126303033",GENERAL SANTOS CITY (DADIANGAS),SOUTH COTABATO,9 S Mindanao,125.1278733,6.083218333,1.4,"501 - 2,000",No,47
Extreme Reach,7K013613,No Trade Name,Sari Sari Store,Carmenville ext,"Calumpang,126303033",GENERAL SANTOS CITY (DADIANGAS),SOUTH COTABATO,9 S Mindanao,125.1272517,6.08823,1.3,"501 - 2,000",No,30
Extreme Reach,7K011850,LEAL STORE,Sari Sari Store,San miguel,"Calumpang,126303033",GENERAL SANTOS CITY (DADIANGAS),SOUTH COTABATO,9 S Mindanao,125.1465767,6.079188333,1.2,"3,501 And Up",No,191
Extreme Reach,7K011862,No Trade Name,Sari Sari Store,San miguel,"Calumpang,126303033",GENERAL SANTOS CITY (DADIANGAS),SOUTH COTABATO,9 S Mindanao,125.1430017,6.078756667,1.5,"501 - 2,000",No,190
Extreme Reach,7K014883,HANZLOY STORE,Sari Sari Store,Purok 10-B barangay fatima,"Calumpang,126303033",GENERAL SANTOS CITY (DADIANGAS),SOUTH COTABATO,9 S Mindanao,125.1262367,6.074916667,1.2,"501 - 2,000",No,48
Extreme Reach,7K014871,No Trade Name,Sari Sari Store,Purok 10-A barangay fatima,"Calumpang,126303033",GENERAL SANTOS CITY (DADIANGAS),SOUTH COTABATO,9 S Mindanao,125.1262583,6.074176667,1.7,"501 - 2,000",No,48
Extreme Reach,7K014896,No Trade Name,Sari Sari Store,Purok 10-A barangay fatima,"Calumpang,126303033",GENERAL SANTOS CITY (DADIANGAS),SOUTH COTABATO,9 S Mindanao,125.1236933,6.07418,1.5,"501 - 2,000",No,48
Extreme Reach,7K009799,BASTARECHE STORE,Sari Sari Store,Purok Lower Acharon,"Calumpang,126303033",GENERAL SANTOS CITY (DADIANGAS),SOUTH COTABATO,9 S Mindanao,125.1436217,6.070833333,1.5,"501 - 2,000",No,185
Extreme Reach,7K011542,No Trade Name,Sari Sari Store,Purok San miguel,"Calumpang,126303033",GENERAL SANTOS CITY (DADIANGAS),SOUTH COTABATO,9 S Mindanao,125.1451667,6.078501667,1.4,"501 - 2,000",No,190
Extreme Reach,7K011510,ESTOLOGA,Sari Sari Store,purok san miguel,"Calumpang,126303033",GENERAL SANTOS CITY (DADIANGAS),SOUTH COTABATO,9 S Mindanao,125.1450283,6.078471667,1.6,"501 - 2,000",No,190
Extreme Reach,7K014889,No Trade Name,Sari Sari Store,Purok 10-B barangay fatima,"Calumpang,126303033",GENERAL SANTOS CITY (DADIANGAS),SOUTH COTABATO,9 S Mindanao,125.1249217,6.074935,1.6,"501 - 2,000",No,48
Extreme Reach,7K014885,No Trade Name,Sari Sari Store,Purok 10- A barangay fatima,"Calumpang,126303033",GENERAL SANTOS CITY (DADIANGAS),SOUTH COTABATO,9 S Mindanao,125.1256683,6.074378333,1.6,"501 - 2,000",No,48
Extreme Reach,7K011544,No Trade Name,Sari Sari Store,Purok San miguel,"Calumpang,126303033",GENERAL SANTOS CITY (DADIANGAS),SOUTH COTABATO,9 S Mindanao,125.1446167,6.078566667,1.4,"501 - 2,000",No,190
Extreme Reach,7K011537,No Trade Name,Sari Sari Store,Purok San miguel,"Calumpang,126303033",GENERAL SANTOS CITY (DADIANGAS),SOUTH COTABATO,9 S Mindanao,125.1456683,6.078223333,1.9,101 - 500,No,190
Extreme Reach,7K011543,No Trade Name,Sari Sari Store,Purok San miguel,"Calumpang,126303033",GENERAL SANTOS CITY (DADIANGAS),SOUTH COTABATO,9 S Mindanao,125.1452233,6.078241667,1.6,"501 - 2,000",No,190
Extreme Reach,7K011521,No Trade Name,Sari Sari Store,purok san miguel,"Calumpang,126303033",GENERAL SANTOS CITY (DADIANGAS),SOUTH COTABATO,9 S Mindanao,125.1449033,6.078458333,1.6,"501 - 2,000",No,190
Extreme Reach,7K011508,LORLYN STORE,Sari Sari Store,purok san miguel,"Calumpang,126303033",GENERAL SANTOS CITY (DADIANGAS),SOUTH COTABATO,9 S Mindanao,125.1451633,6.078543333,1.7,"501 - 2,000",No,190
Extreme Reach,7K011540,No Trade Name,Sari Sari Store,Purok San miguel,"Calumpang,126303033",GENERAL SANTOS CITY (DADIANGAS),SOUTH COTABATO,9 S Mindanao,125.146225,6.078261667,1.7,"501 - 2,000",No,191
Extreme Reach,7K011541,No Trade Name,Sari Sari Store,Purok San miguel,"Calumpang,126303033",GENERAL SANTOS CITY (DADIANGAS),SOUTH COTABATO,9 S Mindanao,125.1451433,6.078408333,1.6,"501 - 2,000",No,190
Extreme Reach,7K011539,No Trade Name,Sari Sari Store,Purok San miguel,"Calumpang,126303033",GENERAL SANTOS CITY (DADIANGAS),SOUTH COTABATO,9 S Mindanao,125.1461167,6.078131667,1.8,"501 - 2,000",No,191
Extreme Reach,7K011538,NATOY STORE,Sari Sari Store,Purok San miguel,"Calumpang,126303033",GENERAL SANTOS CITY (DADIANGAS),SOUTH COTABATO,9 S Mindanao,125.14591,6.078165,1.9,"501 - 2,000",No,191
Extreme Reach,7K011528,No Trade Name,Sari Sari Store,purok san miguel,"Calumpang,126303033",GENERAL SANTOS CITY (DADIANGAS),SOUTH COTABATO,9 S Mindanao,125.14474,6.078426667,1.8,101 - 500,No,190
Extreme Reach,7K013566,No Trade Name,Sari Sari Store,Purok Lower Puting Bato inner left side,"Calumpang,126303033",GENERAL SANTOS CITY (DADIANGAS),SOUTH COTABATO,9 S Mindanao,125.15128,6.088375,1.6,101 - 500,No,188
Extreme Reach,7K013540,No Trade Name,Sari Sari Store,Purok Lower Puting Bato inner right side,"Calumpang,126303033",GENERAL SANTOS CITY (DADIANGAS),SOUTH COTABATO,9 S Mindanao,125.1529467,6.088315,2.7,Up To 100,No,188
Extreme Reach,7K013531,No Trade Name,Sari Sari Store,Purok Lower Puting Bato,"Calumpang,126303033",GENERAL SANTOS CITY (DADIANGAS),SOUTH COTABATO,9 S Mindanao,125.152015,6.087321667,1.3,"501 - 2,000",No,188
Extreme Reach,7K013557,No Trade Name,Sari Sari Store,Purok Lower Puting Bato inner left side,"Calumpang,126303033",GENERAL SANTOS CITY (DADIANGAS),SOUTH COTABATO,9 S Mindanao,125.1510383,6.089018333,1.6,101 - 500,No,188
Extreme Reach,7K013533,Myla Store,Sari Sari Store,Purok Lower Puting Bato inner right side,"Calumpang,126303033",GENERAL SANTOS CITY (DADIANGAS),SOUTH COTABATO,9 S Mindanao,125.1522417,6.088145,1.5,101 - 500,No,188
Extreme Reach,7K014147,JAMYLA STORE,Sari Sari Store,Makar-Sarangani Highway,"Calumpang,126303033",GENERAL SANTOS CITY (DADIANGAS),SOUTH COTABATO,9 S Mindanao,125.145125,6.074861667,1.5,"501 - 2,000",No,34
Extreme Reach,7K013541,No Trade Name,Sari Sari Store,Purok Lower Puting Bato inner right side,"Calumpang,126303033",GENERAL SANTOS CITY (DADIANGAS),SOUTH COTABATO,9 S Mindanao,125.1521433,6.089028333,1.5,"501 - 2,000",No,188
Extreme Reach,7K015321,RTW SARI SARI STORE,Sari Sari Store,Quilantang zone 8 brgy. Calumpang,"Calumpang,126303033",GENERAL SANTOS CITY (DADIANGAS),SOUTH COTABATO,9 S Mindanao,125.1445,6.09118,1.7,101 - 500,No,193
Extreme Reach,7K016748,No Trade Name,Sari Sari Store,Quilantang brgy calumpang,"Calumpang,126303033",GENERAL SANTOS CITY (DADIANGAS),SOUTH COTABATO,9 S Mindanao,125.1381817,6.08872,1.6,101 - 500,No,181
Extreme Reach,7K016736,No Trade Name,Sari Sari Store,Rovalgon brgy calumpang,"Calumpang,126303033",GENERAL SANTOS CITY (DADIANGAS),SOUTH COTABATO,9 S Mindanao,125.1369733,6.093593333,1.4,101 - 500,No,180
Extreme Reach,7K012870,JANO STORE,Sari Sari Store,Fourth street,"Calumpang,126303033",GENERAL SANTOS CITY (DADIANGAS),SOUTH COTABATO,9 S Mindanao,125.1372317,6.087063333,1.5,101 - 500,No,181
Extreme Reach,7K013505,RADIN STORE,Sari Sari Store,Purok Lower Puting Bato,"Calumpang,126303033",GENERAL SANTOS CITY (DADIANGAS),SOUTH COTABATO,9 S Mindanao,125.151995,6.087836667,1.4,"501 - 2,000",No,188
Extreme Reach,7K013530,HOLYRIE Store,Sari Sari Store,Purok Lower Puting Bato,"Calumpang,126303033",GENERAL SANTOS CITY (DADIANGAS),SOUTH COTABATO,9 S Mindanao,125.1519633,6.087736667,1.8,"501 - 2,000",No,188
Extreme Reach,7K013553,No Trade Name,Sari Sari Store,Purok Lower Puting Bato inner left side,"Calumpang,126303033",GENERAL SANTOS CITY (DADIANGAS),SOUTH COTABATO,9 S Mindanao,125.1511167,6.088898333,1.7,101 - 500,No,188
Extreme Reach,7K010655,No Trade Name,Sari Sari Store,Upper Acharon,"Calumpang,126303033",GENERAL SANTOS CITY (DADIANGAS),SOUTH COTABATO,9 S Mindanao,125.141275,6.068768333,1.8,"2001 - 3,500",No,184
Extreme Reach,7K013535,Teresita Store,Sari Sari Store,Purok Lower Puting Bato inner right side,"Calumpang,126303033",GENERAL SANTOS CITY (DADIANGAS),SOUTH COTABATO,9 S Mindanao,125.152245,6.088243333,1.9,"501 - 2,000",No,188
Extreme Reach,7K015627,No Trade Name,Sari Sari Store,Purok Crisostomo village Brgy. Calumpang,"Calumpang,126303033",GENERAL SANTOS CITY (DADIANGAS),SOUTH COTABATO,9 S Mindanao,125.14491,6.086083333,1.9,101 - 500,No,192
Extreme Reach,7K015641,MANIKO A. STORE,Sari Sari Store,Quilantang Brgy. Calumpang,"Calumpang,126303033",GENERAL SANTOS CITY (DADIANGAS),SOUTH COTABATO,9 S Mindanao,125.1421217,6.092955,1.5,"2001 - 3,500",No,193
Extreme Reach,7K014718,No Trade Name,Sari Sari Store,"prk 10-A , brgy Fatima","Calumpang,126303033",GENERAL SANTOS CITY (DADIANGAS),SOUTH COTABATO,9 S Mindanao,125.127525,6.074028333,1.4,"501 - 2,000",No,48
Extreme Reach,7K013210,No Trade Name,Sari Sari Store,Purok placida,"Calumpang,126303033",GENERAL SANTOS CITY (DADIANGAS),SOUTH COTABATO,9 S Mindanao,125.1247967,6.086901667,1.2,"501 - 2,000",No,30
Extreme Reach,7K013536,No Trade Name,Sari Sari Store,Purok Lower Puting Bato inner right side,"Calumpang,126303033",GENERAL SANTOS CITY (DADIANGAS),SOUTH COTABATO,9 S Mindanao,125.1523433,6.088233333,1.9,101 - 500,No,188
Extreme Reach,7K013542,No Trade Name,Sari Sari Store,Purok Lower Puting Bato inner left side,"Calumpang,126303033",GENERAL SANTOS CITY (DADIANGAS),SOUTH COTABATO,9 S Mindanao,125.1518017,6.089318333,1.7,"501 - 2,000",No,188
Extreme Reach,7K013548,No Trade Name,Sari Sari Store,Purok Lower Puting Bato inner left side,"Calumpang,126303033",GENERAL SANTOS CITY (DADIANGAS),SOUTH COTABATO,9 S Mindanao,125.1514217,6.088906667,1.5,101 - 500,No,188
Extreme Reach,7K014712,DELOS SANTOS Store,Sari Sari Store,"prk 10-A , brgy Fatima","Calumpang,126303033",GENERAL SANTOS CITY (DADIANGAS),SOUTH COTABATO,9 S Mindanao,125.1231217,6.074006667,1.4,"501 - 2,000",No,48
Extreme Reach,7K013336,BRIAN AND AIRA STORE,Sari Sari Store,Purok placida,"Calumpang,126303033",GENERAL SANTOS CITY (DADIANGAS),SOUTH COTABATO,9 S Mindanao,125.1247767,6.085048333,1.4,"501 - 2,000",No,30
Extreme Reach,7K016746,No Trade Name,Sari Sari Store,Quilantang brgy calumpang,"Calumpang,126303033",GENERAL SANTOS CITY (DADIANGAS),SOUTH COTABATO,9 S Mindanao,125.1377883,6.089993333,1.4,101 - 500,No,180
Extreme Reach,7K010628,No Trade Name,Sari Sari Store,Purok San Juan,"Calumpang,126303033",GENERAL SANTOS CITY (DADIANGAS),SOUTH COTABATO,9 S Mindanao,125.148125,6.071826667,1.4,"501 - 2,000",No,194
Extreme Reach,7K013550,No Trade Name,Sari Sari Store,Purok Lower Puting Bato inner left side,"Calumpang,126303033",GENERAL SANTOS CITY (DADIANGAS),SOUTH COTABATO,9 S Mindanao,125.1512083,6.088831667,0.9,"501 - 2,000",No,188
Extreme Reach,7K014210,No Trade Name,Sari Sari Store,Lily Valley,"Calumpang,126303033",GENERAL SANTOS CITY (DADIANGAS),SOUTH COTABATO,9 S Mindanao,125.1315233,6.087926667,1.3,101 - 500,No,182
Extreme Reach,7K014350,TONETH STORE,Sari Sari Store,Purok Magnolia,"Calumpang,126303033",GENERAL SANTOS CITY (DADIANGAS),SOUTH COTABATO,9 S Mindanao,125.1322717,6.084315,1.5,"2001 - 3,500",No,183
Extreme Reach,7K014324,TRIPLE K STORE,Sari Sari Store,Lily Valley,"Calumpang,126303033",GENERAL SANTOS CITY (DADIANGAS),SOUTH COTABATO,9 S Mindanao,125.1314583,6.084446667,1.5,"501 - 2,000",No,183
Extreme Reach,7K014206,No Trade Name,Sari Sari Store,Lily Valley,"Calumpang,126303033",GENERAL SANTOS CITY (DADIANGAS),SOUTH COTABATO,9 S Mindanao,125.1311433,6.088823333,1.8,101 - 500,No,182
Extreme Reach,7K014204,3A STORE,Sari Sari Store,Lily Valley,"Calumpang,126303033",GENERAL SANTOS CITY (DADIANGAS),SOUTH COTABATO,9 S Mindanao,125.1318667,6.085873333,1.5,101 - 500,No,183
Extreme Reach,7K012698,No Trade Name,Sari Sari Store,8th street block 17 Accord Village,"Calumpang,126303033",GENERAL SANTOS CITY (DADIANGAS),SOUTH COTABATO,9 S Mindanao,125.13625,6.087096667,1.5,"501 - 2,000",No,181
Extreme Reach,7K014200,No Trade Name,Sari Sari Store,Greenville,"Calumpang,126303033",GENERAL SANTOS CITY (DADIANGAS),SOUTH COTABATO,9 S Mindanao,125.13212,6.084868333,1.5,101 - 500,No,183
Extreme Reach,7K014325,SABANDON STORE,Sari Sari Store,Purok Magnolia,"Calumpang,126303033",GENERAL SANTOS CITY (DADIANGAS),SOUTH COTABATO,9 S Mindanao,125.131535,6.08417,1.5,"501 - 2,000",No,183
Extreme Reach,7K012687,GERODIAS STORE,Sari Sari Store,Accord Village,"Calumpang,126303033",GENERAL SANTOS CITY (DADIANGAS),SOUTH COTABATO,9 S Mindanao,125.13625,6.08578,1.3,"501 - 2,000",No,181
Extreme Reach,7K012729,No Trade Name,Sari Sari Store,"Purok Bayanihan, Zone 1","Calumpang,126303033",GENERAL SANTOS CITY (DADIANGAS),SOUTH COTABATO,9 S Mindanao,125.1557733,6.069108333,1.5,101 - 500,No,195
Extreme Reach,7K012716,TROY STORE,Sari Sari Store,J.P. Rizal Street,"Calumpang,126303033",GENERAL SANTOS CITY (DADIANGAS),SOUTH COTABATO,9 S Mindanao,125.1379467,6.077561667,1.3,"3,501 And Up",No,2
Extreme Reach,7K012717,HR STORE,Sari Sari Store,J.P. Rizal Street,"Calumpang,126303033",GENERAL SANTOS CITY (DADIANGAS),SOUTH COTABATO,9 S Mindanao,125.1400517,6.077143333,1.3,"501 - 2,000",No,34
Extreme Reach,7K012694,No Trade Name,Sari Sari Store,Sican St.block 5 Accord Village,"Calumpang,126303033",GENERAL SANTOS CITY (DADIANGAS),SOUTH COTABATO,9 S Mindanao,125.1365633,6.086226667,1.7,101 - 500,No,181
Extreme Reach,7K012718,JJM STORE,Sari Sari Store,J.P. Rizal Street,"Calumpang,126303033",GENERAL SANTOS CITY (DADIANGAS),SOUTH COTABATO,9 S Mindanao,125.1399783,6.077301667,1.5,"2001 - 3,500",No,34
Extreme Reach,7K012720,No Trade Name,Sari Sari Store,"Purok Bayanihan, Zone 2","Calumpang,126303033",GENERAL SANTOS CITY (DADIANGAS),SOUTH COTABATO,9 S Mindanao,125.1548717,6.06844,1.9,"501 - 2,000",No,195
Extreme Reach,7K010333,ASMAH STORE,Sari Sari Store,Upper acharon,"Calumpang,126303033",GENERAL SANTOS CITY (DADIANGAS),SOUTH COTABATO,9 S Mindanao,125.1408067,6.07082,1.8,"501 - 2,000",No,186
Extreme Reach,7K012704,No Trade Name,Sari Sari Store,Accord Village,"Calumpang,126303033",GENERAL SANTOS CITY (DADIANGAS),SOUTH COTABATO,9 S Mindanao,125.136035,6.089398333,1.5,"501 - 2,000",No,181
Extreme Reach,7K012695,No Trade Name,Sari Sari Store,Accord Village,"Calumpang,126303033",GENERAL SANTOS CITY (DADIANGAS),SOUTH COTABATO,9 S Mindanao,125.1367,6.08655,1.8,101 - 500,No,181
Extreme Reach,7K012711,DEQUILLO STORE,Sari Sari Store,Accord Village,"Calumpang,126303033",GENERAL SANTOS CITY (DADIANGAS),SOUTH COTABATO,9 S Mindanao,125.13625,6.085733333,1.3,"3,501 And Up",No,181
Extreme Reach,7K012730,No Trade Name,Sari Sari Store,"Purok Bayanihan, Zone 1","Calumpang,126303033",GENERAL SANTOS CITY (DADIANGAS),SOUTH COTABATO,9 S Mindanao,125.155645,6.06932,1.6,"501 - 2,000",No,195
Extreme Reach,7K012727,No Trade Name,Sari Sari Store,"Purok Bayanihan, Zone 1","Calumpang,126303033",GENERAL SANTOS CITY (DADIANGAS),SOUTH COTABATO,9 S Mindanao,125.1559867,6.068898333,1.5,101 - 500,No,195
Extreme Reach,7K012706,No Trade Name,Sari Sari Store,Accord Village,"Calumpang,126303033",GENERAL SANTOS CITY (DADIANGAS),SOUTH COTABATO,9 S Mindanao,125.1359817,6.088605,1.4,101 - 500,No,181
Extreme Reach,7K012723,No Trade Name,Sari Sari Store,"Purok Bayanihan, Zone 1","Calumpang,126303033",GENERAL SANTOS CITY (DADIANGAS),SOUTH COTABATO,9 S Mindanao,125.1559133,6.068993333,1.9,101 - 500,No,195
Extreme Reach,7K012689,No Trade Name,Sari Sari Store,Fuentes st. Accord Village,"Calumpang,126303033",GENERAL SANTOS CITY (DADIANGAS),SOUTH COTABATO,9 S Mindanao,125.1383817,6.087496667,1.5,"501 - 2,000",No,181
Extreme Reach,7K012741,No Trade Name,Sari Sari Store,"Boundary Bato, Purok Saeg Zone 3","Calumpang,126303033",GENERAL SANTOS CITY (DADIANGAS),SOUTH COTABATO,9 S Mindanao,125.1549717,6.07025,1.3,101 - 500,No,195
Extreme Reach,7K012731,No Trade Name,Sari Sari Store,"Purok Bayanihan, Zone 1","Calumpang,126303033",GENERAL SANTOS CITY (DADIANGAS),SOUTH COTABATO,9 S Mindanao,125.1556233,6.069266667,1.9,101 - 500,No,195
Extreme Reach,7K012710,No Trade Name,Sari Sari Store,Accord Village,"Calumpang,126303033",GENERAL SANTOS CITY (DADIANGAS),SOUTH COTABATO,9 S Mindanao,125.1359867,6.085891667,1.5,101 - 500,No,181
Extreme Reach,7K012700,No Trade Name,Sari Sari Store,Accord Village,"Calumpang,126303033",GENERAL SANTOS CITY (DADIANGAS),SOUTH COTABATO,9 S Mindanao,125.136175,6.087601667,1.6,101 - 500,No,181
Extreme Reach,7K011755,TAMBAYAN STORE,Sari Sari Store,Purok Catapang Zone.5,"Calumpang,126303033",GENERAL SANTOS CITY (DADIANGAS),SOUTH COTABATO,9 S Mindanao,125.1517767,6.074985,1.7,"2001 - 3,500",No,196
Extreme Reach,7K012737,No Trade Name,Sari Sari Store,"Purok Bayanihan, Zone 1","Calumpang,126303033",GENERAL SANTOS CITY (DADIANGAS),SOUTH COTABATO,9 S Mindanao,125.1557783,6.06937,1.4,101 - 500,No,195
Extreme Reach,7K012728,No Trade Name,Sari Sari Store,"Purok Bayanihan, Zone 1","Calumpang,126303033",GENERAL SANTOS CITY (DADIANGAS),SOUTH COTABATO,9 S Mindanao,125.15581,6.069036667,1.5,"501 - 2,000",No,195
Extreme Reach,7K012709,No Trade Name,Sari Sari Store,Accord Village,"Calumpang,126303033",GENERAL SANTOS CITY (DADIANGAS),SOUTH COTABATO,9 S Mindanao,125.1360833,6.086453333,1.5,101 - 500,No,181
Extreme Reach,7K012697,No Trade Name,Sari Sari Store,4th Street Accord Village,"Calumpang,126303033",GENERAL SANTOS CITY (DADIANGAS),SOUTH COTABATO,9 S Mindanao,125.1369833,6.086915,1.6,101 - 500,No,181
Extreme Reach,7K012693,QUIBAL STORE,Sari Sari Store,Sican St.block 5 Accord Village,"Calumpang,126303033",GENERAL SANTOS CITY (DADIANGAS),SOUTH COTABATO,9 S Mindanao,125.137105,6.08654,1.7,"501 - 2,000",No,181
Extreme Reach,7K012684,No Trade Name,Sari Sari Store,Cahilsot ave.,"Calumpang,126303033",GENERAL SANTOS CITY (DADIANGAS),SOUTH COTABATO,9 S Mindanao,125.1414917,6.081571667,1.7,"501 - 2,000",No,2
Extreme Reach,7K012683,SANDER STORE,Sari Sari Store,Santan st. Corner Cahilsot village,"Calumpang,126303033",GENERAL SANTOS CITY (DADIANGAS),SOUTH COTABATO,9 S Mindanao,125.1408417,6.080191667,1.7,"501 - 2,000",No,2
Extreme Reach,7K012735,No Trade Name,Sari Sari Store,"Purok Bayanihan, Zone 1","Calumpang,126303033",GENERAL SANTOS CITY (DADIANGAS),SOUTH COTABATO,9 S Mindanao,125.155385,6.069431667,1.9,101 - 500,No,195
Extreme Reach,7K012696,No Trade Name,Sari Sari Store,Accord Village,"Calumpang,126303033",GENERAL SANTOS CITY (DADIANGAS),SOUTH COTABATO,9 S Mindanao,125.1373567,6.086843333,1.9,101 - 500,No,181
Extreme Reach,7K012692,No Trade Name,Sari Sari Store,Accord Village,"Calumpang,126303033",GENERAL SANTOS CITY (DADIANGAS),SOUTH COTABATO,9 S Mindanao,125.1364583,6.085911667,1.6,101 - 500,No,181
Extreme Reach,7K012685,CEDRIX.& AMOR STORE,Sari Sari Store,Dahlia st corner,"Calumpang,126303033",GENERAL SANTOS CITY (DADIANGAS),SOUTH COTABATO,9 S Mindanao,125.141485,6.082075,1.5,"501 - 2,000",No,2
Extreme Reach,7K010005,No Trade Name,Sari Sari Store,Purok Lower Acharon,"Calumpang,126303033",GENERAL SANTOS CITY (DADIANGAS),SOUTH COTABATO,9 S Mindanao,125.1429867,6.071461667,1.5,101 - 500,No,185
Extreme Reach,7K011734,No Trade Name,Sari Sari Store,Purok Saeg Zone 1,"Calumpang,126303033",GENERAL SANTOS CITY (DADIANGAS),SOUTH COTABATO,9 S Mindanao,125.15263,6.072213333,1.5,101 - 500,No,196
Extreme Reach,7K011754,CALEX STORE,Sari Sari Store,Purok Catapang Zone.5,"Calumpang,126303033",GENERAL SANTOS CITY (DADIANGAS),SOUTH COTABATO,9 S Mindanao,125.1517183,6.074668333,1.5,"501 - 2,000",No,196
Extreme Reach,7K011751,RAP RAP STORE,Sari Sari Store,Rexan Catapang St.,"Calumpang,126303033",GENERAL SANTOS CITY (DADIANGAS),SOUTH COTABATO,9 S Mindanao,125.1518517,6.07419,1.6,"501 - 2,000",No,196
Extreme Reach,7K011741,No Trade Name,Sari Sari Store,Purok Saeg Zone 1A,"Calumpang,126303033",GENERAL SANTOS CITY (DADIANGAS),SOUTH COTABATO,9 S Mindanao,125.1525033,6.07246,1.8,"501 - 2,000",No,196
Extreme Reach,7K011753,Bebe & Gigi Store,Sari Sari Store,Purok Catapang Zone.5,"Calumpang,126303033",GENERAL SANTOS CITY (DADIANGAS),SOUTH COTABATO,9 S Mindanao,125.151775,6.074413333,1.3,"501 - 2,000",No,196
Extreme Reach,7K010006,DIDING STORE,Sari Sari Store,Purok Lower Acharon,"Calumpang,126303033",GENERAL SANTOS CITY (DADIANGAS),SOUTH COTABATO,9 S Mindanao,125.1428667,6.072083333,1.9,"501 - 2,000",No,185
Extreme Reach,7K010036,ALIPATER STORE,Sari Sari Store,"Purok Estrella, Birhen sa Kasilak","Calumpang,126303033",GENERAL SANTOS CITY (DADIANGAS),SOUTH COTABATO,9 S Mindanao,125.1479317,6.070288333,1.5,"501 - 2,000",No,194
Extreme Reach,7K010038,BATIANCILA Store,Sari Sari Store,"Purok Estrella, Birhen sa Kasilak","Calumpang,126303033",GENERAL SANTOS CITY (DADIANGAS),SOUTH COTABATO,9 S Mindanao,125.148605,6.070251667,1.7,"501 - 2,000",No,194
Extreme Reach,7K015634,No Trade Name,Sari Sari Store,Purok Crisostomo village zone 4 Brgy. Calumpang,"Calumpang,126303033",GENERAL SANTOS CITY (DADIANGAS),SOUTH COTABATO,9 S Mindanao,125.1448367,6.086396667,1.5,101 - 500,No,192
Extreme Reach,7K011736,No Trade Name,Sari Sari Store,Purok Saeg Zone 1,"Calumpang,126303033",GENERAL SANTOS CITY (DADIANGAS),SOUTH COTABATO,9 S Mindanao,125.153275,6.07233,1.3,101 - 500,No,196
Extreme Reach,7K010008,No Trade Name,Sari Sari Store,Purok Lower Acharon,"Calumpang,126303033",GENERAL SANTOS CITY (DADIANGAS),SOUTH COTABATO,9 S Mindanao,125.1436817,6.071876667,1.8,"501 - 2,000",No,185
Extreme Reach,7K010013,No Trade Name,Sari Sari Store,Purok Lower Acharon,"Calumpang,126303033",GENERAL SANTOS CITY (DADIANGAS),SOUTH COTABATO,9 S Mindanao,125.1436267,6.0723,1.5,101 - 500,No,185
Extreme Reach,7K010018,JEFF 2Ã— STORE,Sari Sari Store,Miriam street upper acharon,"Calumpang,126303033",GENERAL SANTOS CITY (DADIANGAS),SOUTH COTABATO,9 S Mindanao,125.142315,6.070845,1.4,"501 - 2,000",No,185
Extreme Reach,7K010113,No Trade Name,Sari Sari Store,Upper acharon,"Calumpang,126303033",GENERAL SANTOS CITY (DADIANGAS),SOUTH COTABATO,9 S Mindanao,125.14123,6.071591667,1.4,"3,501 And Up",No,186
Extreme Reach,7K011739,No Trade Name,Sari Sari Store,Purok Saeg Zone 1,"Calumpang,126303033",GENERAL SANTOS CITY (DADIANGAS),SOUTH COTABATO,9 S Mindanao,125.1526733,6.07243,1.4,"501 - 2,000",No,196
Extreme Reach,7K015445,No Trade Name,Sari Sari Store,QUILANTANG,"Calumpang,126303033",GENERAL SANTOS CITY (DADIANGAS),SOUTH COTABATO,9 S Mindanao,125.1447967,6.091803333,1.6,"501 - 2,000",No,193
Extreme Reach,7K010020,No Trade Name,Sari Sari Store,Acacia street upper acharon,"Calumpang,126303033",GENERAL SANTOS CITY (DADIANGAS),SOUTH COTABATO,9 S Mindanao,125.1421117,6.071618333,1.6,101 - 500,No,185
Extreme Reach,7K015636,No Trade Name,Sari Sari Store,Purok Crisostomo village zone 7 Brgy. Calumpang,"Calumpang,126303033",GENERAL SANTOS CITY (DADIANGAS),SOUTH COTABATO,9 S Mindanao,125.142635,6.087873333,1.5,"501 - 2,000",No,192
Extreme Reach,7K010077,No Trade Name,Sari Sari Store,Maguindanao avenue,"Calumpang,126303033",GENERAL SANTOS CITY (DADIANGAS),SOUTH COTABATO,9 S Mindanao,125.1429417,6.071011667,1.5,"501 - 2,000",No,185
Extreme Reach,7K010012,LJANE STORE,Sari Sari Store,Purok Lower Acharon,"Calumpang,126303033",GENERAL SANTOS CITY (DADIANGAS),SOUTH COTABATO,9 S Mindanao,125.1440233,6.072556667,1.6,"501 - 2,000",No,185
Extreme Reach,7K010049,No Trade Name,Sari Sari Store,"Purok Estrella, Birhen sa Kasilak","Calumpang,126303033",GENERAL SANTOS CITY (DADIANGAS),SOUTH COTABATO,9 S Mindanao,125.14891,6.071075,1.4,101 - 500,No,194
Extreme Reach,7K010017,LIZA STORE,Sari Sari Store,Purok Lower Acharon,"Calumpang,126303033",GENERAL SANTOS CITY (DADIANGAS),SOUTH COTABATO,9 S Mindanao,125.1429867,6.071401667,1.5,"501 - 2,000",No,185
Extreme Reach,7K015635,ROSALES STORE,Sari Sari Store,Purok Crisostomo village zone 4 Brgy. Calumpang,"Calumpang,126303033",GENERAL SANTOS CITY (DADIANGAS),SOUTH COTABATO,9 S Mindanao,125.1444467,6.086086667,1.5,101 - 500,No,192
Extreme Reach,7K010025,LADARAN STORE / LAVARAN STORE,Sari Sari Store,upper acharon,"Calumpang,126303033",GENERAL SANTOS CITY (DADIANGAS),SOUTH COTABATO,9 S Mindanao,125.1413233,6.071528333,1.3,"3,501 And Up",No,186
Extreme Reach,7K010001,No Trade Name,Sari Sari Store,Purok Lower Acharon,"Calumpang,126303033",GENERAL SANTOS CITY (DADIANGAS),SOUTH COTABATO,9 S Mindanao,125.1435783,6.071268333,1.6,"501 - 2,000",No,185
Extreme Reach,7K010027,GABRIEL STORE,Sari Sari Store,upper acharon,"Calumpang,126303033",GENERAL SANTOS CITY (DADIANGAS),SOUTH COTABATO,9 S Mindanao,125.1413117,6.071535,1.6,101 - 500,No,186
Extreme Reach,7K010034,No Trade Name,Sari Sari Store,"Purok Estrella, Birhen sa Kasilak","Calumpang,126303033",GENERAL SANTOS CITY (DADIANGAS),SOUTH COTABATO,9 S Mindanao,125.1470167,6.07041,1.5,"501 - 2,000",No,194
Extreme Reach,7K010074,LYKA STORE,Sari Sari Store,Ledesma street,"Calumpang,126303033",GENERAL SANTOS CITY (DADIANGAS),SOUTH COTABATO,9 S Mindanao,125.143605,6.071181667,1.5,"501 - 2,000",No,185
Extreme Reach,7K015644,EMMA STORE,Sari Sari Store,Quilantang Brgy. Calumpang,"Calumpang,126303033",GENERAL SANTOS CITY (DADIANGAS),SOUTH COTABATO,9 S Mindanao,125.1421767,6.091521667,1.6,101 - 500,No,193
Extreme Reach,7K015448,TAYONG STORE,Sari Sari Store,QUILANTANG,"Calumpang,126303033",GENERAL SANTOS CITY (DADIANGAS),SOUTH COTABATO,9 S Mindanao,125.1447183,6.090978333,1.3,"501 - 2,000",No,193
Extreme Reach,7K017213,MAJADAS STORE,Sari Sari Store,,"Calumpang,126303033",GENERAL SANTOS CITY (DADIANGAS),SOUTH COTABATO,9 S Mindanao,125.1367967,6.068416667,1.3,"501 - 2,000",No,187
Extreme Reach,7K015649,No Trade Name,Sari Sari Store,Purok Crisostomo zone 7 Brgy. Calumpang,"Calumpang,126303033",GENERAL SANTOS CITY (DADIANGAS),SOUTH COTABATO,9 S Mindanao,125.1428983,6.08787,1.6,"2001 - 3,500",No,192
Extreme Reach,7K015646,No Trade Name,Sari Sari Store,Quilantang Brgy. Calumpang,"Calumpang,126303033",GENERAL SANTOS CITY (DADIANGAS),SOUTH COTABATO,9 S Mindanao,125.1424433,6.090516667,1.5,101 - 500,No,193
Extreme Reach,7K010055,No Trade Name,Sari Sari Store,"Purok Estrella, Birhen sa Kasilak","Calumpang,126303033",GENERAL SANTOS CITY (DADIANGAS),SOUTH COTABATO,9 S Mindanao,125.1469883,6.071238333,1.6,101 - 500,No,194
Extreme Reach,7K010051,GONZAGA STORE,Sari Sari Store,"Purok Estrella, Birhen sa Kasilak","Calumpang,126303033",GENERAL SANTOS CITY (DADIANGAS),SOUTH COTABATO,9 S Mindanao,125.1485233,6.071141667,1.8,"501 - 2,000",No,194
Extreme Reach,7K016002,ALVARADO STORE,Sari Sari Store,Opring ville,"Calumpang,126303033",GENERAL SANTOS CITY (DADIANGAS),SOUTH COTABATO,9 S Mindanao,125.120885,6.083661667,1.8,"501 - 2,000",No,47
Extreme Reach,7K016000,PELIÃ‘O SARI2X STORE,Sari Sari Store,Lovebirds block 2,"Calumpang,126303033",GENERAL SANTOS CITY (DADIANGAS),SOUTH COTABATO,9 S Mindanao,125.1211417,6.083796667,1.4,"501 - 2,000",No,47
Extreme Reach,7K015982,REN-MEL STORE,Sari Sari Store,ST. PETER AVE.,"Calumpang,126303033",GENERAL SANTOS CITY (DADIANGAS),SOUTH COTABATO,9 S Mindanao,125.1316867,6.075826667,1.7,"501 - 2,000",No,48
Extreme Reach,7K015979,AILYN STORE,Sari Sari Store,Fernandez,"Calumpang,126303033",GENERAL SANTOS CITY (DADIANGAS),SOUTH COTABATO,9 S Mindanao,125.131675,6.076446667,1.6,"501 - 2,000",No,48
Extreme Reach,7K016864,No Trade Name,Sari Sari Store,Purok Rovalgon,"Calumpang,126303033",GENERAL SANTOS CITY (DADIANGAS),SOUTH COTABATO,9 S Mindanao,125.1360683,6.092855,1.5,"501 - 2,000",No,180
Extreme Reach,7K015468,CONDE STORE,Sari Sari Store,ROVALGON,"Calumpang,126303033",GENERAL SANTOS CITY (DADIANGAS),SOUTH COTABATO,9 S Mindanao,125.137845,6.093023333,1.7,"501 - 2,000",No,180
Extreme Reach,7K016757,No Trade Name,Sari Sari Store,Purok Stella Maris brgy calumpang,"Calumpang,126303033",GENERAL SANTOS CITY (DADIANGAS),SOUTH COTABATO,9 S Mindanao,125.136615,6.068046667,1.5,101 - 500,No,187
Extreme Reach,7K016741,ARCALA STORE,Sari Sari Store,Rovalgon brgy calumpang,"Calumpang,126303033",GENERAL SANTOS CITY (DADIANGAS),SOUTH COTABATO,9 S Mindanao,125.1357817,6.093116667,1.6,101 - 500,No,180
Extreme Reach,7K016730,VILLAMOR STORE,Sari Sari Store,Quilantang brgy calumpang,"Calumpang,126303033",GENERAL SANTOS CITY (DADIANGAS),SOUTH COTABATO,9 S Mindanao,125.1373867,6.09052,1.6,101 - 500,No,180
Extreme Reach,7K016719,HIMBING STORE,Sari Sari Store,Quilantang brgy calumpang,"Calumpang,126303033",GENERAL SANTOS CITY (DADIANGAS),SOUTH COTABATO,9 S Mindanao,125.1388717,6.091423333,1.7,101 - 500,No,180
Extreme Reach,7K016714,No Trade Name,Sari Sari Store,Quilantang brgy calumpang,"Calumpang,126303033",GENERAL SANTOS CITY (DADIANGAS),SOUTH COTABATO,9 S Mindanao,125.1392517,6.092528333,1.7,101 - 500,No,180
Extreme Reach,7K016708,JO & LI STORE,Sari Sari Store,South Cotabato Saranggani Road brgy calumpang,"Calumpang,126303033",GENERAL SANTOS CITY (DADIANGAS),SOUTH COTABATO,9 S Mindanao,125.1450283,6.075026667,1.7,"3,501 And Up",No,34
Extreme Reach,7K016706,B&B SARI SARI STORE,Sari Sari Store,Filipino American Friendship road brgy calumpang,"Calumpang,126303033",GENERAL SANTOS CITY (DADIANGAS),SOUTH COTABATO,9 S Mindanao,125.14296,6.066998333,1.8,"3,501 And Up",No,184
Extreme Reach,7K016409,No Trade Name,Sari Sari Store,Upper puting bato,"Calumpang,126303033",GENERAL SANTOS CITY (DADIANGAS),SOUTH COTABATO,9 S Mindanao,125.15083,6.088905,1.6,"501 - 2,000",No,188
Extreme Reach,7K016374,No Trade Name,Sari Sari Store,Purok Vetetans malvar street brgy calumpang,"Calumpang,126303033",GENERAL SANTOS CITY (DADIANGAS),SOUTH COTABATO,9 S Mindanao,125.144455,6.080553333,1.8,101 - 500,No,190
Extreme Reach,7K016371,No Trade Name,Sari Sari Store,Purok Vetetans malvar street brgy calumpang,"Calumpang,126303033",GENERAL SANTOS CITY (DADIANGAS),SOUTH COTABATO,9 S Mindanao,125.1439433,6.080571667,1.7,101 - 500,No,190
Extreme Reach,7K016367,No Trade Name,Sari Sari Store,Jurassic brgy calumpang,"Calumpang,126303033",GENERAL SANTOS CITY (DADIANGAS),SOUTH COTABATO,9 S Mindanao,125.1423717,6.08508,1.9,"501 - 2,000",No,192
Extreme Reach,7K016364,No Trade Name,Sari Sari Store,Crisostomo village brgy calumpang,"Calumpang,126303033",GENERAL SANTOS CITY (DADIANGAS),SOUTH COTABATO,9 S Mindanao,125.1437417,6.084816667,1.6,101 - 500,No,192
Extreme Reach,7K016358,No Trade Name,Sari Sari Store,Upper puting Bato,"Calumpang,126303033",GENERAL SANTOS CITY (DADIANGAS),SOUTH COTABATO,9 S Mindanao,125.149005,6.089081667,1.9,"501 - 2,000",No,189
Extreme Reach,7K016272,No Trade Name,Sari Sari Store,Upper puting Bato,"Calumpang,126303033",GENERAL SANTOS CITY (DADIANGAS),SOUTH COTABATO,9 S Mindanao,125.1490683,6.088841667,1.8,"501 - 2,000",No,189
Extreme Reach,7K016256,No Trade Name,Sari Sari Store,Saranggani Rd,"Calumpang,126303033",GENERAL SANTOS CITY (DADIANGAS),SOUTH COTABATO,9 S Mindanao,125.1509317,6.088921667,1.7,101 - 500,No,188
Extreme Reach,7K010016,MAMA STORE,Sari Sari Store,Purok Lower Acharon,"Calumpang,126303033",GENERAL SANTOS CITY (DADIANGAS),SOUTH COTABATO,9 S Mindanao,125.1430067,6.07169,1.5,"501 - 2,000",No,185
Extreme Reach,7K013217,No Trade Name,Sari Sari Store,Purok placida,"Calumpang,126303033",GENERAL SANTOS CITY (DADIANGAS),SOUTH COTABATO,9 S Mindanao,125.1243517,6.085485,1.7,"501 - 2,000",No,30
Extreme Reach,7K013173,ANGEL-AR MINI GROCERY,Sari Sari Store,Lower Puting Bato RDX,"Calumpang,126303033",GENERAL SANTOS CITY (DADIANGAS),SOUTH COTABATO,9 S Mindanao,125.1519983,6.087566667,1.6,101 - 500,No,188
Extreme Reach,7K015639,No Trade Name,Sari Sari Store,Quilantang Brgy. Calumpang,"Calumpang,126303033",GENERAL SANTOS CITY (DADIANGAS),SOUTH COTABATO,9 S Mindanao,125.1424667,6.091246667,1.6,101 - 500,No,193
Extreme Reach,7K015632,No Trade Name,Sari Sari Store,Purok Crisostomo village zone 4 Brgy. Calumpang,"Calumpang,126303033",GENERAL SANTOS CITY (DADIANGAS),SOUTH COTABATO,9 S Mindanao,125.1446933,6.086313333,1.8,101 - 500,No,192
Extreme Reach,7K010043,No Trade Name,Sari Sari Store,"Purok Estrella, Birhen sa Kasilak","Calumpang,126303033",GENERAL SANTOS CITY (DADIANGAS),SOUTH COTABATO,9 S Mindanao,125.149515,6.07021,1.6,"501 - 2,000",No,194
Extreme Reach,7K010048,J. BITOON STORE,Sari Sari Store,"Purok Estrella, Birhen sa Kasilak","Calumpang,126303033",GENERAL SANTOS CITY (DADIANGAS),SOUTH COTABATO,9 S Mindanao,125.1490517,6.071078333,1.7,"501 - 2,000",No,194
Extreme Reach,7K010054,ZAFRA STORE,Sari Sari Store,"Purok Estrella, Birhen sa Kasilak","Calumpang,126303033",GENERAL SANTOS CITY (DADIANGAS),SOUTH COTABATO,9 S Mindanao,125.14742,6.071203333,1.7,101 - 500,No,194
Extreme Reach,7K015447,KATE'S STORE,Sari Sari Store,QUILANTANG,"Calumpang,126303033",GENERAL SANTOS CITY (DADIANGAS),SOUTH COTABATO,9 S Mindanao,125.1445117,6.091235,1.7,"501 - 2,000",No,193
Extreme Reach,7K015465,No Trade Name,Sari Sari Store,ROVALGON,"Calumpang,126303033",GENERAL SANTOS CITY (DADIANGAS),SOUTH COTABATO,9 S Mindanao,125.1382283,6.093035,1.8,"501 - 2,000",No,180
Extreme Reach,7K015637,No Trade Name,Sari Sari Store,Purok Crisostomo village zone 7 Brgy. Calumpang,"Calumpang,126303033",GENERAL SANTOS CITY (DADIANGAS),SOUTH COTABATO,9 S Mindanao,125.14216,6.086598333,1.6,"501 - 2,000",No,192
Extreme Reach,7K015631,No Trade Name,Sari Sari Store,Purok Crisostomo village Brgy. Calumpang,"Calumpang,126303033",GENERAL SANTOS CITY (DADIANGAS),SOUTH COTABATO,9 S Mindanao,125.144725,6.085896667,1.7,101 - 500,No,192
Extreme Reach,7K015638,KATRINA'S STORE,Sari Sari Store,Quilantang Brgy. Calumpang,"Calumpang,126303033",GENERAL SANTOS CITY (DADIANGAS),SOUTH COTABATO,9 S Mindanao,125.142445,6.090111667,1.6,"501 - 2,000",No,193
Extreme Reach,7K015452,SHIRU & YURI STORE,Sari Sari Store,QUILANTANG,"Calumpang,126303033",GENERAL SANTOS CITY (DADIANGAS),SOUTH COTABATO,9 S Mindanao,125.1439933,6.089846667,1.7,101 - 500,No,193
Extreme Reach,7K010026,JONEX STORE,Sari Sari Store,upper acharon,"Calumpang,126303033",GENERAL SANTOS CITY (DADIANGAS),SOUTH COTABATO,9 S Mindanao,125.1412483,6.071875,1.3,"3,501 And Up",No,186
Extreme Reach,7K017211,CASTILLO STORE,Sari Sari Store,,"Calumpang,126303033",GENERAL SANTOS CITY (DADIANGAS),SOUTH COTABATO,9 S Mindanao,125.149765,6.086071667,1.5,"501 - 2,000",No,189
Extreme Reach,7K013151,No Trade Name,Sari Sari Store,Lapu lapu st reformville,"Calumpang,126303033",GENERAL SANTOS CITY (DADIANGAS),SOUTH COTABATO,9 S Mindanao,125.12646,6.081618333,1.3,"501 - 2,000",No,47
Extreme Reach,7K013153,No Trade Name,Sari Sari Store,Japanese coi st reformville,"Calumpang,126303033",GENERAL SANTOS CITY (DADIANGAS),SOUTH COTABATO,9 S Mindanao,125.1275017,6.082,1.6,101 - 500,No,47
Extreme Reach,7K013262,No Trade Name,Sari Sari Store,Purok placida,"Calumpang,126303033",GENERAL SANTOS CITY (DADIANGAS),SOUTH COTABATO,9 S Mindanao,125.1264033,6.08572,1.3,"501 - 2,000",No,30
Extreme Reach,7K013193,MC JEFF STORE,Sari Sari Store,Lower Puting Bato,"Calumpang,126303033",GENERAL SANTOS CITY (DADIANGAS),SOUTH COTABATO,9 S Mindanao,125.152005,6.088876667,1.8,"501 - 2,000",No,188
Extreme Reach,7K013191,No Trade Name,Sari Sari Store,Lower Puting Bato,"Calumpang,126303033",GENERAL SANTOS CITY (DADIANGAS),SOUTH COTABATO,9 S Mindanao,125.1527717,6.089211667,1.8,101 - 500,No,188
Extreme Reach,7K013194,Jun & Juliet Store,Sari Sari Store,Lower Puting Bato,"Calumpang,126303033",GENERAL SANTOS CITY (DADIANGAS),SOUTH COTABATO,9 S Mindanao,125.15186,6.088828333,1.9,101 - 500,No,188
Extreme Reach,7K015449,JESRILL'S STORE,Sari Sari Store,QUILANTANG,"Calumpang,126303033",GENERAL SANTOS CITY (DADIANGAS),SOUTH COTABATO,9 S Mindanao,125.14452,6.090381667,1.4,"501 - 2,000",No,193
Extreme Reach,7K010019,No Trade Name,Sari Sari Store,Acacia street upper acharon,"Calumpang,126303033",GENERAL SANTOS CITY (DADIANGAS),SOUTH COTABATO,9 S Mindanao,125.14231,6.071655,1.6,"501 - 2,000",No,185
Extreme Reach,7K010014,ARMER STORE,Sari Sari Store,Purok Lower Acharon,"Calumpang,126303033",GENERAL SANTOS CITY (DADIANGAS),SOUTH COTABATO,9 S Mindanao,125.1429433,6.07244,1.7,"501 - 2,000",No,185
Extreme Reach,7K010052,PAGURAY STORE,Sari Sari Store,"Purok Estrella, Birhen sa Kasilak","Calumpang,126303033",GENERAL SANTOS CITY (DADIANGAS),SOUTH COTABATO,9 S Mindanao,125.147675,6.071131667,1.8,101 - 500,No,194
Extreme Reach,7K010053,METOY STORE,Sari Sari Store,"Purok Estrella, Birhen sa Kasilak","Calumpang,126303033",GENERAL SANTOS CITY (DADIANGAS),SOUTH COTABATO,9 S Mindanao,125.14756,6.071146667,1.5,101 - 500,No,194
Extreme Reach,7K010022,MARLYN STORE,Sari Sari Store,upper acharon,"Calumpang,126303033",GENERAL SANTOS CITY (DADIANGAS),SOUTH COTABATO,9 S Mindanao,125.142125,6.07082,1.5,"501 - 2,000",No,185
Extreme Reach,7K010009,CAGAS STORE,Sari Sari Store,Purok Lower Acharon,"Calumpang,126303033",GENERAL SANTOS CITY (DADIANGAS),SOUTH COTABATO,9 S Mindanao,125.1434367,6.071946667,1.6,"2001 - 3,500",No,185
Extreme Reach,7K013239,No Trade Name,Sari Sari Store,Goldfish street,"Calumpang,126303033",GENERAL SANTOS CITY (DADIANGAS),SOUTH COTABATO,9 S Mindanao,125.1270983,6.085066667,1.5,"501 - 2,000",No,30
Extreme Reach,7K013199,No Trade Name,Sari Sari Store,Lower Puting Bato,"Calumpang,126303033",GENERAL SANTOS CITY (DADIANGAS),SOUTH COTABATO,9 S Mindanao,125.151905,6.088245,1.8,"501 - 2,000",No,188
Extreme Reach,7K013226,No Trade Name,Sari Sari Store,Lapu-lapu street,"Calumpang,126303033",GENERAL SANTOS CITY (DADIANGAS),SOUTH COTABATO,9 S Mindanao,125.1267983,6.08169,1.7,101 - 500,No,47
Extreme Reach,7K010081,No Trade Name,Sari Sari Store,Lower acharon,"Calumpang,126303033",GENERAL SANTOS CITY (DADIANGAS),SOUTH COTABATO,9 S Mindanao,125.14344,6.071963333,1.6,"501 - 2,000",No,185
Extreme Reach,7K010021,No Trade Name,Sari Sari Store,upper acharon,"Calumpang,126303033",GENERAL SANTOS CITY (DADIANGAS),SOUTH COTABATO,9 S Mindanao,125.1421383,6.071435,1.5,"501 - 2,000",No,185
Extreme Reach,7K015647,No Trade Name,Sari Sari Store,Quilantang Brgy. Calumpang,"Calumpang,126303033",GENERAL SANTOS CITY (DADIANGAS),SOUTH COTABATO,9 S Mindanao,125.1423333,6.089653333,1.5,101 - 500,No,193
Extreme Reach,7K013203,No Trade Name,Sari Sari Store,Purok reformville,"Calumpang,126303033",GENERAL SANTOS CITY (DADIANGAS),SOUTH COTABATO,9 S Mindanao,125.127085,6.0869,1.6,"501 - 2,000",No,30
Extreme Reach,7K013195,Christelle Store,Sari Sari Store,Lower Puting Bato,"Calumpang,126303033",GENERAL SANTOS CITY (DADIANGAS),SOUTH COTABATO,9 S Mindanao,125.15183,6.088855,1.6,"501 - 2,000",No,188
Extreme Reach,7K017212,No Trade Name,Sari Sari Store,,"Calumpang,126303033",GENERAL SANTOS CITY (DADIANGAS),SOUTH COTABATO,9 S Mindanao,125.13669,6.068453333,1.4,"501 - 2,000",No,187
Extreme Reach,7K013187,No Trade Name,Sari Sari Store,Lower Puting Bato,"Calumpang,126303033",GENERAL SANTOS CITY (DADIANGAS),SOUTH COTABATO,9 S Mindanao,125.1531617,6.088348333,1.9,101 - 500,No,188
Extreme Reach,7K013188,No Trade Name,Sari Sari Store,Lower Puting Bato,"Calumpang,126303033",GENERAL SANTOS CITY (DADIANGAS),SOUTH COTABATO,9 S Mindanao,125.1525217,6.088965,2.1,101 - 500,No,188
Extreme Reach,7K013208,DEMETERIO STORE,Sari Sari Store,Purok placida,"Calumpang,126303033",GENERAL SANTOS CITY (DADIANGAS),SOUTH COTABATO,9 S Mindanao,125.1247517,6.085763333,1.5,"501 - 2,000",No,30
Extreme Reach,7K014396,No Trade Name,Sari Sari Store,Christian Village,"Calumpang,126303033",GENERAL SANTOS CITY (DADIANGAS),SOUTH COTABATO,9 S Mindanao,125.1476467,6.078133333,1.5,101 - 500,No,191
Extreme Reach,7K013172,PELEGRINO STORE,Sari Sari Store,Lower Puting Bato RDX,"Calumpang,126303033",GENERAL SANTOS CITY (DADIANGAS),SOUTH COTABATO,9 S Mindanao,125.151925,6.08743,1.8,"2001 - 3,500",No,188
Extreme Reach,7K013167,NENENG ROSENTO SARI SARI STORE,Sari Sari Store,Aruana st.reformville,"Calumpang,126303033",GENERAL SANTOS CITY (DADIANGAS),SOUTH COTABATO,9 S Mindanao,125.1278867,6.085741667,1.4,"2001 - 3,500",No,30
Extreme Reach,7K013154,No Trade Name,Sari Sari Store,Japanese coi st reformville,"Calumpang,126303033",GENERAL SANTOS CITY (DADIANGAS),SOUTH COTABATO,9 S Mindanao,125.1277067,6.081983333,1.5,"501 - 2,000",No,47
Extreme Reach,7K011865,No Trade Name,Sari Sari Store,Purok san miguel,"Calumpang,126303033",GENERAL SANTOS CITY (DADIANGAS),SOUTH COTABATO,9 S Mindanao,125.1441917,6.078065,1.5,"501 - 2,000",No,190
Extreme Reach,7K013190,No Trade Name,Sari Sari Store,Lower Puting Bato,"Calumpang,126303033",GENERAL SANTOS CITY (DADIANGAS),SOUTH COTABATO,9 S Mindanao,125.1525933,6.089251667,1.9,101 - 500,No,188
Extreme Reach,7K013288,PAULO EZEKIEL STORE,Sari Sari Store,Purok placida,"Calumpang,126303033",GENERAL SANTOS CITY (DADIANGAS),SOUTH COTABATO,9 S Mindanao,125.123925,6.085741667,1.3,"501 - 2,000",No,30
Extreme Reach,7K013211,No Trade Name,Sari Sari Store,Purok placida,"Calumpang,126303033",GENERAL SANTOS CITY (DADIANGAS),SOUTH COTABATO,9 S Mindanao,125.124285,6.086421667,1.3,101 - 500,No,30
Extreme Reach,7K013198,No Trade Name,Sari Sari Store,Lower Puting Bato,"Calumpang,126303033",GENERAL SANTOS CITY (DADIANGAS),SOUTH COTABATO,9 S Mindanao,125.1519333,6.088288333,1.7,"501 - 2,000",No,188
Extreme Reach,7K013189,No Trade Name,Sari Sari Store,Lower Puting Bato,"Calumpang,126303033",GENERAL SANTOS CITY (DADIANGAS),SOUTH COTABATO,9 S Mindanao,125.15257,6.089158333,2.2,101 - 500,No,188
Extreme Reach,7K013157,No Trade Name,Sari Sari Store,Rainbow Runner st reformville,"Calumpang,126303033",GENERAL SANTOS CITY (DADIANGAS),SOUTH COTABATO,9 S Mindanao,125.1271067,6.082853333,1.6,101 - 500,No,47
Extreme Reach,7K013261,ROSVIN MINI STORE,Sari Sari Store,Carmenville,"Calumpang,126303033",GENERAL SANTOS CITY (DADIANGAS),SOUTH COTABATO,9 S Mindanao,125.1264667,6.086335,1.3,"501 - 2,000",No,30
Extreme Reach,7K013158,No Trade Name,Sari Sari Store,Timbongan st reformville,"Calumpang,126303033",GENERAL SANTOS CITY (DADIANGAS),SOUTH COTABATO,9 S Mindanao,125.1276267,6.083176667,1.5,"501 - 2,000",No,47
Extreme Reach,7K013219,No Trade Name,Sari Sari Store,Purok placida,"Calumpang,126303033",GENERAL SANTOS CITY (DADIANGAS),SOUTH COTABATO,9 S Mindanao,125.1255933,6.085358333,1.8,101 - 500,No,30
Extreme Reach,7K013197,No Trade Name,Sari Sari Store,Lower Puting Bato,"Calumpang,126303033",GENERAL SANTOS CITY (DADIANGAS),SOUTH COTABATO,9 S Mindanao,125.15195,6.088338333,1.8,101 - 500,No,188
Extreme Reach,7K013196,BALAYDO STORE,Sari Sari Store,Lower Puting Bato,"Calumpang,126303033",GENERAL SANTOS CITY (DADIANGAS),SOUTH COTABATO,9 S Mindanao,125.15192,6.08856,1.7,"501 - 2,000",No,188
Extreme Reach,7K014410,No Trade Name,Sari Sari Store,Christian Village,"Calumpang,126303033",GENERAL SANTOS CITY (DADIANGAS),SOUTH COTABATO,9 S Mindanao,125.148385,6.077551667,1.7,"501 - 2,000",No,191
Extreme Reach,7K013152,No Trade Name,Sari Sari Store,Lapu lapu st reformville,"Calumpang,126303033",GENERAL SANTOS CITY (DADIANGAS),SOUTH COTABATO,9 S Mindanao,125.127195,6.081615,1.5,"501 - 2,000",No,47
Extreme Reach,7K014399,Galoran Store,Sari Sari Store,Christian Village,"Calumpang,126303033",GENERAL SANTOS CITY (DADIANGAS),SOUTH COTABATO,9 S Mindanao,125.1477767,6.07778,1.5,101 - 500,No,191
Extreme Reach,7K013160,RED STORE,Sari Sari Store,Tangigui st reformville,"Calumpang,126303033",GENERAL SANTOS CITY (DADIANGAS),SOUTH COTABATO,9 S Mindanao,125.12706,6.083456667,1.5,"501 - 2,000",No,47
Extreme Reach,7K013178,TOLITS STORE / WARLITA STORE,Sari Sari Store,Lower Puting Bato RDX,"Calumpang,126303033",GENERAL SANTOS CITY (DADIANGAS),SOUTH COTABATO,9 S Mindanao,125.1518583,6.088771667,1.9,"501 - 2,000",No,188
Extreme Reach,7K013181,No Trade Name,Sari Sari Store,Lower Puting Bato,"Calumpang,126303033",GENERAL SANTOS CITY (DADIANGAS),SOUTH COTABATO,9 S Mindanao,125.15242,6.088913333,1.4,101 - 500,No,188
Extreme Reach,7K013214,SOMOSA STORE,Sari Sari Store,Purok placida,"Calumpang,126303033",GENERAL SANTOS CITY (DADIANGAS),SOUTH COTABATO,9 S Mindanao,125.123685,6.08571,1.6,"501 - 2,000",No,30
Extreme Reach,7K017216,EDIBERTO LEONARDO STORE,Sari Sari Store,,"Calumpang,126303033",GENERAL SANTOS CITY (DADIANGAS),SOUTH COTABATO,9 S Mindanao,125.136985,6.068305,1.7,"501 - 2,000",No,187
Extreme Reach,7K013156,JR STORE,Sari Sari Store,Tambasakan st reformville,"Calumpang,126303033",GENERAL SANTOS CITY (DADIANGAS),SOUTH COTABATO,9 S Mindanao,125.126885,6.082526667,1.5,101 - 500,No,47
Extreme Reach,7K013183,QUIDATO STORE,Sari Sari Store,Lower Puting Bato,"Calumpang,126303033",GENERAL SANTOS CITY (DADIANGAS),SOUTH COTABATO,9 S Mindanao,125.1531033,6.088481667,1.9,"501 - 2,000",No,188
Extreme Reach,7K013212,No Trade Name,Sari Sari Store,Purok placida,"Calumpang,126303033",GENERAL SANTOS CITY (DADIANGAS),SOUTH COTABATO,9 S Mindanao,125.1247433,6.085816667,1.4,"501 - 2,000",No,30
Extreme Reach,7K014419,No Trade Name,Sari Sari Store,Christian Village,"Calumpang,126303033",GENERAL SANTOS CITY (DADIANGAS),SOUTH COTABATO,9 S Mindanao,125.1495483,6.078208333,1.8,"501 - 2,000",No,191
Extreme Reach,7K013850,No Trade Name,Sari Sari Store,"Purok Felomina, San Francisco St.","Calumpang,126303033",GENERAL SANTOS CITY (DADIANGAS),SOUTH COTABATO,9 S Mindanao,125.1484667,6.06878,1.7,"501 - 2,000",No,194
Extreme Reach,7K012347,GAGA STORE,Sari Sari Store,Rosal st. Cahilsot village,"Calumpang,126303033",GENERAL SANTOS CITY (DADIANGAS),SOUTH COTABATO,9 S Mindanao,125.1395267,6.080525,1.7,"501 - 2,000",No,2
Extreme Reach,7K014406,FRANCISCO STORE,Sari Sari Store,Christian Village,"Calumpang,126303033",GENERAL SANTOS CITY (DADIANGAS),SOUTH COTABATO,9 S Mindanao,125.148325,6.077951667,1.3,"2001 - 3,500",No,191
Extreme Reach,7K014397,BongBing Store,Sari Sari Store,Christian Village,"Calumpang,126303033",GENERAL SANTOS CITY (DADIANGAS),SOUTH COTABATO,9 S Mindanao,125.1476917,6.078163333,1.5,"2001 - 3,500",No,191
Extreme Reach,7K013872,No Trade Name,Sari Sari Store,Greenville,"Calumpang,126303033",GENERAL SANTOS CITY (DADIANGAS),SOUTH COTABATO,9 S Mindanao,125.13112,6.090453333,1.8,101 - 500,No,182
Extreme Reach,7K013890,No Trade Name,Sari Sari Store,Upper Greenville,"Calumpang,126303033",GENERAL SANTOS CITY (DADIANGAS),SOUTH COTABATO,9 S Mindanao,125.1302117,6.09102,1.6,101 - 500,No,182
Extreme Reach,7K010939,No Trade Name,Sari Sari Store,"Lower Acharon,","Calumpang,126303033",GENERAL SANTOS CITY (DADIANGAS),SOUTH COTABATO,9 S Mindanao,125.1437883,6.07065,1.4,"501 - 2,000",No,185
Extreme Reach,7K013852,No Trade Name,Sari Sari Store,"Purok Felomina, Duranta St.","Calumpang,126303033",GENERAL SANTOS CITY (DADIANGAS),SOUTH COTABATO,9 S Mindanao,125.148215,6.068303333,1.4,101 - 500,No,194
Extreme Reach,7K013849,No Trade Name,Sari Sari Store,"Purok Felomina, Sampaguita St.","Calumpang,126303033",GENERAL SANTOS CITY (DADIANGAS),SOUTH COTABATO,9 S Mindanao,125.1484917,6.068438333,1.4,101 - 500,No,194
Extreme Reach,7K013911,No Trade Name,Sari Sari Store,Upper Greenville,"Calumpang,126303033",GENERAL SANTOS CITY (DADIANGAS),SOUTH COTABATO,9 S Mindanao,125.1320883,6.091183333,1.9,"501 - 2,000",No,182
Extreme Reach,7K013891,No Trade Name,Sari Sari Store,Upper Greenville,"Calumpang,126303033",GENERAL SANTOS CITY (DADIANGAS),SOUTH COTABATO,9 S Mindanao,125.1302483,6.09033,1.5,"3,501 And Up",No,182
Extreme Reach,7K013886,No Trade Name,Sari Sari Store,Upper Greenville,"Calumpang,126303033",GENERAL SANTOS CITY (DADIANGAS),SOUTH COTABATO,9 S Mindanao,125.1310117,6.090846667,1.9,101 - 500,No,182
Extreme Reach,7K013877,No Trade Name,Sari Sari Store,Upper Greenville,"Calumpang,126303033",GENERAL SANTOS CITY (DADIANGAS),SOUTH COTABATO,9 S Mindanao,125.1320783,6.09156,1.7,"2001 - 3,500",No,182
Extreme Reach,7K013863,No Trade Name,Sari Sari Store,"Purok Felomina, Gumban St.","Calumpang,126303033",GENERAL SANTOS CITY (DADIANGAS),SOUTH COTABATO,9 S Mindanao,125.14908,6.06824,1.5,"501 - 2,000",No,194
Extreme Reach,7K013856,No Trade Name,Sari Sari Store,"Purok Felomina, Rosas St.","Calumpang,126303033",GENERAL SANTOS CITY (DADIANGAS),SOUTH COTABATO,9 S Mindanao,125.1479533,6.068483333,1.5,101 - 500,No,194
Extreme Reach,7K013854,No Trade Name,Sari Sari Store,"Purok Felomina, Duranta St.","Calumpang,126303033",GENERAL SANTOS CITY (DADIANGAS),SOUTH COTABATO,9 S Mindanao,125.1479633,6.068301667,1.5,101 - 500,No,194
Extreme Reach,7K013847,No Trade Name,Sari Sari Store,"Purok Felomina, cor. Sampaguita & San Francisco Sts.","Calumpang,126303033",GENERAL SANTOS CITY (DADIANGAS),SOUTH COTABATO,9 S Mindanao,125.148495,6.068825,1.1,"501 - 2,000",No,194
Extreme Reach,7K013867,CRISTOBAL SARI 2x STORE,Sari Sari Store,Greenville,"Calumpang,126303033",GENERAL SANTOS CITY (DADIANGAS),SOUTH COTABATO,9 S Mindanao,125.1320533,6.084503333,1.5,101 - 500,No,183
Extreme Reach,7K013880,No Trade Name,Sari Sari Store,Upper Greenville,"Calumpang,126303033",GENERAL SANTOS CITY (DADIANGAS),SOUTH COTABATO,9 S Mindanao,125.1334533,6.092086667,1.5,"501 - 2,000",No,182
Extreme Reach,7K013893,No Trade Name,Sari Sari Store,Lily valley,"Calumpang,126303033",GENERAL SANTOS CITY (DADIANGAS),SOUTH COTABATO,9 S Mindanao,125.131295,6.088481667,1.6,"501 - 2,000",No,182
Extreme Reach,7K013897,No Trade Name,Sari Sari Store,Greenville,"Calumpang,126303033",GENERAL SANTOS CITY (DADIANGAS),SOUTH COTABATO,9 S Mindanao,125.1319167,6.089208333,1.4,"501 - 2,000",No,182
Extreme Reach,7K013881,No Trade Name,Sari Sari Store,Upper Greenville,"Calumpang,126303033",GENERAL SANTOS CITY (DADIANGAS),SOUTH COTABATO,9 S Mindanao,125.1347,6.092868333,1.5,101 - 500,No,180
Extreme Reach,7K013868,KING STORE,Sari Sari Store,Greenville,"Calumpang,126303033",GENERAL SANTOS CITY (DADIANGAS),SOUTH COTABATO,9 S Mindanao,125.1324767,6.08583,1.6,101 - 500,No,183
Extreme Reach,7K014409,No Trade Name,Sari Sari Store,Christian Village,"Calumpang,126303033",GENERAL SANTOS CITY (DADIANGAS),SOUTH COTABATO,9 S Mindanao,125.148485,6.077736667,1.4,"501 - 2,000",No,191
Extreme Reach,7K014411,No Trade Name,Sari Sari Store,Christian Village,"Calumpang,126303033",GENERAL SANTOS CITY (DADIANGAS),SOUTH COTABATO,9 S Mindanao,125.1485167,6.077568333,1.7,"2001 - 3,500",No,191
Extreme Reach,7K013930,No Trade Name,Sari Sari Store,Lily valley,"Calumpang,126303033",GENERAL SANTOS CITY (DADIANGAS),SOUTH COTABATO,9 S Mindanao,125.1312,6.08874,1.5,"501 - 2,000",No,182
Extreme Reach,7K014412,No Trade Name,Sari Sari Store,Christian Village,"Calumpang,126303033",GENERAL SANTOS CITY (DADIANGAS),SOUTH COTABATO,9 S Mindanao,125.14859,6.077683333,1.7,"501 - 2,000",No,191
Extreme Reach,7K014417,No Trade Name,Sari Sari Store,Christian Village,"Calumpang,126303033",GENERAL SANTOS CITY (DADIANGAS),SOUTH COTABATO,9 S Mindanao,125.1489967,6.077745,1.7,"501 - 2,000",No,191
Extreme Reach,7K013896,No Trade Name,Sari Sari Store,Greenville,"Calumpang,126303033",GENERAL SANTOS CITY (DADIANGAS),SOUTH COTABATO,9 S Mindanao,125.1318867,6.088381667,1.6,"501 - 2,000",No,182
Extreme Reach,7K014353,No Trade Name,Sari Sari Store,,"Calumpang,126303033",GENERAL SANTOS CITY (DADIANGAS),SOUTH COTABATO,9 S Mindanao,125.131955,6.081356667,1.3,"501 - 2,000",No,183
Extreme Reach,7K012822,ROCHELLE STORE,Sari Sari Store,Santan street cahilsot village,"Calumpang,126303033",GENERAL SANTOS CITY (DADIANGAS),SOUTH COTABATO,9 S Mindanao,125.1407133,6.080523333,1.2,"501 - 2,000",No,2
Extreme Reach,7K013917,BLESSICA STORE,Sari Sari Store,Greenville.,"Calumpang,126303033",GENERAL SANTOS CITY (DADIANGAS),SOUTH COTABATO,9 S Mindanao,125.132265,6.086791667,1.6,"501 - 2,000",No,183
Extreme Reach,7K013907,No Trade Name,Sari Sari Store,Upper Greenville,"Calumpang,126303033",GENERAL SANTOS CITY (DADIANGAS),SOUTH COTABATO,9 S Mindanao,125.1312617,6.09061,1.4,"501 - 2,000",No,182
Extreme Reach,7K013876,No Trade Name,Sari Sari Store,Upper Greenville,"Calumpang,126303033",GENERAL SANTOS CITY (DADIANGAS),SOUTH COTABATO,9 S Mindanao,125.13209,6.090795,1.6,"501 - 2,000",No,182
Extreme Reach,7K013859,No Trade Name,Sari Sari Store,"Purok Felomina, San Francisco St.","Calumpang,126303033",GENERAL SANTOS CITY (DADIANGAS),SOUTH COTABATO,9 S Mindanao,125.147625,6.068813333,1.8,101 - 500,No,194
Extreme Reach,7K013846,JOJO TRANQUIRIDO,Sari Sari Store,"Purok Felomina, cor. Dahlia & San Francisco Sts.","Calumpang,126303033",GENERAL SANTOS CITY (DADIANGAS),SOUTH COTABATO,9 S Mindanao,125.1487383,6.068778333,1.3,"3,501 And Up",No,194
Extreme Reach,7K013908,No Trade Name,Sari Sari Store,Upper Greenville,"Calumpang,126303033",GENERAL SANTOS CITY (DADIANGAS),SOUTH COTABATO,9 S Mindanao,125.131865,6.090988333,1.4,101 - 500,No,182
Extreme Reach,7K013894,No Trade Name,Sari Sari Store,Greenville.,"Calumpang,126303033",GENERAL SANTOS CITY (DADIANGAS),SOUTH COTABATO,9 S Mindanao,125.1316867,6.088258333,1.7,"501 - 2,000",No,182
Extreme Reach,7K014134,ALMIRANTE STORE,Sari Sari Store,Henedina Street Carmenville,"Calumpang,126303033",GENERAL SANTOS CITY (DADIANGAS),SOUTH COTABATO,9 S Mindanao,125.1345967,6.078801667,1.3,"501 - 2,000",No,48
Extreme Reach,7K014122,No Trade Name,Sari Sari Store,Lily valley,"Calumpang,126303033",GENERAL SANTOS CITY (DADIANGAS),SOUTH COTABATO,9 S Mindanao,125.131385,6.086108333,1.4,101 - 500,No,183
Extreme Reach,7K013845,No Trade Name,Sari Sari Store,"Purok Felomina, Dahlia St.","Calumpang,126303033",GENERAL SANTOS CITY (DADIANGAS),SOUTH COTABATO,9 S Mindanao,125.1487183,6.068736667,1.5,"501 - 2,000",No,194
Extreme Reach,7K013910,No Trade Name,Sari Sari Store,Upper Greenville,"Calumpang,126303033",GENERAL SANTOS CITY (DADIANGAS),SOUTH COTABATO,9 S Mindanao,125.131455,6.091098333,1.5,"501 - 2,000",No,182
Extreme Reach,7K013885,JASPIO STORE,Sari Sari Store,Upper Greenville,"Calumpang,126303033",GENERAL SANTOS CITY (DADIANGAS),SOUTH COTABATO,9 S Mindanao,125.1313167,6.091231667,1.8,"501 - 2,000",No,182
Extreme Reach,7K013857,No Trade Name,Sari Sari Store,"Purok Felomina, Rosas St.","Calumpang,126303033",GENERAL SANTOS CITY (DADIANGAS),SOUTH COTABATO,9 S Mindanao,125.1478883,6.068635,1.6,"501 - 2,000",No,194
Extreme Reach,7K013884,No Trade Name,Sari Sari Store,Upper Greenville,"Calumpang,126303033",GENERAL SANTOS CITY (DADIANGAS),SOUTH COTABATO,9 S Mindanao,125.13205,6.092143333,1.9,"2001 - 3,500",No,182
Extreme Reach,7K013889,MONTEJO STORE,Sari Sari Store,Upper Greenville,"Calumpang,126303033",GENERAL SANTOS CITY (DADIANGAS),SOUTH COTABATO,9 S Mindanao,125.1299667,6.091436667,1.7,"501 - 2,000",No,182
Extreme Reach,7K013895,No Trade Name,Sari Sari Store,Greenville.,"Calumpang,126303033",GENERAL SANTOS CITY (DADIANGAS),SOUTH COTABATO,9 S Mindanao,125.1324783,6.087116667,1.6,"501 - 2,000",No,183
Extreme Reach,7K013926,No Trade Name,Sari Sari Store,Upper greenville,"Calumpang,126303033",GENERAL SANTOS CITY (DADIANGAS),SOUTH COTABATO,9 S Mindanao,125.1312017,6.089566667,1.8,"501 - 2,000",No,182
Extreme Reach,7K014119,No Trade Name,Sari Sari Store,Lily valley,"Calumpang,126303033",GENERAL SANTOS CITY (DADIANGAS),SOUTH COTABATO,9 S Mindanao,125.1312517,6.088103333,1.8,"501 - 2,000",No,182
Extreme Reach,7K013851,No Trade Name,Sari Sari Store,Purok Felomina Yellow Bell St.,"Calumpang,126303033",GENERAL SANTOS CITY (DADIANGAS),SOUTH COTABATO,9 S Mindanao,125.1481717,6.068605,1.3,101 - 500,No,194
Extreme Reach,7K013853,No Trade Name,Sari Sari Store,"Purok Felomina, Duranta St.","Calumpang,126303033",GENERAL SANTOS CITY (DADIANGAS),SOUTH COTABATO,9 S Mindanao,125.148065,6.068278333,1.3,"501 - 2,000",No,194
Extreme Reach,7K013858,No Trade Name,Sari Sari Store,Purok Felomina St.,"Calumpang,126303033",GENERAL SANTOS CITY (DADIANGAS),SOUTH COTABATO,9 S Mindanao,125.147725,6.068691667,1.6,101 - 500,No,194
Extreme Reach,7K013862,No Trade Name,Sari Sari Store,"Purok Felomina, Duranta St.","Calumpang,126303033",GENERAL SANTOS CITY (DADIANGAS),SOUTH COTABATO,9 S Mindanao,125.1474183,6.068313333,1.4,"501 - 2,000",No,194
Extreme Reach,7K013874,No Trade Name,Sari Sari Store,Upper Greenville,"Calumpang,126303033",GENERAL SANTOS CITY (DADIANGAS),SOUTH COTABATO,9 S Mindanao,125.1319133,6.091053333,1.6,"501 - 2,000",No,182
Extreme Reach,7K013888,No Trade Name,Sari Sari Store,Upper Greenville,"Calumpang,126303033",GENERAL SANTOS CITY (DADIANGAS),SOUTH COTABATO,9 S Mindanao,125.1307783,6.090945,1.4,"501 - 2,000",No,182
Extreme Reach,7K013925,No Trade Name,Sari Sari Store,Upper greenville,"Calumpang,126303033",GENERAL SANTOS CITY (DADIANGAS),SOUTH COTABATO,9 S Mindanao,125.130275,6.090555,1.5,"501 - 2,000",No,182
Extreme Reach,7K010003,RONCHELL STORE,Sari Sari Store,Purok Lower Acharon,"Calumpang,126303033",GENERAL SANTOS CITY (DADIANGAS),SOUTH COTABATO,9 S Mindanao,125.1429,6.071345,1.6,"2001 - 3,500",No,185
Extreme Reach,7K010007,VV STORE,Sari Sari Store,Purok Lower Acharon,"Calumpang,126303033",GENERAL SANTOS CITY (DADIANGAS),SOUTH COTABATO,9 S Mindanao,125.143325,6.072321667,1.5,"501 - 2,000",No,185
Extreme Reach,7K010010,No Trade Name,Sari Sari Store,Purok Lower Acharon,"Calumpang,126303033",GENERAL SANTOS CITY (DADIANGAS),SOUTH COTABATO,9 S Mindanao,125.1439383,6.072516667,1.7,101 - 500,No,185
Extreme Reach,7K010011,BOGADOR STORE,Sari Sari Store,Purok Lower Acharon,"Calumpang,126303033",GENERAL SANTOS CITY (DADIANGAS),SOUTH COTABATO,9 S Mindanao,125.1439583,6.07296,1.9,"2001 - 3,500",No,34
Extreme Reach,7K010028,No Trade Name,Sari Sari Store,upper acharon,"Calumpang,126303033",GENERAL SANTOS CITY (DADIANGAS),SOUTH COTABATO,9 S Mindanao,125.1424933,6.070833333,1.7,"501 - 2,000",No,185
Extreme Reach,7K010029,No Trade Name,Sari Sari Store,Lower acharon,"Calumpang,126303033",GENERAL SANTOS CITY (DADIANGAS),SOUTH COTABATO,9 S Mindanao,125.143505,6.070755,1.5,"501 - 2,000",No,185
Extreme Reach,7K010042,No Trade Name,Sari Sari Store,"Purok Estrella, Birhen sa Kasilak","Calumpang,126303033",GENERAL SANTOS CITY (DADIANGAS),SOUTH COTABATO,9 S Mindanao,125.14941,6.070243333,1.6,101 - 500,No,194
Extreme Reach,7K010044,CASIPONG STORE,Sari Sari Store,"Purok Estrella, Birhen sa Kasilak","Calumpang,126303033",GENERAL SANTOS CITY (DADIANGAS),SOUTH COTABATO,9 S Mindanao,125.149655,6.070195,1.7,"501 - 2,000",No,194
Extreme Reach,7K010046,ATILANO STORE,Sari Sari Store,"Purok Estrella, Birhen sa Kasilak","Calumpang,126303033",GENERAL SANTOS CITY (DADIANGAS),SOUTH COTABATO,9 S Mindanao,125.1496883,6.070831667,1.6,"501 - 2,000",No,194
Extreme Reach,7K010047,JAZMINE STORE,Sari Sari Store,"Purok Estrella, Birhen sa Kasilak","Calumpang,126303033",GENERAL SANTOS CITY (DADIANGAS),SOUTH COTABATO,9 S Mindanao,125.1495033,6.071073333,1.7,"2001 - 3,500",No,194
Extreme Reach,7K010078,No Trade Name,Sari Sari Store,Maguindanao avenue,"Calumpang,126303033",GENERAL SANTOS CITY (DADIANGAS),SOUTH COTABATO,9 S Mindanao,125.1428933,6.071806667,1.7,"501 - 2,000",No,185
Extreme Reach,7K010080,No Trade Name,Sari Sari Store,Ledesma street,"Calumpang,126303033",GENERAL SANTOS CITY (DADIANGAS),SOUTH COTABATO,9 S Mindanao,125.1436233,6.072061667,1.7,"501 - 2,000",No,185
Extreme Reach,7K014150,No Trade Name,Sari Sari Store,Makar-Sarangani Highway,"Calumpang,126303033",GENERAL SANTOS CITY (DADIANGAS),SOUTH COTABATO,9 S Mindanao,125.1453767,6.07543,1.6,"501 - 2,000",No,34
Extreme Reach,7K014130,PEREZ STORE,Sari Sari Store,Greenville corner,"Calumpang,126303033",GENERAL SANTOS CITY (DADIANGAS),SOUTH COTABATO,9 S Mindanao,125.1323283,6.084371667,1.5,101 - 500,No,183
Extreme Reach,7K014155,BORGY STORE,Sari Sari Store,Christian Village,"Calumpang,126303033",GENERAL SANTOS CITY (DADIANGAS),SOUTH COTABATO,9 S Mindanao,125.1481367,6.078661667,1.5,101 - 500,No,191
Extreme Reach,7K014143,EJ STORE,Sari Sari Store,Makar-Sarangani Highway,"Calumpang,126303033",GENERAL SANTOS CITY (DADIANGAS),SOUTH COTABATO,9 S Mindanao,125.14449,6.073205,1.6,"501 - 2,000",No,34
Extreme Reach,7K013898,JANE STORE,Sari Sari Store,Greenville,"Calumpang,126303033",GENERAL SANTOS CITY (DADIANGAS),SOUTH COTABATO,9 S Mindanao,125.13117,6.089568333,1.7,"501 - 2,000",No,182
Extreme Reach,7K014142,MANAJERO STORE,Sari Sari Store,Makar-Sarangani Highway,"Calumpang,126303033",GENERAL SANTOS CITY (DADIANGAS),SOUTH COTABATO,9 S Mindanao,125.14446,6.073043333,1.3,"2001 - 3,500",No,34
Extreme Reach,7K014152,BING STORE,Sari Sari Store,Christian Village,"Calumpang,126303033",GENERAL SANTOS CITY (DADIANGAS),SOUTH COTABATO,9 S Mindanao,125.1475,6.078288333,1.6,"2001 - 3,500",No,191
Extreme Reach,7K013870,GIAN STORE,Sari Sari Store,Greenville,"Calumpang,126303033",GENERAL SANTOS CITY (DADIANGAS),SOUTH COTABATO,9 S Mindanao,125.1317567,6.088318333,1.7,"501 - 2,000",No,182
Extreme Reach,7K013883,No Trade Name,Sari Sari Store,Upper Greenville,"Calumpang,126303033",GENERAL SANTOS CITY (DADIANGAS),SOUTH COTABATO,9 S Mindanao,125.1323617,6.092466667,1.2,"501 - 2,000",No,182
Extreme Reach,7K013913,No Trade Name,Sari Sari Store,Upper Greenville,"Calumpang,126303033",GENERAL SANTOS CITY (DADIANGAS),SOUTH COTABATO,9 S Mindanao,125.13311,6.091941667,1.2,"501 - 2,000",No,182
Extreme Reach,7K014117,No Trade Name,Sari Sari Store,Lily valley,"Calumpang,126303033",GENERAL SANTOS CITY (DADIANGAS),SOUTH COTABATO,9 S Mindanao,125.1308733,6.088823333,1.4,101 - 500,No,182
Extreme Reach,7K013914,No Trade Name,Sari Sari Store,Upper Greenville,"Calumpang,126303033",GENERAL SANTOS CITY (DADIANGAS),SOUTH COTABATO,9 S Mindanao,125.1342067,6.092605,1.6,101 - 500,No,180
Extreme Reach,7K013929,No Trade Name,Sari Sari Store,Upper greenville,"Calumpang,126303033",GENERAL SANTOS CITY (DADIANGAS),SOUTH COTABATO,9 S Mindanao,125.1314617,6.088933333,1.5,"501 - 2,000",No,182
Extreme Reach,7K013871,MARY JANE STORE,Sari Sari Store,Greenville,"Calumpang,126303033",GENERAL SANTOS CITY (DADIANGAS),SOUTH COTABATO,9 S Mindanao,125.1319033,6.088635,1.7,"3,501 And Up",No,182
Extreme Reach,7K014128,PROCORATO STORE,Sari Sari Store,Greenville corner,"Calumpang,126303033",GENERAL SANTOS CITY (DADIANGAS),SOUTH COTABATO,9 S Mindanao,125.1320417,6.08433,1.6,"3,501 And Up",No,183
Extreme Reach,7K014120,No Trade Name,Sari Sari Store,Lily valley,"Calumpang,126303033",GENERAL SANTOS CITY (DADIANGAS),SOUTH COTABATO,9 S Mindanao,125.1315433,6.087788333,1.3,101 - 500,No,182
Extreme Reach,7K010621,No Trade Name,Sari Sari Store,Purok San Juan,"Calumpang,126303033",GENERAL SANTOS CITY (DADIANGAS),SOUTH COTABATO,9 S Mindanao,125.1475383,6.07166,1.4,"501 - 2,000",No,194
Extreme Reach,7K010015,LADON STORE,Sari Sari Store,Purok Lower Acharon,"Calumpang,126303033",GENERAL SANTOS CITY (DADIANGAS),SOUTH COTABATO,9 S Mindanao,125.1429933,6.072523333,1.5,"501 - 2,000",No,185
Extreme Reach,7K014110,BALORO,Sari Sari Store,Greenville.,"Calumpang,126303033",GENERAL SANTOS CITY (DADIANGAS),SOUTH COTABATO,9 S Mindanao,125.1320283,6.084565,1.7,101 - 500,No,183
Extreme Reach,7K014125,No Trade Name,Sari Sari Store,Lily valley,"Calumpang,126303033",GENERAL SANTOS CITY (DADIANGAS),SOUTH COTABATO,9 S Mindanao,125.1314717,6.084333333,1.6,"501 - 2,000",No,183
Extreme Reach,7K014131,CHERRY STORE,Sari Sari Store,Emillana Heights,"Calumpang,126303033",GENERAL SANTOS CITY (DADIANGAS),SOUTH COTABATO,9 S Mindanao,125.1317983,6.081746667,1.3,"501 - 2,000",No,183
Extreme Reach,7K014144,E.R. STORE,Sari Sari Store,Makar-Sarangani Highway,"Calumpang,126303033",GENERAL SANTOS CITY (DADIANGAS),SOUTH COTABATO,9 S Mindanao,125.1444417,6.073323333,1.4,"501 - 2,000",No,34
Extreme Reach,7K013843,No Trade Name,Sari Sari Store,"Purok Felomina, Dahlia St.","Calumpang,126303033",GENERAL SANTOS CITY (DADIANGAS),SOUTH COTABATO,9 S Mindanao,125.1487217,6.068313333,1.7,101 - 500,No,194
Extreme Reach,7K014113,No Trade Name,Sari Sari Store,Lily valley,"Calumpang,126303033",GENERAL SANTOS CITY (DADIANGAS),SOUTH COTABATO,9 S Mindanao,125.1318683,6.086818333,1.9,101 - 500,No,183
Extreme Reach,7K010873,ERLINDA STORE,Sari Sari Store,Malambu-on,"Calumpang,126303033",GENERAL SANTOS CITY (DADIANGAS),SOUTH COTABATO,9 S Mindanao,125.1381267,6.070843333,1.6,"501 - 2,000",No,186
Extreme Reach,7K012743,No Trade Name,Sari Sari Store,Purok Saeg Zone 3,"Calumpang,126303033",GENERAL SANTOS CITY (DADIANGAS),SOUTH COTABATO,9 S Mindanao,125.1542667,6.070411667,1.9,"501 - 2,000",No,195
Extreme Reach,7K014132,BAILLO STORE,Sari Sari Store,Emillana Heights,"Calumpang,126303033",GENERAL SANTOS CITY (DADIANGAS),SOUTH COTABATO,9 S Mindanao,125.132025,6.080691667,1.4,"501 - 2,000",No,183
Extreme Reach,7K014151,Kate Store,Sari Sari Store,Christian Village,"Calumpang,126303033",GENERAL SANTOS CITY (DADIANGAS),SOUTH COTABATO,9 S Mindanao,125.1473283,6.078436667,1.5,"2001 - 3,500",No,191
Extreme Reach,7K010619,No Trade Name,Sari Sari Store,Purok San Juan,"Calumpang,126303033",GENERAL SANTOS CITY (DADIANGAS),SOUTH COTABATO,9 S Mindanao,125.147225,6.071648333,1.3,101 - 500,No,194
Extreme Reach,7K014149,Bebing Store,Sari Sari Store,Makar-Sarangani Highway,"Calumpang,126303033",GENERAL SANTOS CITY (DADIANGAS),SOUTH COTABATO,9 S Mindanao,125.1452433,6.075141667,1.7,101 - 500,No,34
Extreme Reach,7K014116,No Trade Name,Sari Sari Store,Lily valley,"Calumpang,126303033",GENERAL SANTOS CITY (DADIANGAS),SOUTH COTABATO,9 S Mindanao,125.1306217,6.088366667,1.8,101 - 500,No,182
Extreme Reach,7K014123,No Trade Name,Sari Sari Store,Lily valley,"Calumpang,126303033",GENERAL SANTOS CITY (DADIANGAS),SOUTH COTABATO,9 S Mindanao,125.1314833,6.085543333,1.9,101 - 500,No,183
Extreme Reach,7K014138,STAR STORE,Sari Sari Store,JP Rizal Street,"Calumpang,126303033",GENERAL SANTOS CITY (DADIANGAS),SOUTH COTABATO,9 S Mindanao,125.140145,6.074656667,1.7,"501 - 2,000",No,34
Extreme Reach,7K014141,No Trade Name,Sari Sari Store,Makar-Sarangani Highway,"Calumpang,126303033",GENERAL SANTOS CITY (DADIANGAS),SOUTH COTABATO,9 S Mindanao,125.1442967,6.072758333,1.9,"501 - 2,000",No,34
Extreme Reach,7K014140,ZEKE STORE,Sari Sari Store,Makar-Sarangani Highway,"Calumpang,126303033",GENERAL SANTOS CITY (DADIANGAS),SOUTH COTABATO,9 S Mindanao,125.1443517,6.072406667,1.5,"501 - 2,000",No,185
Extreme Reach,7K012872,No Trade Name,Sari Sari Store,,"Calumpang,126303033",GENERAL SANTOS CITY (DADIANGAS),SOUTH COTABATO,9 S Mindanao,125.1361533,6.08739,1.3,"501 - 2,000",No,181
Extreme Reach,7K015986,ELLA STORE,Sari Sari Store,FERNANDEZ,"Calumpang,126303033",GENERAL SANTOS CITY (DADIANGAS),SOUTH COTABATO,9 S Mindanao,125.1317267,6.074765,1.8,"501 - 2,000",No,48
Extreme Reach,7K012343,JO-ANN STORE,Sari Sari Store,Rose Ave. Cahilsot village,"Calumpang,126303033",GENERAL SANTOS CITY (DADIANGAS),SOUTH COTABATO,9 S Mindanao,125.1397917,6.081885,0.9,"501 - 2,000",No,2
Extreme Reach,7K014109,No Trade Name,Sari Sari Store,Greenville.,"Calumpang,126303033",GENERAL SANTOS CITY (DADIANGAS),SOUTH COTABATO,9 S Mindanao,125.132055,6.085363333,1.8,101 - 500,No,183
Extreme Reach,7K014112,No Trade Name,Sari Sari Store,Lily valley,"Calumpang,126303033",GENERAL SANTOS CITY (DADIANGAS),SOUTH COTABATO,9 S Mindanao,125.1317633,6.085416667,1.5,101 - 500,No,183
Extreme Reach,7K014126,RON RON STORE,Sari Sari Store,Emillana heights,"Calumpang,126303033",GENERAL SANTOS CITY (DADIANGAS),SOUTH COTABATO,9 S Mindanao,125.1313433,6.084153333,1.7,"501 - 2,000",No,183
Extreme Reach,7K014129,BATO STORE,Sari Sari Store,Greenville corner,"Calumpang,126303033",GENERAL SANTOS CITY (DADIANGAS),SOUTH COTABATO,9 S Mindanao,125.13232,6.084295,1.3,"3,501 And Up",No,183
Extreme Reach,7K014148,PARALDO STORE,Sari Sari Store,Makar-Sarangani Highway,"Calumpang,126303033",GENERAL SANTOS CITY (DADIANGAS),SOUTH COTABATO,9 S Mindanao,125.1450883,6.075026667,1.6,"501 - 2,000",No,34
Extreme Reach,7K011842,No Trade Name,Sari Sari Store,San miguel,"Calumpang,126303033",GENERAL SANTOS CITY (DADIANGAS),SOUTH COTABATO,9 S Mindanao,125.1457217,6.078698333,1.8,101 - 500,No,190
Extreme Reach,7K013177,MEJIA's STORE,Sari Sari Store,Lower Puting Bato RDX,"Calumpang,126303033",GENERAL SANTOS CITY (DADIANGAS),SOUTH COTABATO,9 S Mindanao,125.15181,6.088515,1.6,101 - 500,No,188
Extreme Reach,7K012318,No Trade Name,Sari Sari Store,Cahilsot village,"Calumpang,126303033",GENERAL SANTOS CITY (DADIANGAS),SOUTH COTABATO,9 S Mindanao,125.141355,6.082748333,1.5,"501 - 2,000",No,2
